{"type": "FeatureCollection", "features": [{"type": "Feature", "properties": {"id": "13_0", "routeId": "13", "routeName": "Café - Oro 2 (Leandro Valle)", "direction": "ida", "directionIndex": 1, "color": "#8B4513", "casingColor": "#222222", "transportType": "combi", "name": "Ida"}, "geometry": {"type": "MultiLineString", "coordinates": [[[-101.149297, 19.694568], [-101.149352, 19.694544], [-101.149431, 19.694465], [-101.149468, 19.694368], [-101.149491, 19.694229], [-101.149516, 19.694087], [-101.149546, 19.69391], [-101.149585, 19.693743], [-101.149798, 19.693072], [-101.149951, 19.692622], [-101.150074, 19.692239], [-101.150052, 19.69209], [-101.150061, 19.692027], [-101.150434, 19.690902], [-101.150446, 19.69086], [-101.150499, 19.690791], [-101.150612, 19.690746], [-101.150655, 19.690718], [-101.150803, 19.690253], [-101.150831, 19.690194], [-101.150979, 19.690206], [-101.151121, 19.68996], [-101.151022, 19.689865], [-101.151104, 19.689743], [-101.1513, 19.689966], [-101.15139, 19.689875], [-101.151702, 19.689563], [-101.15161, 19.68946], [-101.152083, 19.688704], [-101.152199, 19.688587], [-101.152389, 19.688389], [-101.152665, 19.688117], [-101.152887, 19.687879], [-101.15313, 19.687662], [-101.153182, 19.68763], [-101.153402, 19.687501], [-101.153592, 19.687448], [-101.153618, 19.687445], [-101.153864, 19.687425], [-101.154047, 19.687445], [-101.15431, 19.687469], [-101.154589, 19.687495], [-101.154609, 19.687497], [-101.153447, 19.687352], [-101.153564, 19.687334], [-101.153789, 19.687309], [-101.154134, 19.687295], [-101.154566, 19.687344], [-101.154734, 19.687363], [-101.155815, 19.687497], [-101.15606, 19.687276], [-101.156031, 19.687183], [-101.156238, 19.687143], [-101.156548, 19.687072], [-101.156611, 19.687074], [-101.156663, 19.687097], [-101.156683, 19.687133], [-101.156686, 19.687182], [-101.156678, 19.687201], [-101.156663, 19.687215], [-101.156646, 19.687221], [-101.156596, 19.68723], [-101.156432, 19.687259], [-101.156571, 19.687347], [-101.156631, 19.687379], [-101.156699, 19.687387], [-101.157029, 19.687426], [-101.157329, 19.687453], [-101.157323, 19.687433], [-101.15959, 19.68762], [-101.15959, 19.687624], [-101.159573, 19.687824], [-101.160886, 19.687742], [-101.160844, 19.687867], [-101.160978, 19.687774], [-101.162147, 19.68803], [-101.162492, 19.687715], [-101.16301, 19.687998], [-101.163329, 19.687697], [-101.163917, 19.68856], [-101.164261, 19.68863], [-101.165617, 19.688938], [-101.165006, 19.688493], [-101.16504, 19.688342], [-101.167148, 19.68765], [-101.167384, 19.687701], [-101.167778, 19.689108], [-101.167806, 19.688989], [-101.168601, 19.688656], [-101.168627, 19.688538], [-101.169376, 19.688132], [-101.169441, 19.688146], [-101.170123, 19.688294], [-101.170721, 19.688423], [-101.170736, 19.688362], [-101.171447, 19.688009], [-101.171476, 19.687882], [-101.172107, 19.687569], [-101.172161, 19.687345], [-101.172816, 19.68772], [-101.173131, 19.686371], [-101.173149, 19.686292], [-101.17318, 19.686161], [-101.173223, 19.685976], [-101.173516, 19.684718], [-101.173782, 19.683579], [-101.173788, 19.683542], [-101.173688, 19.68352], [-101.17368, 19.683555], [-101.173782, 19.683579], [-101.174308, 19.683701], [-101.174843, 19.683821], [-101.175078, 19.68387], [-101.175087, 19.683819], [-101.175311, 19.683678], [-101.175582, 19.683743], [-101.175655, 19.683706], [-101.175683, 19.683593], [-101.177242, 19.683943], [-101.17756, 19.684008], [-101.177546, 19.684086], [-101.180851, 19.684573], [-101.180798, 19.684859], [-101.180792, 19.684892], [-101.180741, 19.685165], [-101.180699, 19.685386], [-101.180634, 19.685738], [-101.180589, 19.685983], [-101.18057, 19.686074], [-101.180546, 19.686208], [-101.180507, 19.686417], [-101.180399, 19.686996], [-101.180286, 19.6876], [-101.180242, 19.687829], [-101.180222, 19.687932], [-101.180209, 19.688], [-101.180162, 19.688245], [-101.180153, 19.688292], [-101.180146, 19.688325], [-101.180075, 19.688695], [-101.180009, 19.689056], [-101.179841, 19.689979], [-101.179792, 19.690249], [-101.179762, 19.690416], [-101.179714, 19.690671], [-101.179698, 19.69077], [-101.179651, 19.69101], [-101.179576, 19.691401], [-101.17942, 19.692372], [-101.182124, 19.696707], [-101.182382, 19.696747], [-101.182088, 19.698254], [-101.182311, 19.699301], [-101.182428, 19.699322], [-101.183136, 19.700626], [-101.183859, 19.700693], [-101.184568, 19.700685], [-101.184616, 19.701327], [-101.184606, 19.70202], [-101.185402, 19.702001], [-101.185433, 19.702835], [-101.18767, 19.701933], [-101.187684, 19.702783], [-101.188442, 19.701984], [-101.187979, 19.701955], [-101.188815, 19.702015], [-101.188442, 19.701984], [-101.18957, 19.702032], [-101.18887, 19.702016], [-101.191467, 19.7028], [-101.191459, 19.70187], [-101.191459, 19.701842], [-101.192995, 19.701871], [-101.192348, 19.701859], [-101.194095, 19.70196], [-101.19408, 19.702793], [-101.195069, 19.702965], [-101.195372, 19.702974], [-101.195953, 19.702988], [-101.196858, 19.703001], [-101.198443, 19.70304], [-101.199783, 19.703028], [-101.200142, 19.703035], [-101.201688, 19.702839], [-101.202439, 19.70273], [-101.203332, 19.70259], [-101.203642, 19.702564], [-101.20376, 19.702554], [-101.204037, 19.702524], [-101.204151, 19.702509], [-101.204247, 19.702498], [-101.204562, 19.70247], [-101.204707, 19.702452], [-101.20576, 19.702374], [-101.205885, 19.702366], [-101.20605, 19.702355], [-101.206263, 19.702335], [-101.206318, 19.70233], [-101.207573, 19.701766], [-101.207606, 19.701704], [-101.207396, 19.702269], [-101.207584, 19.702256], [-101.208018, 19.702226], [-101.208876, 19.702167], [-101.209736, 19.702101], [-101.210648, 19.702034], [-101.211578, 19.701978], [-101.21171, 19.701932], [-101.21223, 19.701907], [-101.212427, 19.701904], [-101.212599, 19.701954], [-101.213388, 19.702382], [-101.214172, 19.702796], [-101.21442, 19.702919], [-101.215941, 19.703677], [-101.216055, 19.703735], [-101.216113, 19.703765], [-101.21613, 19.703774], [-101.215923, 19.704646], [-101.215919, 19.70466], [-101.215916, 19.704673], [-101.215791, 19.705199], [-101.215617, 19.70558], [-101.215762, 19.706026], [-101.215503, 19.705976], [-101.21551, 19.706296], [-101.215479, 19.70645], [-101.215393, 19.706863], [-101.215282, 19.707245], [-101.215247, 19.707424], [-101.215228, 19.707613], [-101.215303, 19.707903], [-101.215414, 19.708355], [-101.215541, 19.708868], [-101.215621, 19.709256], [-101.215625, 19.709283], [-101.215626, 19.709309], [-101.21564, 19.71002], [-101.215645, 19.710328], [-101.215649, 19.710401], [-101.215694, 19.710532], [-101.215781, 19.710494], [-101.215755, 19.71039], [-101.21574, 19.710249], [-101.215733, 19.710019], [-101.21566, 19.71002], [-101.21564, 19.71002], [-101.215645, 19.710328], [-101.215649, 19.710401], [-101.215694, 19.710532], [-101.215781, 19.710494], [-101.215694, 19.710532], [-101.215782, 19.710722], [-101.216068, 19.711233], [-101.216112, 19.711411], [-101.216237, 19.711358], [-101.216664, 19.71125], [-101.217227, 19.711322], [-101.217429, 19.711199], [-101.217749, 19.711001], [-101.21794, 19.710883], [-101.218093, 19.710718], [-101.218205, 19.710627], [-101.218466, 19.710553], [-101.218492, 19.710544], [-101.218435, 19.710482], [-101.218458, 19.710477], [-101.219283, 19.710313], [-101.220429, 19.710078], [-101.220335, 19.709718], [-101.220283, 19.709523], [-101.220144, 19.708983], [-101.220729, 19.708865], [-101.221295, 19.708751], [-101.222531, 19.708504], [-101.223815, 19.708247], [-101.22479, 19.708057], [-101.225026, 19.708008], [-101.225779, 19.708419], [-101.225936, 19.708387], [-101.22609, 19.708955], [-101.226853, 19.708789], [-101.227009, 19.708756], [-101.22624, 19.708918], [-101.227163, 19.709304], [-101.226383, 19.709459], [-101.226958, 19.711628], [-101.227747, 19.711465], [-101.226995, 19.71177], [-101.227946, 19.712203], [-101.22705, 19.711975], [-101.228043, 19.712413], [-101.22796, 19.712516], [-101.227451, 19.713274], [-101.227398, 19.713365], [-101.227595, 19.713628], [-101.22781, 19.713825], [-101.228152, 19.714088], [-101.228532, 19.714348], [-101.229222, 19.714776], [-101.230027, 19.715285], [-101.230189, 19.715394], [-101.22999, 19.715044], [-101.229965, 19.714968], [-101.229955, 19.714901], [-101.229958, 19.714812], [-101.229989, 19.714727], [-101.230025, 19.714653], [-101.230071, 19.714597], [-101.230132, 19.714544], [-101.230188, 19.714511], [-101.230274, 19.714478], [-101.230373, 19.714472], [-101.230472, 19.714484], [-101.230577, 19.714516], [-101.230671, 19.71458], [-101.230746, 19.714666], [-101.230783, 19.714741], [-101.230803, 19.714847], [-101.230766, 19.715012], [-101.229636, 19.717318], [-101.230573, 19.715854], [-101.230735, 19.715625], [-101.231567, 19.714491], [-101.232089, 19.713833], [-101.232196, 19.713689], [-101.234005, 19.711093], [-101.235098, 19.709542], [-101.230131, 19.716778], [-101.230508, 19.716204], [-101.230564, 19.716116], [-101.229433, 19.718025], [-101.229383, 19.717988], [-101.229372, 19.71798], [-101.229517, 19.718148], [-101.228955, 19.718975], [-101.228904, 19.719056], [-101.22936, 19.718822], [-101.22891, 19.719447], [-101.229034, 19.719522], [-101.229167, 19.719603], [-101.229279, 19.719671], [-101.2294, 19.719744], [-101.229522, 19.719818], [-101.229456, 19.719916], [-101.229377, 19.720028], [-101.229781, 19.720281], [-101.230108, 19.720487], [-101.230541, 19.720758], [-101.230825, 19.720935], [-101.231297, 19.721232], [-101.231836, 19.72153], [-101.231726, 19.721696], [-101.231427, 19.722156], [-101.230708, 19.723247], [-101.230405, 19.723744], [-101.229575, 19.724969], [-101.229013, 19.725714], [-101.229419, 19.725811], [-101.229717, 19.725883], [-101.229841, 19.725879], [-101.230247, 19.72599], [-101.230672, 19.726077], [-101.231144, 19.726175], [-101.23117, 19.72618], [-101.231409, 19.726233], [-101.231511, 19.726252], [-101.23175, 19.726301], [-101.231963, 19.726346], [-101.232412, 19.726399], [-101.232854, 19.72654], [-101.233578, 19.726783], [-101.23355, 19.726952], [-101.233501, 19.727302], [-101.23341, 19.72764], [-101.23333, 19.728055], [-101.234048, 19.728188], [-101.234423, 19.728245], [-101.234785, 19.728302], [-101.235203, 19.728342], [-101.235164, 19.728729], [-101.2351, 19.729152], [-101.235057, 19.729288], [-101.235021, 19.72938], [-101.234965, 19.729437], [-101.234923, 19.729491], [-101.234595, 19.72945], [-101.234212, 19.729389]], [[-101.143723, 19.702817], [-101.144978, 19.702609], [-101.145392, 19.702534], [-101.146225, 19.702573], [-101.146231, 19.702598], [-101.146756, 19.702666], [-101.147414, 19.702573], [-101.147473, 19.702562], [-101.147801, 19.7025], [-101.147879, 19.702488], [-101.148207, 19.702433], [-101.148618, 19.702355], [-101.148539, 19.70193], [-101.148455, 19.701536], [-101.148268, 19.70062], [-101.148723, 19.700545], [-101.149168, 19.700466], [-101.149041, 19.699769], [-101.148952, 19.699397], [-101.149177, 19.698664], [-101.14921, 19.698568], [-101.149586, 19.697611], [-101.149708, 19.697528], [-101.149821, 19.696987], [-101.149764, 19.696957], [-101.149846, 19.69684], [-101.149851, 19.696833], [-101.15146, 19.697608], [-101.150712, 19.697141], [-101.150207, 19.69681], [-101.149935, 19.696602], [-101.149712, 19.696376], [-101.149577, 19.696168], [-101.149447, 19.695903], [-101.149375, 19.69567], [-101.149327, 19.695443], [-101.14931, 19.695233], [-101.149965, 19.696273], [-101.14979, 19.696095], [-101.149659, 19.695874], [-101.149615, 19.695774], [-101.149513, 19.695673], [-101.149491, 19.695549], [-101.149485, 19.695386], [-101.149515, 19.694869], [-101.149548, 19.694594], [-101.149362, 19.694574]]]}}, {"type": "Feature", "properties": {"id": "13_1", "routeId": "13", "routeName": "Café - Oro 2 (Leandro Valle)", "direction": "vuelta", "directionIndex": 2, "color": "#8B4513", "casingColor": "#222222", "transportType": "combi", "name": "Vuelta"}, "geometry": {"type": "MultiLineString", "coordinates": [[[-101.150841, 19.697088], [-101.150653, 19.696947], [-101.150409, 19.696765], [-101.150134, 19.696553], [-101.149951, 19.696404], [-101.149776, 19.696235], [-101.149676, 19.696093], [-101.149563, 19.695851], [-101.149513, 19.695673], [-101.150079, 19.697276], [-101.149933, 19.697375], [-101.149834, 19.697442], [-101.149586, 19.697611], [-101.14921, 19.698568], [-101.149177, 19.698664], [-101.148952, 19.699397], [-101.149041, 19.699769], [-101.149168, 19.700466], [-101.148723, 19.700545], [-101.148268, 19.70062], [-101.148369, 19.701117], [-101.1481, 19.701849], [-101.148207, 19.702433], [-101.147879, 19.702488], [-101.147801, 19.7025], [-101.147473, 19.702562], [-101.147682, 19.702721], [-101.147652, 19.702723], [-101.147535, 19.702762], [-101.147508, 19.702675], [-101.147503, 19.702657], [-101.147473, 19.702562], [-101.147421, 19.702507], [-101.147354, 19.702178], [-101.146177, 19.702391], [-101.144978, 19.702609], [-101.143723, 19.702817]], [[-101.234212, 19.729389], [-101.23384, 19.72933], [-101.233488, 19.729272], [-101.233395, 19.729243], [-101.233243, 19.729148], [-101.233124, 19.729075], [-101.233178, 19.728665], [-101.233217, 19.728524], [-101.233255, 19.728382], [-101.23333, 19.728055], [-101.23341, 19.72764], [-101.233501, 19.727302], [-101.23355, 19.726952], [-101.233578, 19.726783], [-101.232854, 19.72654], [-101.232412, 19.726399], [-101.231963, 19.726346], [-101.23175, 19.726301], [-101.231511, 19.726252], [-101.231409, 19.726233], [-101.23117, 19.72618], [-101.231144, 19.726175], [-101.230672, 19.726077], [-101.230247, 19.72599], [-101.229841, 19.725879], [-101.229717, 19.725883], [-101.229419, 19.725811], [-101.229013, 19.725714], [-101.229575, 19.724969], [-101.229222, 19.724737], [-101.228926, 19.724555], [-101.229735, 19.723339], [-101.22939, 19.723133], [-101.229067, 19.722939], [-101.229111, 19.722876], [-101.229399, 19.72246], [-101.230425, 19.720924], [-101.230541, 19.720758], [-101.230108, 19.720487], [-101.229781, 19.720281], [-101.229377, 19.720028], [-101.229313, 19.719988], [-101.228872, 19.71973], [-101.228758, 19.719661], [-101.228706, 19.719573], [-101.228687, 19.719558], [-101.228573, 19.719154], [-101.228787, 19.718825], [-101.228312, 19.7186], [-101.228308, 19.718713], [-101.228322, 19.718795], [-101.228365, 19.718882], [-101.228473, 19.718949], [-101.228584, 19.718956], [-101.22866, 19.718919], [-101.228743, 19.718851], [-101.228787, 19.718825], [-101.22947, 19.716383], [-101.229291, 19.71628], [-101.229996, 19.715282], [-101.230027, 19.715285], [-101.229222, 19.714776], [-101.229076, 19.714606], [-101.228739, 19.714373], [-101.228242, 19.71404], [-101.227908, 19.71378], [-101.227707, 19.713585], [-101.22758, 19.713432], [-101.227451, 19.713274], [-101.227369, 19.713094], [-101.22724, 19.712679], [-101.22705, 19.711975], [-101.226995, 19.71177], [-101.226958, 19.711628], [-101.226826, 19.711064], [-101.226664, 19.711109], [-101.225635, 19.711311], [-101.226225, 19.709469], [-101.226087, 19.709499], [-101.225545, 19.709064], [-101.225404, 19.709092], [-101.225005, 19.708891], [-101.22493, 19.708589], [-101.224571, 19.708661], [-101.223886, 19.708233], [-101.223815, 19.708247], [-101.222531, 19.708504], [-101.221295, 19.708751], [-101.220729, 19.708865], [-101.220144, 19.708983], [-101.220283, 19.709523], [-101.220335, 19.709718], [-101.220429, 19.710078], [-101.219283, 19.710313], [-101.219153, 19.710339], [-101.218576, 19.710643], [-101.218573, 19.710635], [-101.218492, 19.710544], [-101.218466, 19.710553], [-101.218205, 19.710627], [-101.218093, 19.710718], [-101.21794, 19.710883], [-101.217749, 19.711001], [-101.217653, 19.711061], [-101.216664, 19.71125], [-101.216237, 19.711358], [-101.216105, 19.711083], [-101.216038, 19.710972], [-101.215898, 19.709973], [-101.216494, 19.709806], [-101.215733, 19.710019], [-101.215729, 19.709631], [-101.215728, 19.709409], [-101.215727, 19.709261], [-101.215706, 19.709173], [-101.215626, 19.708844], [-101.215399, 19.707882], [-101.215334, 19.707609], [-101.215344, 19.707434], [-101.215475, 19.706883], [-101.215559, 19.706466], [-101.215604, 19.706307], [-101.215762, 19.706026], [-101.21583, 19.705865], [-101.215842, 19.705639], [-101.215869, 19.705228], [-101.215969, 19.70483], [-101.216008, 19.704675], [-101.216222, 19.703822], [-101.216244, 19.703735], [-101.216225, 19.703723], [-101.21615, 19.703687], [-101.21422, 19.702714], [-101.213427, 19.702333], [-101.212629, 19.701891], [-101.212448, 19.701837], [-101.21223, 19.701838], [-101.211801, 19.702574], [-101.211766, 19.701987], [-101.21159, 19.701854], [-101.210645, 19.70192], [-101.210645, 19.701934], [-101.210648, 19.702034], [-101.210698, 19.702643], [-101.207175, 19.702473], [-101.207132, 19.702335], [-101.206866, 19.702352], [-101.2069, 19.702771], [-101.206408, 19.702322], [-101.20641, 19.702382], [-101.206207, 19.702216], [-101.20605, 19.702355], [-101.205984, 19.702412], [-101.205846, 19.702248], [-101.205488, 19.702278], [-101.205243, 19.702294], [-101.204697, 19.702348], [-101.204488, 19.702355], [-101.204282, 19.70232], [-101.204233, 19.702302], [-101.204087, 19.702246], [-101.203891, 19.702145], [-101.203411, 19.701562], [-101.202727, 19.701439], [-101.202634, 19.701426], [-101.202577, 19.701382], [-101.20166, 19.701248], [-101.20042, 19.701182], [-101.200267, 19.701182], [-101.200188, 19.70118], [-101.200197, 19.701223], [-101.199585, 19.701185], [-101.199599, 19.70078], [-101.196862, 19.701933], [-101.196853, 19.70105], [-101.196001, 19.70146], [-101.195998, 19.701547], [-101.195359, 19.701916], [-101.195112, 19.701912], [-101.194208, 19.701894], [-101.193264, 19.700966], [-101.193539, 19.700974], [-101.19237, 19.700957], [-101.192385, 19.700071], [-101.191486, 19.70004], [-101.191489, 19.699784], [-101.190436, 19.699767], [-101.190418, 19.700924], [-101.188513, 19.700854], [-101.188516, 19.701316], [-101.187976, 19.701304], [-101.188516, 19.701316], [-101.185353, 19.700961], [-101.185355, 19.701068], [-101.185099, 19.701075], [-101.1851, 19.701024], [-101.185028, 19.70102], [-101.184583, 19.700879], [-101.18458, 19.700845], [-101.184093, 19.70069], [-101.183859, 19.700693], [-101.183136, 19.700626], [-101.182126, 19.700559], [-101.181648, 19.700529], [-101.181732, 19.700038], [-101.181578, 19.699856], [-101.181492, 19.69629], [-101.180608, 19.696202], [-101.178762, 19.696169], [-101.178806, 19.695962], [-101.178851, 19.695743], [-101.179032, 19.69475], [-101.179228, 19.69354], [-101.179325, 19.692914], [-101.17942, 19.692372], [-101.179576, 19.691401], [-101.179651, 19.69101], [-101.179698, 19.69077], [-101.179714, 19.690671], [-101.179762, 19.690416], [-101.179792, 19.690249], [-101.179841, 19.689979], [-101.180009, 19.689056], [-101.180075, 19.688695], [-101.180146, 19.688325], [-101.180153, 19.688292], [-101.180162, 19.688245], [-101.180209, 19.688], [-101.180222, 19.687932], [-101.180242, 19.687829], [-101.180286, 19.6876], [-101.180399, 19.686996], [-101.180507, 19.686417], [-101.180546, 19.686208], [-101.18057, 19.686074], [-101.180589, 19.685983], [-101.180634, 19.685738], [-101.179554, 19.686238], [-101.179242, 19.686179], [-101.178832, 19.686355], [-101.178734, 19.686334], [-101.178478, 19.68629], [-101.178415, 19.686554], [-101.177708, 19.686704], [-101.177689, 19.686795], [-101.177046, 19.686961], [-101.177356, 19.685178], [-101.177406, 19.684857], [-101.177497, 19.684364], [-101.177001, 19.684267], [-101.176516, 19.684156], [-101.176416, 19.684105], [-101.176347, 19.684088], [-101.175268, 19.683858], [-101.175087, 19.683819], [-101.173788, 19.683542], [-101.173688, 19.68352], [-101.17368, 19.683555], [-101.173093, 19.685945], [-101.173049, 19.686123], [-101.173017, 19.686257], [-101.172997, 19.686335], [-101.173131, 19.686371], [-101.173367, 19.687489], [-101.173287, 19.687822], [-101.172816, 19.68772], [-101.17256, 19.688821], [-101.172816, 19.68772], [-101.172665, 19.687689], [-101.172537, 19.688241], [-101.172411, 19.688789], [-101.172289, 19.689315], [-101.172128, 19.690016], [-101.172051, 19.690346], [-101.168722, 19.689317], [-101.168464, 19.68926], [-101.167778, 19.689108], [-101.167076, 19.688952], [-101.16636, 19.688793], [-101.165691, 19.688645], [-101.165006, 19.688493], [-101.163634, 19.68872], [-101.163525, 19.689044], [-101.162217, 19.688828], [-101.162206, 19.688922], [-101.162065, 19.688842], [-101.161972, 19.688779], [-101.161448, 19.688229], [-101.160956, 19.688171], [-101.161448, 19.688229], [-101.16023, 19.688087], [-101.160367, 19.68808], [-101.159889, 19.688194], [-101.159792, 19.688197], [-101.159645, 19.688199], [-101.159547, 19.688157], [-101.159299, 19.688137], [-101.15927, 19.688154], [-101.159256, 19.688185], [-101.159256, 19.688241], [-101.156715, 19.688439], [-101.156426, 19.687777], [-101.15641, 19.687737], [-101.155995, 19.687726], [-101.155714, 19.6877], [-101.155609, 19.687697], [-101.155397, 19.687693], [-101.155225, 19.687684], [-101.155112, 19.687693], [-101.15504, 19.687638], [-101.154701, 19.687582], [-101.154597, 19.687575], [-101.154369, 19.687558], [-101.154017, 19.687516], [-101.153835, 19.687516], [-101.153775, 19.687532], [-101.15373, 19.687552], [-101.153622, 19.687551], [-101.152705, 19.689001], [-101.152199, 19.688587], [-101.152184, 19.688573], [-101.15214, 19.688507], [-101.152067, 19.688507], [-101.151992, 19.688502], [-101.151872, 19.688638], [-101.152018, 19.68862], [-101.151636, 19.689165], [-101.151848, 19.688939], [-101.152199, 19.688587], [-101.151104, 19.689743], [-101.1513, 19.689966], [-101.151442, 19.690129], [-101.151354, 19.690221], [-101.151245, 19.690099], [-101.151121, 19.68996], [-101.150979, 19.690206], [-101.151004, 19.690212], [-101.150882, 19.691067], [-101.150957, 19.690825], [-101.150752, 19.690777], [-101.150729, 19.690784], [-101.150708, 19.690798], [-101.150882, 19.691067], [-101.150508, 19.69112], [-101.150807, 19.691776], [-101.150446, 19.69086], [-101.150434, 19.690902], [-101.150061, 19.692027], [-101.149926, 19.69225], [-101.149576, 19.693258], [-101.149476, 19.693557], [-101.149369, 19.693948], [-101.149337, 19.694098], [-101.14932, 19.694217], [-101.150177, 19.692396], [-101.150153, 19.692487], [-101.15013, 19.692506], [-101.150107, 19.692511], [-101.150052, 19.692501], [-101.149742, 19.693482], [-101.150203, 19.693588], [-101.150153, 19.693773], [-101.149687, 19.693674], [-101.149634, 19.693975], [-101.149877, 19.694007], [-101.149596, 19.694244], [-101.149619, 19.694073], [-101.149691, 19.694605], [-101.149598, 19.694665], [-101.149571, 19.694729], [-101.14958, 19.694793], [-101.149652, 19.694878], [-101.150207, 19.695855], [-101.150199, 19.69594], [-101.150175, 19.696131], [-101.15068, 19.696225], [-101.150466, 19.696208], [-101.150634, 19.696658], [-101.150626, 19.696733]]]}}]}