{"type":"FeatureCollection","features":[{"type":"Feature","properties":{"id":"25_0","routeId":"25","routeName":"Gris 2","direction":"ida","directionIndex":1,"color":"#808080","casingColor":"#222222","transportType":"combi","name":"Ida","geometrySource":"official-kml-explicit-coordinates","matchingEngine":"none"},"geometry":{"type":"MultiLineString","coordinates":[[[-101.2355464,19.6854343],[-101.2354904,19.6854611],[-101.235345,19.6855307],[-101.2351519,19.6856233],[-101.2347259,19.6858274],[-101.2341414,19.686106],[-101.2337387,19.6862979],[-101.233629,19.6863502],[-101.2335298,19.6863975],[-101.2333728,19.6864723],[-101.2331166,19.6865944],[-101.2327364,19.6867773],[-101.2326018,19.686842],[-101.2325336,19.6868748],[-101.2313656,19.6874366],[-101.2307102,19.6877518],[-101.2305747,19.687817],[-101.2305107,19.6878479],[-101.2297426,19.6882185],[-101.2295997,19.6882874],[-101.2292598,19.6884514],[-101.2289994,19.688618],[-101.2287578,19.6888026],[-101.2286598,19.6888892],[-101.2284794,19.6890487],[-101.2283479,19.6891651],[-101.2276255,19.6898039],[-101.2275035,19.6899139],[-101.2269197,19.6904403],[-101.2267391,19.6906031],[-101.226614,19.6907159],[-101.2260303,19.6912676],[-101.226012,19.691279],[-101.2258861,19.6913637],[-101.2258236,19.691401],[-101.2258047,19.6914123],[-101.2257405,19.6914408],[-101.2256705,19.6914651],[-101.2255977,19.6914836],[-101.2255192,19.6914922],[-101.2254479,19.6914936],[-101.2253451,19.6914865],[-101.2252295,19.6914751],[-101.2251937,19.6914701],[-101.2251167,19.6914593],[-101.2250653,19.6914479],[-101.2250463,19.6914398],[-101.2249538,19.6913971],[-101.2249423,19.6913917],[-101.224871,19.6913537],[-101.2248433,19.6913359],[-101.2247911,19.6913023],[-101.2247111,19.6912509],[-101.2244748,19.6911728],[-101.2243736,19.6911977],[-101.2241151,19.6914369],[-101.2240672,19.6914827],[-101.2238582,19.6916761],[-101.2228295,19.6925491],[-101.221963,19.6932887],[-101.2217714,19.6934613],[-101.2209412,19.6942094],[-101.2202788,19.6948039],[-101.2200503,19.695009],[-101.2198695,19.695171],[-101.2196873,19.6953343],[-101.2194147,19.6955784],[-101.2189039,19.6960388],[-101.2186753,19.6963881],[-101.218565,19.6965694],[-101.2184409,19.6967733],[-101.218374,19.6968447],[-101.2182482,19.6969788],[-101.2180802,19.6971482],[-101.2175443,19.6976208],[-101.217489,19.6976706],[-101.2173957,19.6977548],[-101.2165685,19.6985006],[-101.216429,19.6986263],[-101.2151886,19.6996629],[-101.2148763,19.6999239],[-101.2137802,19.7009471],[-101.2132259,19.7014677],[-101.2128333,19.7018191],[-101.212808,19.7018506],[-101.2129086,19.7019189],[-101.2130189,19.7019736],[-101.2131004,19.702014],[-101.2131561,19.7020443],[-101.2132118,19.7020747],[-101.2133711,19.7021615],[-101.213488,19.7022253],[-101.2138169,19.7023701],[-101.2139768,19.7024429],[-101.2141091,19.7025111],[-101.2149517,19.7029402],[-101.2152307,19.7030804],[-101.2153729,19.7031585],[-101.2157022,19.7033392],[-101.2161738,19.7035981],[-101.2162015,19.7036172],[-101.2161787,19.7037155],[-101.2161687,19.7038142],[-101.2161772,19.7038799],[-101.2161787,19.703987],[-101.2161444,19.7041383],[-101.2160938,19.7043422],[-101.2160552,19.704498],[-101.2160102,19.7046794],[-101.2159893,19.7047525],[-101.2159689,19.7048242],[-101.2159484,19.7048959],[-101.2159321,19.7049532],[-101.2158646,19.7052733],[-101.215856,19.7053561],[-101.215856,19.7054532],[-101.2158495,19.7056503],[-101.2158446,19.7057261],[-101.2158337,19.7058013],[-101.2158133,19.7058865],[-101.2157941,19.7059479],[-101.2157656,19.7060184],[-101.2157489,19.7060614],[-101.2157206,19.7061145],[-101.2156089,19.7063408],[-101.2156062,19.7063469],[-101.2155776,19.7064426],[-101.2154548,19.7070008],[-101.2154448,19.7070415],[-101.215373,19.7072624],[-101.2153536,19.7073366],[-101.2153404,19.7074121],[-101.2153335,19.7074885],[-101.2153328,19.7075651],[-101.2153385,19.7076416],[-101.2153505,19.7077174],[-101.2153596,19.7077546],[-101.2153938,19.7078904],[-101.2154217,19.7079995],[-101.215462,19.7081558],[-101.2156018,19.7088323],[-101.2156354,19.7089726],[-101.2157057,19.7092666],[-101.215717,19.7093536],[-101.2157188,19.709405],[-101.2157174,19.7096541],[-101.2157168,19.7096863],[-101.215707,19.7100765],[-101.2157142,19.7103025],[-101.2157451,19.7104429],[-101.2157689,19.7105084],[-101.2157944,19.7105771],[-101.2158879,19.7107618],[-101.2159365,19.710853],[-101.2160607,19.7110859],[-101.2161269,19.7112164],[-101.2162072,19.7113803],[-101.2162324,19.7114341],[-101.2162524,19.7114901],[-101.2162669,19.7115477],[-101.2162758,19.7116065],[-101.216279,19.7116659],[-101.2162764,19.7117253],[-101.2162681,19.7117842],[-101.2162542,19.711842],[-101.2162348,19.7118982],[-101.2161782,19.7120664],[-101.216131,19.7122113],[-101.2160106,19.7125811],[-101.2159421,19.7128422],[-101.2158544,19.7131765],[-101.2157653,19.7135157],[-101.215738,19.7136384],[-101.2156857,19.7151332],[-101.2157163,19.7153252],[-101.215741,19.7154302],[-101.2157761,19.7155757],[-101.2160097,19.7164846],[-101.2161533,19.7170273],[-101.2161834,19.7171412],[-101.2162044,19.7172291],[-101.2162318,19.7173429],[-101.2162657,19.7174549],[-101.2163062,19.7175648],[-101.2163529,19.717672],[-101.2164059,19.7177764],[-101.2164648,19.7178775],[-101.2165296,19.717975],[-101.2165999,19.7180685],[-101.2167014,19.7181849],[-101.2167563,19.7182426],[-101.2168419,19.7183224],[-101.216932,19.7183971],[-101.2172167,19.7185941],[-101.2183958,19.7194095],[-101.2189947,19.7198286],[-101.2191209,19.7199168],[-101.2191819,19.7199595],[-101.219846,19.7204241],[-101.2203087,19.7207471],[-101.22059,19.7209435],[-101.2212648,19.7213906],[-101.2217317,19.7216688],[-101.2218958,19.7217536],[-101.2219902,19.7218023],[-101.2220588,19.7218378],[-101.2220845,19.721851],[-101.2224007,19.7220139],[-101.2230574,19.722317],[-101.223175,19.7223439],[-101.2232835,19.7223687],[-101.2233368,19.7225077],[-101.223807,19.723804],[-101.2241154,19.7246777],[-101.2240943,19.7248508],[-101.2241329,19.7249954],[-101.2242016,19.7252524],[-101.2242441,19.7253475],[-101.2242318,19.7253657],[-101.2242063,19.7254062],[-101.2239743,19.7257747],[-101.2239267,19.7258508],[-101.2233842,19.7266465],[-101.2230968,19.7269549],[-101.222935,19.7270824],[-101.2226428,19.7272718],[-101.2225396,19.7273387],[-101.2223506,19.7274612],[-101.2220517,19.7275697],[-101.221749,19.727663],[-101.2214612,19.7277125],[-101.2213579,19.7277244],[-101.2213377,19.7277267],[-101.221188,19.727744],[-101.2209122,19.7277657],[-101.2207986,19.7277697],[-101.2204812,19.7277456],[-101.2202242,19.7277123],[-101.2193187,19.7275959],[-101.218969,19.7275517],[-101.2189099,19.7275442],[-101.2177947,19.727403],[-101.2175306,19.7273697],[-101.2172407,19.7273332],[-101.217176,19.727325],[-101.2169579,19.7272976],[-101.2167967,19.7272773],[-101.2148304,19.7270298],[-101.2146631,19.7270088],[-101.2145498,19.7269945],[-101.2144958,19.7269877],[-101.2144094,19.7269769],[-101.21279,19.7267738],[-101.2121803,19.7267002],[-101.2113567,19.7266008],[-101.210548,19.7265037],[-101.2101531,19.7264563],[-101.2100392,19.7264426],[-101.2078092,19.7261749],[-101.2076921,19.7261609],[-101.2074744,19.7261292],[-101.2073756,19.7261169],[-101.2052056,19.7258465],[-101.2051314,19.7258254],[-101.2045557,19.7257591],[-101.2030101,19.7255706],[-101.2018411,19.7254338],[-101.201342,19.7253755],[-101.2010636,19.725343],[-101.2003005,19.7252539],[-101.1999545,19.7252136],[-101.1998516,19.7252016],[-101.1994506,19.7251549],[-101.1992966,19.7251369],[-101.1980491,19.7249915],[-101.1972952,19.7248907],[-101.1969948,19.7248553],[-101.1968529,19.7248385],[-101.196533,19.7247877],[-101.1959708,19.7246881],[-101.1956132,19.7246223],[-101.1954904,19.7245862],[-101.1947994,19.7243882],[-101.1947849,19.7243833],[-101.1945152,19.7242897],[-101.1941398,19.7241441],[-101.1940209,19.7240926],[-101.193941,19.7240579],[-101.1936558,19.7239342],[-101.1933288,19.72379],[-101.1932132,19.7237401],[-101.1930919,19.723688],[-101.1929705,19.7236359],[-101.1926593,19.7235002],[-101.1921337,19.7232918],[-101.1918458,19.7231562],[-101.1918024,19.7231352],[-101.1910751,19.7228106],[-101.1905235,19.722568],[-101.1902027,19.722411],[-101.1895048,19.7220773],[-101.1884914,19.7215955],[-101.1884208,19.7215645],[-101.1883938,19.7215526],[-101.188148,19.7214383],[-101.188053,19.7213997],[-101.1879595,19.7213611],[-101.1866131,19.7207791],[-101.1862488,19.7206126],[-101.1859926,19.7204956],[-101.1856631,19.720345],[-101.1853361,19.7201956],[-101.1852048,19.7201356],[-101.1851925,19.72013],[-101.1849913,19.7200381],[-101.1849755,19.7199128],[-101.1841747,19.7195812],[-101.1839891,19.7195063],[-101.1837601,19.719417],[-101.1834348,19.7193097],[-101.1830381,19.7193843],[-101.1829475,19.7194023],[-101.1828398,19.7194077],[-101.1826734,19.719414],[-101.1824473,19.7194176],[-101.1824005,19.7194256],[-101.182311,19.7194408],[-101.1821748,19.7194641],[-101.182011,19.719518],[-101.1818703,19.7195643],[-101.1816265,19.7196837],[-101.1812308,19.7198946],[-101.181103,19.7199627],[-101.1809713,19.7200329],[-101.180851,19.7200948],[-101.1807279,19.7201511],[-101.1806023,19.7202016],[-101.1804746,19.7202461],[-101.1803449,19.7202846],[-101.1802135,19.720317],[-101.1800807,19.7203433],[-101.1799469,19.7203633],[-101.1798123,19.7203771],[-101.1796772,19.7203845],[-101.1796011,19.7203804],[-101.1794038,19.7203444],[-101.1789484,19.7202568],[-101.178547,19.7201123],[-101.1785374,19.7201082],[-101.1782027,19.719875],[-101.1778515,19.7195941],[-101.1777149,19.7194848],[-101.1774603,19.7192896],[-101.1773229,19.7191815],[-101.1772085,19.7190916],[-101.1771855,19.7190734],[-101.1770218,19.7189446],[-101.1768797,19.7188328],[-101.1768281,19.7187943],[-101.1763921,19.7184693],[-101.1763562,19.7184426],[-101.1763234,19.7184181],[-101.1754911,19.7177988],[-101.1752497,19.7176193],[-101.1751653,19.7175551],[-101.1750532,19.7174698],[-101.1734626,19.7162604],[-101.1733315,19.7161606],[-101.1733033,19.7161392],[-101.1726347,19.7156443],[-101.1723944,19.715454],[-101.1721093,19.7152309],[-101.1719175,19.715081],[-101.1718241,19.7150079],[-101.1714926,19.7147544],[-101.1712807,19.7145898],[-101.171238,19.7145569],[-101.1711218,19.7144675],[-101.1709628,19.7143452],[-101.17088,19.7142816],[-101.1703718,19.7138907],[-101.1692844,19.7130602],[-101.1691916,19.7130531],[-101.1684207,19.7124915],[-101.1680531,19.712226],[-101.1679732,19.7121682],[-101.1678933,19.7121105],[-101.167749,19.7120063],[-101.1677047,19.7119743],[-101.1663211,19.7109746],[-101.1661546,19.71084],[-101.1660803,19.710767],[-101.1660243,19.710729],[-101.1659683,19.7106909],[-101.1658971,19.7106395],[-101.1658259,19.7105881],[-101.1656997,19.7105094],[-101.165588,19.7104489],[-101.1655115,19.7104424],[-101.1654638,19.7104267],[-101.1654246,19.7104038],[-101.1654171,19.710395],[-101.1653702,19.7103398],[-101.1653612,19.710318],[-101.1653354,19.7102556],[-101.1653263,19.7101882],[-101.1653362,19.7101357],[-101.1653052,19.710047],[-101.165269,19.7099747],[-101.1652215,19.7099023],[-101.1651453,19.709809],[-101.1650387,19.709691],[-101.1649511,19.7095787],[-101.164835,19.7094417],[-101.1643779,19.7088897],[-101.163942,19.708315],[-101.1638469,19.7081898],[-101.1637558,19.7080696],[-101.1636283,19.7079015],[-101.1636112,19.7078349],[-101.1632952,19.7074275],[-101.1632594,19.707352],[-101.1630394,19.7071423],[-101.1628699,19.7069808],[-101.1628193,19.7069326],[-101.1623681,19.7065214],[-101.1622811,19.7064621],[-101.1622491,19.7064355],[-101.1615758,19.7058767],[-101.1609252,19.7053736],[-101.1608082,19.7052813],[-101.1605832,19.7050668],[-101.1598744,19.7045162],[-101.1592417,19.7040028],[-101.1578801,19.7029486],[-101.157835,19.7029131],[-101.1577657,19.7028586],[-101.1567428,19.7020542],[-101.1557683,19.701263],[-101.1555272,19.7010712],[-101.1554291,19.7009932],[-101.154993,19.7006462],[-101.1547551,19.7004608],[-101.1546494,19.7003784],[-101.1544736,19.7002414],[-101.154075,19.6999307],[-101.1538516,19.6997604],[-101.1538482,19.6997578],[-101.1536228,19.699586],[-101.1535435,19.6995255],[-101.1534887,19.6994837],[-101.152795,19.6989329],[-101.1519843,19.6983117],[-101.1513269,19.6978321],[-101.150935,19.6975835],[-101.1504562,19.6972451],[-101.1503054,19.6971353],[-101.1501451,19.6970185],[-101.1499782,19.6968986],[-101.1499033,19.6968455],[-101.1498322,19.696795],[-101.1497377,19.696728],[-101.149559,19.6965724],[-101.1493902,19.6964023],[-101.1492669,19.6962365],[-101.1491428,19.6960134],[-101.149115,19.6958249],[-101.1490989,19.6957156],[-101.1490873,19.6956365],[-101.1491325,19.695244],[-101.1491389,19.6951962],[-101.1491685,19.6949763],[-101.1492127,19.6946475],[-101.1492335,19.6944924],[-101.1492466,19.6942267],[-101.1492534,19.6940907],[-101.1492959,19.6939399],[-101.1493642,19.6936975],[-101.1494837,19.693302],[-101.1495382,19.6931218],[-101.149737,19.692522],[-101.1499506,19.6918886],[-101.1500796,19.6915318],[-101.1501745,19.6912693],[-101.1503376,19.6907519],[-101.1503439,19.690732],[-101.1503777,19.6906209],[-101.1504357,19.6904298],[-101.150485,19.6902677],[-101.1505121,19.6901785],[-101.1505276,19.6901276],[-101.1506285,19.6899588],[-101.1506658,19.6898965],[-101.1507326,19.6897954],[-101.1507571,19.6897581],[-101.1508003,19.689693],[-101.1509057,19.6895695],[-101.1511171,19.6893218],[-101.1511372,19.6892982],[-101.1513288,19.6890976],[-101.151426,19.6889958],[-101.1515204,19.6888969],[-101.1517989,19.6885925],[-101.1518381,19.6885532],[-101.1519961,19.6883948],[-101.1521126,19.6882781],[-101.152164,19.6882235],[-101.1525504,19.687814],[-101.152803,19.6875389],[-101.1528885,19.6874648],[-101.1530938,19.68732],[-101.1533034,19.687241],[-101.1533071,19.6872396],[-101.1533951,19.6872064],[-101.1535267,19.6871783],[-101.1535611,19.687171],[-101.1539041,19.6871573],[-101.1540557,19.6871746],[-101.1543423,19.6872026],[-101.1546365,19.687226],[-101.1546771,19.6872293],[-101.1549298,19.6872597],[-101.1555564,19.6873239],[-101.1562791,19.6874108],[-101.1567053,19.6874578],[-101.1568739,19.6874765],[-101.1569816,19.6874884],[-101.1571989,19.6875144],[-101.1574162,19.6875405],[-101.1577549,19.687589],[-101.1580987,19.6876662],[-101.158543,19.687716],[-101.1585528,19.6877172],[-101.1586886,19.6877335],[-101.1588743,19.6877428],[-101.1589509,19.6877466],[-101.1589545,19.687747],[-101.1590033,19.6877523],[-101.1591305,19.6877647],[-101.1593109,19.6877808],[-101.1595886,19.6878056],[-101.159678,19.6878142],[-101.1599475,19.6878401],[-101.1599846,19.6878437],[-101.1600499,19.6878603],[-101.1602058,19.6878998],[-101.1602929,19.6879112],[-101.1603729,19.6879012],[-101.1603999,19.6878928],[-101.16046,19.6878741],[-101.1607326,19.6877228],[-101.1609246,19.6874943],[-101.1650028,19.6846557],[-101.1651056,19.6845842],[-101.1658042,19.6840978],[-101.1658438,19.6840703],[-101.1662403,19.683789],[-101.1663519,19.6837098],[-101.1665556,19.6835652],[-101.166654,19.6834964],[-101.1670062,19.6832356],[-101.1670966,19.6831777],[-101.1671803,19.683113],[-101.1674164,19.6829455],[-101.1676943,19.6827799],[-101.1681112,19.6825343],[-101.1683066,19.6824362],[-101.1683339,19.6824239],[-101.1684786,19.6823649],[-101.1688479,19.682226],[-101.1693257,19.6820794],[-101.1694951,19.6820375],[-101.169596,19.6820185],[-101.1696968,19.6819937],[-101.1698967,19.6819633],[-101.1703497,19.6819223],[-101.1708879,19.6818833],[-101.1709321,19.6818813],[-101.1710331,19.6818767],[-101.1712424,19.6818672],[-101.1717489,19.6818376],[-101.1720211,19.6818243],[-101.1725408,19.6817919],[-101.1726419,19.6817838],[-101.1733764,19.6817348],[-101.1739416,19.6816971],[-101.1740728,19.681723],[-101.1742819,19.6817102],[-101.1744341,19.681683],[-101.1745477,19.6816753],[-101.1747002,19.6816649],[-101.1757547,19.6815931],[-101.1762436,19.6815678],[-101.177025,19.6815407],[-101.1775725,19.6814988],[-101.1778724,19.6814758],[-101.1779654,19.6814724],[-101.1780943,19.6814676],[-101.1784119,19.6814559],[-101.1789033,19.6814332],[-101.1798147,19.6813706],[-101.180141,19.6813482],[-101.1813529,19.6812918],[-101.1814791,19.6812854],[-101.1814453,19.6814872],[-101.1812628,19.6825751],[-101.1808622,19.684671],[-101.1808264,19.6848542],[-101.1807621,19.6851833],[-101.1807385,19.6853044],[-101.1806505,19.6857546],[-101.1806489,19.6857627],[-101.180611,19.6859566],[-101.1805715,19.6861586],[-101.1812299,19.686275],[-101.1811875,19.6867318],[-101.182631,19.6868937],[-101.1826377,19.6870131],[-101.1842247,19.6872303],[-101.184376,19.687251],[-101.1843158,19.6877128],[-101.1852751,19.6877585],[-101.1862909,19.6877855],[-101.1880627,19.6878025],[-101.1880503,19.6883846],[-101.1880473,19.6885244],[-101.1880075,19.6890539],[-101.1880132,19.6900177],[-101.1879906,19.6903924],[-101.187976,19.690765],[-101.1879159,19.6919128],[-101.1878847,19.6928631],[-101.1878345,19.6942736],[-101.1878225,19.6946759],[-101.1878176,19.6948382],[-101.1877883,19.6958188],[-101.1877871,19.695844],[-101.187729,19.6970264],[-101.1877289,19.6970771],[-101.1877282,19.6973346],[-101.187727,19.697803],[-101.187734,19.6983167],[-101.1877502,19.6988688],[-101.1877575,19.699117],[-101.1877522,19.6996547],[-101.1878227,19.7002035],[-101.1877938,19.7008604],[-101.1878136,19.7012912],[-101.1878259,19.7015585],[-101.1878434,19.7019414],[-101.1880393,19.7019659],[-101.1881486,19.7019796],[-101.1883037,19.7019926],[-101.1885183,19.7019994],[-101.1886312,19.7020029],[-101.1887441,19.7020065],[-101.1887984,19.7020082],[-101.1897371,19.7020378],[-101.189754,19.7018537],[-101.1897591,19.7017986],[-101.1897602,19.7015772],[-101.1897627,19.7010956],[-101.1897637,19.7009114],[-101.1897642,19.6998763],[-101.1897112,19.6993178],[-101.1897048,19.6991243],[-101.1896984,19.6989308],[-101.1897664,19.6983636],[-101.1898737,19.6973515],[-101.1899317,19.6966052],[-101.1899529,19.6959382],[-101.1898638,19.6959361],[-101.189887,19.6958153],[-101.1898985,19.6948115],[-101.1898818,19.693581],[-101.189902,19.6931216],[-101.1899107,19.6929235],[-101.1898858,19.6923306],[-101.1913294,19.6923608],[-101.1926922,19.692392],[-101.194207,19.6924595],[-101.1952265,19.6924757],[-101.1952359,19.6922224],[-101.195253,19.6919448],[-101.1952554,19.6917338],[-101.1952646,19.6913107],[-101.1952713,19.6911375],[-101.1953073,19.690204],[-101.1953107,19.6899126],[-101.1953122,19.6897855],[-101.1953956,19.6874772],[-101.195468,19.6847189],[-101.1954666,19.6843574],[-101.1954661,19.6842011],[-101.1954851,19.6836929],[-101.1954974,19.683349],[-101.1956478,19.6832283],[-101.1956573,19.6829586],[-101.1956252,19.6828491],[-101.195605,19.6827052],[-101.1955931,19.6826528],[-101.1955812,19.6826029],[-101.1955586,19.682541],[-101.1955431,19.6824934],[-101.1955419,19.6824613],[-101.1955569,19.6823843],[-101.1955356,19.6823648],[-101.1955172,19.6823424],[-101.1955023,19.6823177],[-101.1954909,19.6822911],[-101.1954829,19.6822595],[-101.1954799,19.6822271],[-101.1954822,19.6821946],[-101.1954897,19.6821629],[-101.1955021,19.6821327],[-101.1955192,19.682105],[-101.1955404,19.6820803],[-101.1955395,19.6820211],[-101.1957358,19.6815202],[-101.1959143,19.6814595],[-101.195945,19.681408],[-101.1960654,19.6813691],[-101.1962878,19.6812787],[-101.1963465,19.6812548],[-101.1964164,19.6812263],[-101.1964868,19.6811974],[-101.1965294,19.6811799],[-101.1966567,19.6811276],[-101.1967531,19.6810943],[-101.1968863,19.6810562],[-101.19701,19.6810324],[-101.1971311,19.6810091],[-101.1973215,19.6810162],[-101.1974738,19.6810258],[-101.1976618,19.6810496],[-101.1978878,19.6810876],[-101.1981781,19.6811424],[-101.1984565,19.6811685],[-101.1986207,19.6811733],[-101.1988444,19.6811543],[-101.1991775,19.6810995],[-101.1996391,19.6810234],[-101.1999889,19.6809472],[-101.2000388,19.6809327],[-101.2001888,19.6808996],[-101.2003625,19.6808449],[-101.2005409,19.6807712],[-101.2006932,19.6806998],[-101.2008407,19.6805951],[-101.200974,19.6804642],[-101.2011048,19.6802976],[-101.2012333,19.6800216],[-101.2014451,19.6793625],[-101.2016309,19.6787835],[-101.2016731,19.6786519],[-101.2020114,19.6775517],[-101.2021329,19.6772047],[-101.2022969,19.6766628],[-101.2023116,19.6766125],[-101.2023373,19.6765243],[-101.2024474,19.6761469],[-101.2025388,19.6759285],[-101.2026015,19.6758181],[-101.2026851,19.6756667],[-101.2028004,19.675515],[-101.2030227,19.6752899],[-101.2032916,19.6750781],[-101.2036551,19.6748477],[-101.2040149,19.6746451],[-101.2044108,19.6743901],[-101.2045841,19.6742998],[-101.204718,19.6742301],[-101.2047573,19.6742096],[-101.2049823,19.674071],[-101.2050361,19.6740365],[-101.2050666,19.6740169],[-101.2057234,19.6736314],[-101.2059994,19.6734625],[-101.2064739,19.6731819],[-101.206597,19.6731092],[-101.2072914,19.6726987],[-101.2076817,19.6724678],[-101.2081409,19.6722037],[-101.2084026,19.6720729],[-101.2085716,19.6720134],[-101.2086977,19.6719777],[-101.2088286,19.6719515],[-101.2089594,19.6719349],[-101.2091189,19.6719277],[-101.2092426,19.6719253],[-101.2094187,19.6719467],[-101.2095614,19.6719705],[-101.2097066,19.6720062],[-101.209915,19.6720729],[-101.2099542,19.6720894],[-101.2101509,19.6721722],[-101.2105656,19.6723701],[-101.210632,19.6724018],[-101.2108207,19.6724918],[-101.2112048,19.6726752],[-101.2117845,19.672944],[-101.2119331,19.6730148],[-101.2122397,19.6731841],[-101.212807,19.6734581],[-101.2132684,19.673681],[-101.2142403,19.6741297],[-101.2146735,19.6743291],[-101.2148176,19.6743955],[-101.215004,19.6744813],[-101.2160885,19.6750175],[-101.216486,19.6752174],[-101.2170573,19.6754975],[-101.2170695,19.6755039],[-101.2170811,19.6755094],[-101.2171919,19.6755654],[-101.2173736,19.6756572],[-101.217666,19.6758049],[-101.2181304,19.6760474],[-101.2182385,19.6761038],[-101.2185948,19.6762898],[-101.2187918,19.6763925],[-101.2190742,19.6765396],[-101.2194173,19.6767184],[-101.2194769,19.6767494],[-101.2194785,19.6767502],[-101.2196133,19.6768149],[-101.2197514,19.6768812],[-101.2199324,19.6769406],[-101.2201156,19.6769955],[-101.2202989,19.6770324],[-101.2204444,19.6770451],[-101.2205647,19.6770338],[-101.2207562,19.677014],[-101.220843,19.676998],[-101.2209404,19.6769801],[-101.2211159,19.6769533],[-101.2212128,19.6769382],[-101.2215593,19.676853],[-101.2220598,19.6767597],[-101.2225983,19.6766606],[-101.2226497,19.6766564],[-101.2230858,19.6766211],[-101.2234465,19.6766229],[-101.2235663,19.6766269],[-101.2238433,19.6766359],[-101.2239468,19.6766393],[-101.2243766,19.6766555],[-101.2246209,19.6766647],[-101.2248065,19.6766717],[-101.2256517,19.6767036],[-101.2257562,19.6767075],[-101.2270214,19.6767551],[-101.2272248,19.6767622],[-101.2280135,19.6767896],[-101.2287248,19.6768143],[-101.2295079,19.6768517],[-101.2296341,19.6768719],[-101.2300161,19.6768683],[-101.2302319,19.6769381],[-101.230536,19.6770472],[-101.2318546,19.6775206],[-101.2319663,19.6775607],[-101.2322906,19.6776772],[-101.2326084,19.6778011],[-101.2328131,19.677881],[-101.2333357,19.6780847],[-101.2340763,19.6783718],[-101.2343729,19.6786549],[-101.2345692,19.678987],[-101.2348196,19.6795765],[-101.2349374,19.6798366],[-101.2351943,19.6804035],[-101.2353827,19.6808432],[-101.2356219,19.6814018],[-101.2358312,19.6819392],[-101.2358713,19.6820422],[-101.2359752,19.6823089],[-101.2360405,19.6824767],[-101.2360824,19.6825718],[-101.2361559,19.6827389],[-101.2365123,19.6835489],[-101.2366115,19.6837743],[-101.2366136,19.6837791],[-101.2368176,19.6842945],[-101.236997,19.684748],[-101.2369322,19.684776],[-101.2368705,19.6848026],[-101.2368099,19.6848287],[-101.2365966,19.6849309],[-101.2365259,19.6849648],[-101.2355464,19.6854343]]]}},{"type":"Feature","properties":{"id":"25_1","routeId":"25","routeName":"Gris 2","direction":"vuelta","directionIndex":2,"color":"#808080","casingColor":"#222222","transportType":"combi","name":"Vuelta","geometrySource":"official-kml-explicit-coordinates","matchingEngine":"none"},"geometry":{"type":"MultiLineString","coordinates":[[[-101.2355464,19.6854343],[-101.2365259,19.6849648],[-101.2365966,19.6849309],[-101.2368099,19.6848287],[-101.2368705,19.6848026],[-101.2368694,19.6848002],[-101.2367389,19.6845689],[-101.2359827,19.6827981],[-101.2359181,19.6826493],[-101.2358153,19.6824124],[-101.2356478,19.6820268],[-101.2352139,19.6810274],[-101.2348362,19.6801718],[-101.2346042,19.6795875],[-101.2343265,19.6788878],[-101.2341083,19.6786157],[-101.2337902,19.6784165],[-101.2330292,19.6781297],[-101.2322559,19.6778382],[-101.2302535,19.6771658],[-101.2300255,19.6770893],[-101.2297982,19.6770031],[-101.2295774,19.6769792],[-101.2295072,19.6769716],[-101.2287542,19.6769472],[-101.2284126,19.6769376],[-101.2282733,19.6769337],[-101.2280709,19.6769281],[-101.2275584,19.6769137],[-101.2269507,19.6768983],[-101.2265081,19.6768784],[-101.2264194,19.6768744],[-101.2259335,19.6768525],[-101.2257476,19.6768441],[-101.225692,19.6768416],[-101.2256477,19.6768396],[-101.2254578,19.6768311],[-101.2254479,19.6768308],[-101.2250618,19.6768183],[-101.2249185,19.6768137],[-101.2241291,19.6767883],[-101.2239392,19.6767873],[-101.2235089,19.6767851],[-101.2230534,19.6767648],[-101.2225848,19.6768163],[-101.2225534,19.6768215],[-101.2221223,19.6768919],[-101.2217091,19.6769653],[-101.2215649,19.6769909],[-101.2212454,19.6770506],[-101.2211277,19.6770726],[-101.2211153,19.6770752],[-101.2208679,19.6771325],[-101.2206832,19.6771648],[-101.2205671,19.6771858],[-101.2204053,19.6771858],[-101.2202397,19.6771858],[-101.2201198,19.6771667],[-101.2200399,19.6771472],[-101.2199941,19.6771267],[-101.2197466,19.6769955],[-101.2195673,19.6769107],[-101.2194311,19.6768464],[-101.2193902,19.676827],[-101.219049,19.676657],[-101.2186368,19.6764753],[-101.2179941,19.6761453],[-101.2178548,19.6760831],[-101.2177154,19.676021],[-101.217,19.6756554],[-101.2160506,19.6751701],[-101.2149209,19.6746307],[-101.2145924,19.6744738],[-101.2137029,19.674049],[-101.2135426,19.6739696],[-101.2127122,19.6735582],[-101.2115385,19.6729827],[-101.2112255,19.6728316],[-101.2109078,19.6726782],[-101.2103584,19.672413],[-101.2098901,19.6722092],[-101.2097803,19.672168],[-101.2096685,19.67213],[-101.2094948,19.6720967],[-101.209333,19.6720705],[-101.2091831,19.6720472],[-101.2090379,19.6720395],[-101.2088785,19.6720491],[-101.2087783,19.6720691],[-101.2084994,19.6721515],[-101.2081123,19.6723294],[-101.2071249,19.6729509],[-101.2068971,19.6730839],[-101.206697,19.6732007],[-101.2057924,19.673729],[-101.205116,19.6741386],[-101.2050381,19.6741906],[-101.2044837,19.674538],[-101.2039697,19.6748354],[-101.2037127,19.6749901],[-101.2035581,19.6750829],[-101.2034819,19.6751376],[-101.203282,19.6752732],[-101.2030822,19.675435],[-101.2028728,19.6756492],[-101.2027609,19.6758039],[-101.2026658,19.6759776],[-101.2025967,19.6761346],[-101.2025182,19.676344],[-101.202404,19.6766628],[-101.2022477,19.6771733],[-101.2022327,19.6772258],[-101.2021923,19.677378],[-101.2020305,19.6779634],[-101.2016902,19.6789723],[-101.2016735,19.6790246],[-101.2015094,19.67951],[-101.2013333,19.6800645],[-101.2012797,19.6801918],[-101.201217,19.6803324],[-101.2011572,19.680419],[-101.2010406,19.6805522],[-101.2009395,19.6806403],[-101.2007913,19.6807534],[-101.2006242,19.6808425],[-101.2004695,19.6809163],[-101.2002839,19.680971],[-101.2001131,19.6810088],[-101.1998057,19.6810781],[-101.1994559,19.6811519],[-101.1990728,19.6812066],[-101.1987682,19.6812399],[-101.1985636,19.6812494],[-101.1982638,19.6812352],[-101.1981186,19.6812114],[-101.1978593,19.6811685],[-101.1976023,19.6811281],[-101.1974262,19.6811067],[-101.1973191,19.6811067],[-101.1971528,19.6811086],[-101.1970648,19.6811121],[-101.1969779,19.6811276],[-101.1968899,19.6811526],[-101.1967566,19.681199],[-101.1966043,19.6812632],[-101.1964366,19.6813418],[-101.1963563,19.6813834],[-101.1963366,19.6813929],[-101.1962724,19.6814619],[-101.1961725,19.681544],[-101.1961201,19.6816094],[-101.1960749,19.6816856],[-101.1960428,19.681751],[-101.1960202,19.6818272],[-101.1959988,19.6818914],[-101.1959845,19.6819592],[-101.1959654,19.6820556],[-101.1959428,19.6821508],[-101.1958745,19.6822934],[-101.1958619,19.6823216],[-101.1958452,19.6823476],[-101.1958247,19.6823708],[-101.1958009,19.6823906],[-101.195831,19.6824732],[-101.195831,19.6825148],[-101.1957739,19.6827373],[-101.195768,19.6831454],[-101.1957345,19.6847436],[-101.1955743,19.6897203],[-101.1955715,19.6897926],[-101.1955697,19.6900977],[-101.1955728,19.6902047],[-101.1955258,19.6917831],[-101.1955195,19.6920125],[-101.1955192,19.6920246],[-101.1955177,19.692058],[-101.1955073,19.6922932],[-101.1954691,19.6922831],[-101.1953916,19.6922627],[-101.1953745,19.6922582],[-101.1952359,19.6922224],[-101.1952029,19.692214],[-101.1944263,19.6920167],[-101.1937723,19.6918509],[-101.193439,19.6917573],[-101.1927602,19.6915667],[-101.1926543,19.6915369],[-101.1918899,19.6913564],[-101.1917612,19.6913239],[-101.1917488,19.6923704],[-101.1917578,19.6929839],[-101.1899107,19.6929235],[-101.1880935,19.6928693],[-101.1878847,19.6928631],[-101.1879159,19.6919128],[-101.187925,19.6917402],[-101.1879345,19.6915582],[-101.187976,19.690765],[-101.1879906,19.6903924],[-101.1880132,19.6900177],[-101.1880075,19.6890539],[-101.1880473,19.6885244],[-101.1875362,19.6884693],[-101.1875336,19.6877975],[-101.1866876,19.6877893],[-101.186569,19.6877882],[-101.1862909,19.6877855],[-101.1852751,19.6877585],[-101.1843158,19.6877128],[-101.1810684,19.6876326],[-101.1811875,19.6867318],[-101.181198,19.6866186],[-101.1812054,19.6865387],[-101.1812299,19.686275],[-101.1805715,19.6861586],[-101.1805913,19.6860576],[-101.180611,19.6859566],[-101.1806489,19.6857627],[-101.1806505,19.6857546],[-101.1807385,19.6853044],[-101.1807621,19.6851833],[-101.1808264,19.6848542],[-101.1808622,19.684671],[-101.1812628,19.6825751],[-101.1814453,19.6814872],[-101.1811407,19.6814908],[-101.1792122,19.6816039],[-101.176931,19.681751],[-101.1762262,19.6817974],[-101.1761594,19.6818018],[-101.174927,19.6818829],[-101.1741978,19.681933],[-101.1740368,19.6819419],[-101.173817,19.6819541],[-101.1737248,19.6819595],[-101.1731328,19.6819842],[-101.1726341,19.6820204],[-101.1724075,19.6820356],[-101.1720135,19.6820699],[-101.1710065,19.6821308],[-101.1709037,19.6821422],[-101.1703498,19.6821784],[-101.1699348,19.682226],[-101.1697458,19.6822594],[-101.1696324,19.6822792],[-101.1695614,19.6822916],[-101.1695189,19.682299],[-101.1694066,19.6823257],[-101.1689021,19.6824761],[-101.1684852,19.6826531],[-101.1681693,19.6827997],[-101.1678951,19.6829691],[-101.1676324,19.6831423],[-101.1674573,19.6832603],[-101.1671508,19.6834621],[-101.1665379,19.683898],[-101.1664466,19.6839469],[-101.1663,19.6840598],[-101.1661876,19.6841493],[-101.1661698,19.684161],[-101.1659461,19.6843076],[-101.1657746,19.6844329],[-101.1656075,19.6845477],[-101.1654746,19.6846389],[-101.1651747,19.6848448],[-101.1645422,19.685316],[-101.1635949,19.6859666],[-101.1635002,19.6860317],[-101.1628665,19.686467],[-101.1620843,19.6870325],[-101.1616702,19.6873276],[-101.1612894,19.6875886],[-101.1611552,19.6876857],[-101.1609639,19.6878227],[-101.1608187,19.6879307],[-101.1607874,19.6879501],[-101.1606584,19.6880297],[-101.1605856,19.6880604],[-101.1603615,19.688155],[-101.1600302,19.6881082],[-101.1598852,19.6880885],[-101.1595181,19.6880385],[-101.1590618,19.68797],[-101.1589673,19.6879574],[-101.1589491,19.687955],[-101.1588574,19.6879434],[-101.1585259,19.687911],[-101.1584582,19.6879044],[-101.1582586,19.6878848],[-101.1582024,19.6878793],[-101.1581199,19.6878712],[-101.1580334,19.6878627],[-101.1579813,19.6878576],[-101.157845,19.6878444],[-101.1577613,19.6878362],[-101.1576746,19.6878269],[-101.1576066,19.6878196],[-101.1571487,19.6877703],[-101.1569762,19.6877517],[-101.1568389,19.6877369],[-101.1554993,19.6875927],[-101.1552254,19.6875594],[-101.1549979,19.6875318],[-101.154627,19.6874867],[-101.154529,19.6874748],[-101.1537359,19.6874078],[-101.1536528,19.6874226],[-101.1535345,19.6874437],[-101.1533287,19.6875274],[-101.1530884,19.6876641],[-101.1528243,19.6879206],[-101.1521582,19.6885894],[-101.1521148,19.6886329],[-101.152009,19.6887431],[-101.1519039,19.6888525],[-101.1514593,19.6893152],[-101.1513896,19.6893878],[-101.1511742,19.689612],[-101.151124,19.6896902],[-101.150975,19.6899225],[-101.1508034,19.69019],[-101.1506724,19.6905787],[-101.1506355,19.6906787],[-101.1505967,19.6907838],[-101.1504831,19.691092],[-101.1504094,19.6912916],[-101.1503426,19.691484],[-101.150283,19.6916558],[-101.1502345,19.6917956],[-101.150122,19.6921195],[-101.1500596,19.6922995],[-101.1500185,19.6924178],[-101.1499047,19.6927457],[-101.1498432,19.692963],[-101.1497528,19.693311],[-101.1497175,19.6934468],[-101.1496989,19.6935183],[-101.1496398,19.6937455],[-101.1496152,19.6939354],[-101.1495942,19.6940978],[-101.1495849,19.6941692],[-101.1495348,19.6947193],[-101.1495123,19.6949658],[-101.149514,19.6950944],[-101.1495158,19.6952229],[-101.1495162,19.6952592],[-101.1495167,19.6952956],[-101.1495229,19.6953236],[-101.1495794,19.6955799],[-101.1495892,19.6956245],[-101.1496993,19.6959314],[-101.1498921,19.6961944],[-101.1502525,19.6964653],[-101.1503262,19.6965207],[-101.1503999,19.696576],[-101.150831,19.6969315],[-101.1509425,19.6970241],[-101.1509555,19.6970348],[-101.151143,19.6971806],[-101.1511599,19.6972092],[-101.151257,19.6974052],[-101.1514245,19.6975461],[-101.1521707,19.6981419],[-101.1536726,19.6993221],[-101.1538742,19.6994971],[-101.1538896,19.6995106],[-101.1543781,19.6998754],[-101.15479,19.7001997],[-101.1548043,19.7002111],[-101.1552294,19.7005509],[-101.1552911,19.7006003],[-101.15554,19.7007993],[-101.1570705,19.7020005],[-101.1578491,19.7026305],[-101.1583097,19.7029941],[-101.1599715,19.7043209],[-101.16009,19.704422],[-101.1602784,19.70454],[-101.1604162,19.7046493],[-101.1608956,19.7050296],[-101.1612038,19.7053171],[-101.1625294,19.7063167],[-101.1631942,19.7069659],[-101.1634168,19.7070239],[-101.1634874,19.7071001],[-101.1635811,19.7072106],[-101.1636132,19.7072484],[-101.1636748,19.707321],[-101.1638138,19.7075082],[-101.1640061,19.7077594],[-101.1644911,19.7083926],[-101.1646125,19.7085471],[-101.1647183,19.7086819],[-101.1648553,19.7088562],[-101.1649304,19.7089536],[-101.1651141,19.70919],[-101.165251,19.7093619],[-101.1654272,19.7095428],[-101.1654688,19.7095777],[-101.1655281,19.7096185],[-101.1656667,19.7096999],[-101.1658245,19.7097847],[-101.1659759,19.7098422],[-101.1660785,19.7098581],[-101.1661523,19.7098719],[-101.1662056,19.7098985],[-101.1662438,19.7099241],[-101.1662495,19.7099308],[-101.1662783,19.7099645],[-101.1662923,19.7100056],[-101.1663057,19.7100537],[-101.1663116,19.7101346],[-101.1663388,19.7102412],[-101.1664089,19.7104774],[-101.1665008,19.7105739],[-101.1665763,19.7106493],[-101.1667861,19.7108337],[-101.167395,19.7113282],[-101.1687062,19.7123083],[-101.168918,19.712463],[-101.1694819,19.712896],[-101.1694843,19.7129865],[-101.1700935,19.713429],[-101.1705305,19.7137422],[-101.1705629,19.7137654],[-101.1713374,19.7143204],[-101.171422,19.714381],[-101.171445,19.7143975],[-101.1717757,19.7146664],[-101.1718371,19.7147134],[-101.1719978,19.7148358],[-101.1730678,19.7156372],[-101.1739395,19.7162941],[-101.1740362,19.716367],[-101.1745454,19.7167508],[-101.1749821,19.7170934],[-101.1751668,19.7172384],[-101.1752671,19.7173171],[-101.1754187,19.717436],[-101.1757818,19.7177096],[-101.1759683,19.7178501],[-101.176518,19.7182641],[-101.1768321,19.718502],[-101.1770042,19.7186312],[-101.177032,19.718652],[-101.1771695,19.7187578],[-101.1774246,19.7189541],[-101.1775959,19.7190813],[-101.1776347,19.7191101],[-101.1777868,19.719223],[-101.1778365,19.7192599],[-101.1778862,19.7192968],[-101.1784831,19.7197601],[-101.1785763,19.7198216],[-101.1786247,19.7198494],[-101.1787233,19.7199017],[-101.1787734,19.7199263],[-101.1788765,19.7199692],[-101.1789821,19.7200054],[-101.1790898,19.7200349],[-101.1791992,19.7200575],[-101.1793097,19.7200732],[-101.179421,19.7200819],[-101.1795327,19.7200835],[-101.1796442,19.7200781],[-101.1797552,19.7200656],[-101.1798651,19.7200461],[-101.1799736,19.7200198],[-101.1800802,19.7199867],[-101.1801846,19.7199468],[-101.1802862,19.7199005],[-101.1803301,19.7198797],[-101.1806667,19.7196957],[-101.180951,19.7195598],[-101.1810566,19.7195013],[-101.181158,19.7194427],[-101.1815135,19.7192686],[-101.1817219,19.7191743],[-101.1818783,19.719118],[-101.1819318,19.7190987],[-101.1822012,19.719024],[-101.1823016,19.7190116],[-101.18255,19.7189873],[-101.182807,19.7189902],[-101.1829269,19.7190009],[-101.1830468,19.7190116],[-101.1833024,19.7190544],[-101.1835494,19.7191258],[-101.1836678,19.7191686],[-101.1839223,19.7192766],[-101.1840042,19.7193113],[-101.184086,19.719346],[-101.1841919,19.7193946],[-101.1841806,19.7193896],[-101.1844892,19.7195318],[-101.184669,19.7196148],[-101.1848134,19.7196814],[-101.1851376,19.7198311],[-101.185331,19.719822],[-101.185411,19.7198182],[-101.1856081,19.7199039],[-101.1856561,19.7199263],[-101.1857775,19.7199829],[-101.1869305,19.7205203],[-101.1871946,19.7206435],[-101.1873885,19.7207345],[-101.1881122,19.7210458],[-101.1887333,19.7213375],[-101.1887998,19.7213681],[-101.1895077,19.7216982],[-101.1904283,19.7220713],[-101.1905205,19.7221113],[-101.1910232,19.7223295],[-101.192137,19.7228522],[-101.192842,19.7231533],[-101.193159,19.7232989],[-101.1933631,19.7233903],[-101.1934002,19.7234074],[-101.1935844,19.7234945],[-101.1940727,19.7237229],[-101.1943896,19.7238586],[-101.1947294,19.7239899],[-101.1949421,19.7240599],[-101.1951591,19.7241184],[-101.1953316,19.7241627],[-101.1956177,19.7242188],[-101.1957286,19.7242351],[-101.1958534,19.7242549],[-101.1960293,19.7242828],[-101.1961813,19.7243069],[-101.196688,19.7243869],[-101.1968346,19.7244078],[-101.196848,19.7244094],[-101.1969907,19.7244268],[-101.1973504,19.724463],[-101.1976098,19.7244778],[-101.1976858,19.7244871],[-101.1983162,19.7245642],[-101.1983206,19.7245647],[-101.198877,19.7246327],[-101.2005652,19.724839],[-101.2008448,19.7248776],[-101.2011725,19.7249167],[-101.2015185,19.7249579],[-101.2030368,19.7251453],[-101.2040986,19.725273],[-101.2042898,19.725296],[-101.2046108,19.7253346],[-101.2050486,19.7253878],[-101.2052989,19.7254182],[-101.2057167,19.7254742],[-101.2059195,19.7255003],[-101.2079712,19.725764],[-101.2109507,19.7261421],[-101.2110376,19.7261532],[-101.2113303,19.7261903],[-101.2119803,19.7262953],[-101.212707,19.7264128],[-101.2127261,19.7263815],[-101.2127498,19.7263736],[-101.2127734,19.7263657],[-101.2137809,19.726485],[-101.2139876,19.7265095],[-101.2141512,19.7265288],[-101.2144873,19.7265686],[-101.2146294,19.7265832],[-101.2147322,19.7265959],[-101.2163623,19.7267972],[-101.2169378,19.7268682],[-101.2177901,19.7269735],[-101.2180683,19.7270076],[-101.2182205,19.7270264],[-101.2190004,19.7271232],[-101.2191521,19.7271421],[-101.2200838,19.7272578],[-101.2202955,19.7272806],[-101.2205573,19.7273162],[-101.2208263,19.7273345],[-101.2209279,19.7273293],[-101.2210249,19.7273243],[-101.2211461,19.7273181],[-101.2214122,19.7272776],[-101.2215461,19.7272452],[-101.2216857,19.7272121],[-101.221835,19.7271603],[-101.2219893,19.7271067],[-101.2222359,19.7270006],[-101.2224168,19.7268982],[-101.2225738,19.7267959],[-101.2226952,19.7266984],[-101.2227999,19.7266103],[-101.2228974,19.7265151],[-101.2230545,19.7263456],[-101.2231421,19.7262348],[-101.2232034,19.7261501],[-101.2234091,19.7258598],[-101.2236128,19.7255762],[-101.2238964,19.7251555],[-101.2239954,19.7250032],[-101.2240943,19.7248508],[-101.2240354,19.7247634],[-101.2239117,19.7244093],[-101.2238098,19.7241295],[-101.2237629,19.7240004],[-101.223708,19.7238497],[-101.2236947,19.723804],[-101.2235633,19.7234023],[-101.2232473,19.7225038],[-101.2223433,19.7221036],[-101.2215985,19.7217041],[-101.220974,19.7213292],[-101.220356,19.7209064],[-101.2202445,19.7208275],[-101.2198012,19.7205138],[-101.2197161,19.7204554],[-101.2191187,19.7200446],[-101.2187733,19.7198071],[-101.2178275,19.7191548],[-101.217115,19.7186596],[-101.2169214,19.7185271],[-101.2168345,19.7184623],[-101.2167514,19.7183927],[-101.2166723,19.7183186],[-101.2165975,19.7182401],[-101.2165272,19.7181576],[-101.2164617,19.7180713],[-101.216401,19.7179814],[-101.2163456,19.7178882],[-101.2162954,19.7177921],[-101.2162507,19.7176934],[-101.2162117,19.7175923],[-101.2161783,19.7174891],[-101.2160857,19.7171379],[-101.2160851,19.7171356],[-101.2159657,19.7166931],[-101.2159153,19.7165064],[-101.215731,19.7158236],[-101.2156574,19.7155444],[-101.2156209,19.7154026],[-101.2156023,19.7153336],[-101.2155764,19.7151791],[-101.2155659,19.7150547],[-101.2155865,19.714773],[-101.2156501,19.7136223],[-101.2157798,19.7131615],[-101.2158438,19.7129339],[-101.2160508,19.7121976],[-101.2160642,19.7121126],[-101.2160735,19.7120443],[-101.2160616,19.7119896],[-101.2160473,19.7119277],[-101.216033,19.7118587],[-101.2160211,19.7117802],[-101.2160259,19.7117088],[-101.2160473,19.7116255],[-101.2160711,19.7115541],[-101.2160989,19.711459],[-101.2160997,19.7114399],[-101.2160925,19.7113804],[-101.2160711,19.7113067],[-101.2160092,19.7111734],[-101.2158355,19.7108593],[-101.2157507,19.7106877],[-101.215688,19.7105396],[-101.2156761,19.7105096],[-101.2156571,19.7104406],[-101.2156404,19.7103501],[-101.2156404,19.7102669],[-101.2156333,19.7100337],[-101.2156285,19.709691],[-101.2156289,19.7096357],[-101.2156376,19.7094378],[-101.2156304,19.7093622],[-101.2156207,19.7092833],[-101.2156204,19.7092808],[-101.2154561,19.7086018],[-101.2154229,19.7084648],[-101.2153727,19.7082572],[-101.2153264,19.7080304],[-101.2153059,19.7079077],[-101.2152643,19.7076571],[-101.2152581,19.7074648],[-101.2152609,19.7074121],[-101.2152661,19.7073692],[-101.2152706,19.707332],[-101.2152822,19.7072699],[-101.2152719,19.7071575],[-101.2153556,19.7068219],[-101.2154937,19.7063184],[-101.215484,19.7060736],[-101.2154984,19.7057448],[-101.2156143,19.7054566],[-101.2157565,19.7052458],[-101.2158956,19.704808],[-101.2160102,19.7043234],[-101.2160332,19.7042259],[-101.2160982,19.7039511],[-101.2161687,19.7038142],[-101.2156674,19.7035624],[-101.2142279,19.7028391],[-101.214043,19.7027462],[-101.2138218,19.7026351],[-101.2137596,19.7026042],[-101.2135471,19.7024987],[-101.2126521,19.7020543],[-101.212549,19.7020137],[-101.2126987,19.7017844],[-101.2127126,19.7017858],[-101.2127546,19.70179],[-101.2135037,19.7011152],[-101.2139867,19.7006801],[-101.2142627,19.7004161],[-101.2149251,19.6998286],[-101.2154629,19.6993516],[-101.2155391,19.6992839],[-101.2158413,19.6990159],[-101.2164054,19.6985155],[-101.2165108,19.6984221],[-101.216588,19.6983536],[-101.2174122,19.6976226],[-101.2174743,19.6975605],[-101.2176749,19.697407],[-101.2180194,19.6970891],[-101.2181474,19.6969762],[-101.2181964,19.6969216],[-101.2182992,19.6968093],[-101.2183849,19.6966894],[-101.2184706,19.6965637],[-101.2185067,19.6965133],[-101.218622,19.6963381],[-101.2186286,19.6963277],[-101.2187294,19.6961716],[-101.2187418,19.6961559],[-101.2187686,19.6961218],[-101.2188494,19.6960193],[-101.2189122,19.6959317],[-101.218952,19.6958837],[-101.2192478,19.6955993],[-101.2192624,19.6955872],[-101.2198754,19.6950542],[-101.2203896,19.6945943],[-101.2204471,19.6945429],[-101.2205313,19.6944676],[-101.2207716,19.6942527],[-101.2217379,19.6933885],[-101.2220082,19.6931692],[-101.2221131,19.693084],[-101.2222784,19.6929499],[-101.2229237,19.6923931],[-101.2237751,19.6916486],[-101.2239223,19.6915185],[-101.2240633,19.691394],[-101.2240696,19.6913884],[-101.2241303,19.6913348],[-101.2243642,19.6911281],[-101.224467,19.6910403],[-101.2245698,19.6909525],[-101.224567,19.6910268],[-101.2247126,19.6912095],[-101.2247112,19.6912504],[-101.2247911,19.6913023],[-101.2248433,19.6913359],[-101.224871,19.6913537],[-101.2249423,19.6913917],[-101.2249538,19.6913971],[-101.2250463,19.6914398],[-101.2250653,19.6914479],[-101.2251167,19.6914593],[-101.2251937,19.6914701],[-101.2252295,19.6914751],[-101.2253451,19.6914865],[-101.2254478,19.6914936],[-101.2255192,19.6914922],[-101.2255977,19.6914836],[-101.2256705,19.6914651],[-101.2257405,19.6914408],[-101.2258047,19.6914123],[-101.2258236,19.691401],[-101.2258861,19.6913637],[-101.226012,19.691279],[-101.2260303,19.6912676],[-101.226614,19.6907159],[-101.2267391,19.6906031],[-101.2269197,19.6904403],[-101.2275035,19.6899139],[-101.2276255,19.6898039],[-101.2283479,19.6891651],[-101.2284794,19.6890487],[-101.2286598,19.6888892],[-101.2287578,19.6888026],[-101.2289994,19.688618],[-101.2292598,19.6884514],[-101.2295997,19.6882874],[-101.2297426,19.6882185],[-101.2305107,19.6878479],[-101.2305747,19.687817],[-101.2307102,19.6877518],[-101.2313656,19.6874366],[-101.2325336,19.6868748],[-101.2326018,19.686842],[-101.2327364,19.6867773],[-101.2331166,19.6865944],[-101.2333728,19.6864723],[-101.2335298,19.6863975],[-101.233629,19.6863502],[-101.2337387,19.6862979],[-101.2341414,19.686106],[-101.23457,19.6859017],[-101.2347274,19.6858274],[-101.2351534,19.6856233],[-101.2353466,19.6855307],[-101.235492,19.685461],[-101.2355467,19.6854348]]]}}]}
