{"type":"FeatureCollection","features":[{"type":"Feature","properties":{"id":"28_0","routeId":"28","routeName":"Gris 4","direction":"ida","directionIndex":1,"color":"#808080","casingColor":"#222222","transportType":"combi","name":"Ida","geometrySource":"official-kml-explicit-coordinates","matchingEngine":"none"},"geometry":{"type":"MultiLineString","coordinates":[[[-101.1841806,19.7193896],[-101.1844892,19.7195318],[-101.184669,19.7196148],[-101.1848134,19.7196814],[-101.1851376,19.7198311],[-101.185331,19.719822],[-101.185411,19.7198182],[-101.1856081,19.7199039],[-101.1856561,19.7199263],[-101.1857775,19.7199829],[-101.1869305,19.7205203],[-101.1871946,19.7206435],[-101.1873885,19.7207345],[-101.1881122,19.7210458],[-101.1881046,19.7211412],[-101.1880941,19.7211702],[-101.1880799,19.7212097],[-101.188057,19.721263],[-101.1880385,19.721285],[-101.1880171,19.7213106],[-101.1879595,19.7213611],[-101.1866131,19.7207791],[-101.1862488,19.7206126],[-101.1859926,19.7204956],[-101.1856631,19.720345],[-101.1855209,19.7202801],[-101.1854396,19.7202429],[-101.1853361,19.7201956],[-101.1852048,19.7201356],[-101.1851925,19.72013],[-101.1849913,19.7200381],[-101.1849755,19.7199128],[-101.1841747,19.7195812],[-101.1839891,19.7195063],[-101.1837601,19.719417],[-101.1834348,19.7193097],[-101.1830381,19.7193843],[-101.1829475,19.7194023],[-101.1828398,19.7194077],[-101.1827322,19.7194131],[-101.1826734,19.719414],[-101.1824473,19.7194176],[-101.1824005,19.7194256],[-101.182311,19.7194408],[-101.1821748,19.7194641],[-101.182011,19.719518],[-101.1818703,19.7195643],[-101.1816265,19.7196837],[-101.1812308,19.7198946],[-101.181103,19.7199627],[-101.1809713,19.7200329],[-101.180851,19.7200948],[-101.1807279,19.7201511],[-101.1806023,19.7202016],[-101.1804746,19.7202461],[-101.1803449,19.7202846],[-101.1802135,19.720317],[-101.1800807,19.7203433],[-101.1799469,19.7203633],[-101.1798123,19.7203771],[-101.1796772,19.7203845],[-101.1796011,19.7203804],[-101.1794038,19.7203444],[-101.1789484,19.7202568],[-101.178547,19.7201123],[-101.1785374,19.7201082],[-101.1782027,19.719875],[-101.1778515,19.7195941],[-101.1777149,19.7194848],[-101.1774603,19.7192896],[-101.1773229,19.7191815],[-101.1772085,19.7190916],[-101.1771855,19.7190734],[-101.1768281,19.7187943],[-101.1765658,19.7185988],[-101.1764811,19.7185356],[-101.1763921,19.7184693],[-101.1763562,19.7184426],[-101.1763234,19.7184181],[-101.1754911,19.7177988],[-101.1752497,19.7176193],[-101.1751653,19.7175551],[-101.1750532,19.7174698],[-101.1734626,19.7162604],[-101.1733315,19.7161606],[-101.1733033,19.7161392],[-101.1726347,19.7156443],[-101.1723944,19.715454],[-101.1721093,19.7152309],[-101.1719661,19.7151189],[-101.1718811,19.7150525],[-101.1718241,19.7150079],[-101.1714926,19.7147544],[-101.1712807,19.7145898],[-101.171238,19.7145569],[-101.1711218,19.7144675],[-101.1709628,19.7143452],[-101.17088,19.7142816],[-101.1703718,19.7138907],[-101.1692844,19.7130602],[-101.1691916,19.7130531],[-101.1684207,19.7124915],[-101.1680531,19.712226],[-101.1679732,19.7121682],[-101.1678933,19.7121105],[-101.167749,19.7120063],[-101.1677047,19.7119743],[-101.167597,19.7118964],[-101.1675213,19.7118418],[-101.1663211,19.7109746],[-101.1661546,19.71084],[-101.1660803,19.710767],[-101.1660243,19.710729],[-101.1659683,19.7106909],[-101.1658971,19.7106395],[-101.1658259,19.7105881],[-101.1656997,19.7105094],[-101.165588,19.7104489],[-101.1655115,19.7104424],[-101.1654638,19.7104267],[-101.1654246,19.7104038],[-101.1654171,19.710395],[-101.1653702,19.7103398],[-101.1653612,19.710318],[-101.1653354,19.7102556],[-101.1653263,19.7101882],[-101.1653362,19.7101357],[-101.1653052,19.710047],[-101.165269,19.7099747],[-101.1652215,19.7099023],[-101.1651453,19.709809],[-101.1650387,19.709691],[-101.1649511,19.7095787],[-101.164835,19.7094417],[-101.1648091,19.7094103],[-101.1645735,19.7091259],[-101.1645024,19.70904],[-101.1644168,19.7089367],[-101.1643598,19.7088659],[-101.1642421,19.7087107],[-101.1641977,19.7086522],[-101.163942,19.708315],[-101.1638469,19.7081898],[-101.1637558,19.7080696],[-101.1636283,19.7079015],[-101.1636112,19.7078349],[-101.1632952,19.7074275],[-101.1632594,19.707352],[-101.1630394,19.7071423],[-101.1628699,19.7069808],[-101.1627821,19.7068987],[-101.1623681,19.7065214],[-101.1622811,19.7064621],[-101.1622491,19.7064355],[-101.1615758,19.7058767],[-101.1614507,19.70578],[-101.1613832,19.7057277],[-101.1609252,19.7053736],[-101.1608082,19.7052813],[-101.1605832,19.7050668],[-101.1598744,19.7045162],[-101.1593213,19.7040674],[-101.1592669,19.7040232],[-101.1592417,19.7040028],[-101.158689,19.7035749],[-101.1585946,19.7035018],[-101.1578801,19.7029486],[-101.157835,19.7029131],[-101.1577657,19.7028586],[-101.1567428,19.7020542],[-101.1557683,19.701263],[-101.1555272,19.7010712],[-101.1554291,19.7009932],[-101.1552832,19.7008771],[-101.155211,19.7008197],[-101.154993,19.7006462],[-101.1548104,19.7005039],[-101.1547533,19.7004594],[-101.1546494,19.7003784],[-101.1544736,19.7002414],[-101.154075,19.6999307],[-101.1538516,19.6997604],[-101.1538482,19.6997578],[-101.1536228,19.699586],[-101.1535435,19.6995255],[-101.1534887,19.6994837],[-101.153451,19.6994538],[-101.152795,19.6989329],[-101.1519843,19.6983117],[-101.1513269,19.6978321],[-101.150935,19.6975835],[-101.1504562,19.6972451],[-101.1503054,19.6971353],[-101.1501451,19.6970185],[-101.1499782,19.6968986],[-101.1499554,19.6968824],[-101.1498997,19.6968429],[-101.1498322,19.696795],[-101.1497377,19.696728],[-101.149559,19.6965724],[-101.1493902,19.6964023],[-101.1493079,19.6962917],[-101.1492482,19.696203],[-101.1491428,19.6960134],[-101.1491289,19.6959192],[-101.149115,19.6958249],[-101.1490989,19.6957156],[-101.1490873,19.6956365],[-101.1491325,19.695244],[-101.1491389,19.6951962],[-101.1491685,19.6949763],[-101.1492127,19.6946475],[-101.1492335,19.6944924],[-101.1492466,19.6942267],[-101.1492534,19.6940907],[-101.1492959,19.6939399],[-101.1493642,19.6936975],[-101.1494837,19.693302],[-101.1495382,19.6931218],[-101.1496855,19.6926775],[-101.1497036,19.692623],[-101.149737,19.692522],[-101.1499506,19.6918886],[-101.1500796,19.6915318],[-101.1501745,19.6912693],[-101.1502099,19.6911568],[-101.1502366,19.6910724],[-101.1503376,19.6907519],[-101.1503439,19.690732],[-101.1503777,19.6906209],[-101.1504357,19.6904298],[-101.1504756,19.6902987],[-101.1504924,19.6902433],[-101.1505121,19.6901785],[-101.1505276,19.6901276],[-101.1505549,19.690082],[-101.1506285,19.6899588],[-101.1506658,19.6898965],[-101.1507326,19.6897954],[-101.1507993,19.6896942],[-101.1508339,19.6896537],[-101.1509057,19.6895695],[-101.1511171,19.6893218],[-101.1511372,19.6892982],[-101.1513288,19.6890976],[-101.151426,19.6889958],[-101.1515204,19.6888969],[-101.1517989,19.6885925],[-101.1518381,19.6885532],[-101.1519961,19.6883948],[-101.1521126,19.6882781],[-101.152164,19.6882235],[-101.1522313,19.6881522],[-101.1523092,19.6880697],[-101.1525504,19.687814],[-101.1527171,19.6876325],[-101.152803,19.6875389],[-101.1528389,19.6874999],[-101.1528885,19.6874648],[-101.1530938,19.68732],[-101.1531293,19.6873066],[-101.1533034,19.687241],[-101.1533071,19.6872396],[-101.1533951,19.6872064],[-101.1535267,19.6871783],[-101.1535611,19.687171],[-101.1539041,19.6871573],[-101.1540557,19.6871746],[-101.1543423,19.6872026],[-101.1546365,19.687226],[-101.1546771,19.6872293],[-101.1549298,19.6872597],[-101.1555564,19.6873239],[-101.1562791,19.6874108],[-101.1567053,19.6874578],[-101.1567896,19.6874672],[-101.1568739,19.6874765],[-101.1569468,19.6874845],[-101.1569816,19.6874884],[-101.1571989,19.6875144],[-101.1572241,19.6875174],[-101.1573075,19.6875275],[-101.1574162,19.6875405],[-101.1577549,19.687589],[-101.1580987,19.6876662],[-101.158543,19.687716],[-101.1585528,19.6877172],[-101.1586886,19.6877335],[-101.1588743,19.6877428],[-101.1589458,19.6877464],[-101.1589545,19.687747],[-101.1590033,19.6877523],[-101.1591305,19.6877647],[-101.1593109,19.6877808],[-101.1595886,19.6878056],[-101.159678,19.6878142],[-101.1597371,19.6878199],[-101.1598597,19.6878317],[-101.1599475,19.6878401],[-101.1599846,19.6878437],[-101.1600499,19.6878603],[-101.1602058,19.6878998],[-101.1602929,19.6879112],[-101.1603729,19.6879012],[-101.1603999,19.6878928],[-101.16046,19.6878741],[-101.1607326,19.6877228],[-101.1609246,19.6874943],[-101.1635994,19.6856325],[-101.1636881,19.6855708],[-101.1650028,19.6846557],[-101.1651056,19.6845842],[-101.1651539,19.6845505],[-101.1652054,19.6845146],[-101.1658042,19.6840978],[-101.1658438,19.6840703],[-101.1662403,19.683789],[-101.1663519,19.6837098],[-101.1665556,19.6835652],[-101.166654,19.6834964],[-101.1670062,19.6832356],[-101.1670966,19.6831777],[-101.1671803,19.683113],[-101.1674164,19.6829455],[-101.1676943,19.6827799],[-101.1681112,19.6825343],[-101.1683066,19.6824362],[-101.1683339,19.6824239],[-101.1684786,19.6823649],[-101.1688479,19.682226],[-101.1693257,19.6820794],[-101.1694951,19.6820375],[-101.169596,19.6820185],[-101.1696968,19.6819937],[-101.1698967,19.6819633],[-101.1703497,19.6819223],[-101.1703864,19.6819196],[-101.1704329,19.6819162],[-101.1708879,19.6818833],[-101.1709321,19.6818813],[-101.1710331,19.6818767],[-101.1712424,19.6818672],[-101.1717489,19.6818376],[-101.1720211,19.6818243],[-101.1725408,19.6817919],[-101.1726419,19.6817838],[-101.1733764,19.6817348],[-101.1739416,19.6816971],[-101.1740728,19.681723],[-101.1742819,19.6817102],[-101.1744341,19.681683],[-101.1745477,19.6816753],[-101.1747002,19.6816649],[-101.1750944,19.6816381],[-101.1751595,19.6816336],[-101.1757547,19.6815931],[-101.1762436,19.6815678],[-101.177025,19.6815407],[-101.1775725,19.6814988],[-101.1778724,19.6814758],[-101.1779654,19.6814724],[-101.1780943,19.6814676],[-101.1784119,19.6814559],[-101.1789033,19.6814332],[-101.1798147,19.6813706],[-101.180141,19.6813482],[-101.1802518,19.6813431],[-101.1803025,19.6813407],[-101.1813529,19.6812918],[-101.1814791,19.6812854],[-101.1816436,19.6812239],[-101.1826638,19.681156],[-101.182891,19.6811423],[-101.1836833,19.6810945],[-101.1837716,19.6810891],[-101.1840313,19.6810735],[-101.1846762,19.6810358],[-101.1851273,19.6810095],[-101.1851997,19.6810053],[-101.1853481,19.6809966],[-101.1858926,19.6809636],[-101.1863484,19.6809361],[-101.1866901,19.6809379],[-101.186962,19.6809813],[-101.1872717,19.6810429],[-101.1875749,19.6811405],[-101.1879535,19.6813283],[-101.1884079,19.6815466],[-101.1885825,19.6816293],[-101.1888938,19.681777],[-101.1892094,19.6819285],[-101.1894997,19.682068],[-101.1896354,19.6821226],[-101.1897573,19.6821717],[-101.1897711,19.6821773],[-101.1898635,19.6821987],[-101.1900366,19.6822387],[-101.1903022,19.6822761],[-101.1905679,19.6822895],[-101.1908654,19.6822731],[-101.1911251,19.6822445],[-101.1920365,19.6821122],[-101.1922919,19.6820668],[-101.192525,19.6820302],[-101.1932662,19.6819142],[-101.1937856,19.6818391],[-101.1939377,19.6818257],[-101.1940388,19.6818167],[-101.1942921,19.6817944],[-101.1942985,19.6817938],[-101.1947495,19.6818212],[-101.1948828,19.6817867],[-101.1955217,19.6815916],[-101.1957358,19.6815202],[-101.1959143,19.6814595],[-101.195945,19.681408],[-101.1960654,19.6813691],[-101.1962878,19.6812787],[-101.1963465,19.6812548],[-101.1964164,19.6812263],[-101.1964868,19.6811974],[-101.1965294,19.6811799],[-101.1966567,19.6811276],[-101.1967531,19.6810943],[-101.1968863,19.6810562],[-101.19701,19.6810324],[-101.1971311,19.6810091],[-101.1973215,19.6810162],[-101.1974738,19.6810258],[-101.1976618,19.6810496],[-101.1978878,19.6810876],[-101.1981781,19.6811424],[-101.1984565,19.6811685],[-101.1986207,19.6811733],[-101.1986974,19.6811668],[-101.1988444,19.6811543],[-101.1991775,19.6810995],[-101.1996391,19.6810234],[-101.1999889,19.6809472],[-101.2000388,19.6809327],[-101.2001888,19.6808996],[-101.2003625,19.6808449],[-101.2005409,19.6807712],[-101.2006932,19.6806998],[-101.2008407,19.6805951],[-101.200974,19.6804642],[-101.2011048,19.6802976],[-101.2012333,19.6800216],[-101.2014451,19.6793625],[-101.2016309,19.6787835],[-101.2016731,19.6786519],[-101.2020114,19.6775517],[-101.2021101,19.6772698],[-101.2021329,19.6772047],[-101.2022969,19.6766628],[-101.2023116,19.6766125],[-101.2023373,19.6765243],[-101.2024474,19.6761469],[-101.2025388,19.6759285],[-101.2026015,19.6758181],[-101.2026851,19.6756667],[-101.2028004,19.675515],[-101.2030227,19.6752899],[-101.2032916,19.6750781],[-101.2036551,19.6748477],[-101.2040149,19.6746451],[-101.2044108,19.6743901],[-101.2044926,19.6743475],[-101.2045841,19.6742998],[-101.204718,19.6742301],[-101.2047573,19.6742096],[-101.2049823,19.674071],[-101.2050361,19.6740365],[-101.2050666,19.6740169],[-101.2057234,19.6736314],[-101.2059994,19.6734625],[-101.2064739,19.6731819],[-101.206597,19.6731092],[-101.2072914,19.6726987],[-101.2076817,19.6724678],[-101.2081409,19.6722037],[-101.2083574,19.6720955],[-101.2084026,19.6720729],[-101.2085716,19.6720134],[-101.2086977,19.6719777],[-101.2088286,19.6719515],[-101.2089594,19.6719349],[-101.2091189,19.6719277],[-101.2092426,19.6719253],[-101.2094187,19.6719467],[-101.2095614,19.6719705],[-101.2097066,19.6720062],[-101.209915,19.6720729],[-101.2099542,19.6720894],[-101.2101509,19.6721722],[-101.2105656,19.6723701],[-101.210632,19.6724018],[-101.2108207,19.6724918],[-101.2112048,19.6726752],[-101.2117845,19.672944],[-101.2119331,19.6730148],[-101.2122397,19.6731841],[-101.2127294,19.6734206],[-101.2128273,19.673468],[-101.2132684,19.673681],[-101.2142403,19.6741297],[-101.2146735,19.6743291],[-101.2148176,19.6743955],[-101.215004,19.6744813],[-101.2160885,19.6750175],[-101.216486,19.6752174],[-101.2165665,19.6752568],[-101.2170573,19.6754975],[-101.2170695,19.6755039],[-101.2170811,19.6755094],[-101.2171919,19.6755654],[-101.2173736,19.6756572],[-101.217666,19.6758049],[-101.2181304,19.6760474],[-101.2182385,19.6761038],[-101.2185948,19.6762898],[-101.2187918,19.6763925],[-101.2190742,19.6765396],[-101.2194173,19.6767184],[-101.2194769,19.6767494],[-101.2194785,19.6767502],[-101.2196133,19.6768149],[-101.2197514,19.6768812],[-101.2199324,19.6769406],[-101.2201156,19.6769955],[-101.2202989,19.6770324],[-101.2204444,19.6770451],[-101.2205647,19.6770338],[-101.2207562,19.677014],[-101.220843,19.676998],[-101.2209404,19.6769801],[-101.2211159,19.6769533],[-101.2212128,19.6769382],[-101.2215593,19.676853],[-101.2220598,19.6767597],[-101.2225983,19.6766606],[-101.2226497,19.6766564],[-101.2230858,19.6766211],[-101.2234465,19.6766229],[-101.2235663,19.6766269],[-101.2238433,19.6766359],[-101.2239468,19.6766393],[-101.2243766,19.6766555],[-101.2246209,19.6766647],[-101.2248065,19.6766717],[-101.2256517,19.6767036],[-101.2257562,19.6767075],[-101.2257878,19.6767087],[-101.2260358,19.676718],[-101.2270214,19.6767551],[-101.2272248,19.6767622],[-101.2280135,19.6767896],[-101.2287248,19.6768143],[-101.2291892,19.6768365],[-101.2293129,19.6768424],[-101.2295079,19.6768517],[-101.2296341,19.6768719],[-101.2299466,19.676869],[-101.2300161,19.6768683],[-101.2302319,19.6769381],[-101.230536,19.6770472],[-101.2318546,19.6775206],[-101.2319663,19.6775607],[-101.2322906,19.6776772],[-101.2326084,19.6778011],[-101.2328131,19.677881],[-101.2333357,19.6780847],[-101.2340763,19.6783718],[-101.2343729,19.6786549],[-101.2345692,19.678987],[-101.2346944,19.6792818],[-101.2347394,19.6793878],[-101.2348196,19.6795765],[-101.2349374,19.6798366],[-101.2351943,19.6804035],[-101.2353827,19.6808432],[-101.2356219,19.6814018],[-101.2358312,19.6819392],[-101.2358713,19.6820422],[-101.2359752,19.6823089],[-101.2360405,19.6824767],[-101.2360824,19.6825718],[-101.2361559,19.6827389],[-101.2362551,19.6829643],[-101.2363047,19.683077],[-101.2365123,19.6835489],[-101.2366115,19.6837743],[-101.2366136,19.6837791],[-101.2368176,19.6842945],[-101.236997,19.684748],[-101.2369322,19.684776],[-101.2368705,19.6848026],[-101.2368114,19.6848287],[-101.2365982,19.6849309],[-101.2365274,19.6849648],[-101.2355467,19.6854348]],[[-101.184086,19.719346],[-101.1841806,19.7193896]],[[-101.2355425,19.6854368],[-101.235492,19.685461],[-101.2353466,19.6855307],[-101.2351534,19.6856233],[-101.2347274,19.6858274],[-101.2341429,19.686106],[-101.2337402,19.6862979],[-101.2336305,19.6863502],[-101.2335313,19.6863975],[-101.2334528,19.6864349],[-101.2333744,19.6864723],[-101.2331182,19.6865944],[-101.2327379,19.6867772],[-101.2326033,19.686842],[-101.2325351,19.6868748],[-101.2324546,19.6869135],[-101.2322672,19.6870037],[-101.2313671,19.6874366],[-101.2307117,19.6877518],[-101.2305763,19.687817],[-101.2305122,19.6878479],[-101.2296,19.688288],[-101.2292613,19.6884514],[-101.2290561,19.6885826],[-101.2290009,19.6886179],[-101.2287593,19.6888025],[-101.2286614,19.6888892],[-101.2284809,19.6890487],[-101.2284152,19.6891069],[-101.2283906,19.6891273],[-101.2283479,19.6891651],[-101.2276255,19.6898039],[-101.2275035,19.6899139],[-101.2269197,19.6904403],[-101.2267391,19.6906031],[-101.226614,19.6907159],[-101.2260303,19.6912676],[-101.226012,19.691279],[-101.2258861,19.6913637],[-101.2258236,19.691401],[-101.2258047,19.6914123],[-101.2257405,19.6914408],[-101.2256705,19.6914651],[-101.2255977,19.6914836],[-101.2255192,19.6914922],[-101.2254479,19.6914936],[-101.2253451,19.6914865],[-101.2252295,19.6914751],[-101.2251937,19.6914701],[-101.2251167,19.6914593],[-101.2250653,19.6914479],[-101.2250463,19.6914398],[-101.2249538,19.6913971],[-101.2249423,19.6913917],[-101.224871,19.6913537],[-101.2248433,19.6913359],[-101.2247911,19.6913023],[-101.2247111,19.6912509],[-101.2244748,19.6911728],[-101.2243751,19.6911977],[-101.2243644,19.6912076],[-101.2243073,19.6912604],[-101.2240672,19.6914827],[-101.2238582,19.6916761],[-101.2229523,19.6924449],[-101.2228661,19.692518],[-101.2228295,19.6925491],[-101.221963,19.6932887],[-101.2217714,19.6934613],[-101.2209412,19.6942094],[-101.2202788,19.6948039],[-101.2200503,19.695009],[-101.2198695,19.695171],[-101.2196873,19.6953343],[-101.2194147,19.6955784],[-101.2189039,19.6960388],[-101.2186753,19.6963881],[-101.218565,19.6965694],[-101.2184409,19.6967733],[-101.218374,19.6968447],[-101.2183111,19.6969118],[-101.2182467,19.6969789],[-101.2180787,19.6971482],[-101.2175428,19.6976208],[-101.2164275,19.6986263],[-101.2148747,19.699924],[-101.2139467,19.7007902],[-101.2138489,19.7008816],[-101.2137786,19.7009471],[-101.2132244,19.7014677],[-101.2128318,19.7018191],[-101.2128063,19.7018525],[-101.2128228,19.7018598],[-101.2128344,19.7018707],[-101.2129086,19.7019189],[-101.2130189,19.7019736],[-101.2131004,19.702014],[-101.2131561,19.7020443],[-101.2132118,19.7020747],[-101.2133711,19.7021615],[-101.213488,19.7022253],[-101.2138169,19.7023701],[-101.2138855,19.7024013],[-101.2139768,19.7024429],[-101.2141091,19.7025111],[-101.2149517,19.7029402],[-101.2152307,19.7030804],[-101.2153729,19.7031585],[-101.2157022,19.7033392],[-101.2161738,19.7035981],[-101.2162015,19.7036172],[-101.2161787,19.7037155],[-101.2161687,19.7038142],[-101.2156674,19.7035624],[-101.2142279,19.7028391],[-101.214043,19.7027462],[-101.2138328,19.7026406],[-101.2138218,19.7026351],[-101.2137596,19.7026042],[-101.2136918,19.7026871],[-101.213272,19.7033497],[-101.2131899,19.703427],[-101.2131203,19.7035717],[-101.2130799,19.7036916],[-101.2129798,19.7041482],[-101.2129711,19.7041969],[-101.2129585,19.7042676],[-101.2128058,19.7051239],[-101.2125213,19.7071217],[-101.2123414,19.7080512],[-101.2123271,19.7081321],[-101.2122962,19.708213],[-101.2122672,19.7082899],[-101.2118829,19.7090198],[-101.2118479,19.7090892],[-101.211846,19.7090928],[-101.2117897,19.7091922],[-101.2115953,19.7095363],[-101.2114653,19.7097667],[-101.2113986,19.7098848],[-101.2113396,19.7099891],[-101.2110893,19.7104324],[-101.2106705,19.7111796],[-101.2105159,19.7114413],[-101.2104849,19.7115032],[-101.2103945,19.7116531],[-101.2102327,19.711872],[-101.2102139,19.711894],[-101.2098449,19.712355],[-101.2095212,19.7126929],[-101.2092595,19.7129404],[-101.2089692,19.7131926],[-101.2086028,19.7134615],[-101.2084657,19.7135587],[-101.2083922,19.7136109],[-101.2083287,19.713656],[-101.2080817,19.7137946],[-101.2076653,19.7140302],[-101.2073226,19.7141967],[-101.2069015,19.7143681],[-101.2067313,19.7144323],[-101.2065973,19.7144829],[-101.2065612,19.7144966],[-101.2062043,19.7146036],[-101.2059676,19.7146665],[-101.2052941,19.7148152],[-101.2048978,19.7148565],[-101.2047171,19.7148678],[-101.2037796,19.7148618],[-101.2032323,19.7148368],[-101.2030818,19.7148246],[-101.2030563,19.7148225],[-101.2028849,19.7148059],[-101.2023287,19.7147034],[-101.2021521,19.7146641],[-101.2019306,19.7146147],[-101.2018594,19.7145989],[-101.201531,19.7145227],[-101.2015026,19.7145156],[-101.2013103,19.7144677],[-101.2003223,19.7142348],[-101.1999637,19.7141538],[-101.1998447,19.7141269],[-101.199311,19.7140064],[-101.1982497,19.7137446],[-101.1974995,19.7135606],[-101.197371,19.7135232],[-101.1963176,19.7132378],[-101.1955871,19.7130427],[-101.1943498,19.712781],[-101.1939857,19.7127001],[-101.1938192,19.7126667],[-101.1933975,19.7125721],[-101.1932888,19.7125477],[-101.1930982,19.7125049],[-101.1921655,19.7122837],[-101.1921272,19.7122811],[-101.1918419,19.7122503],[-101.1912541,19.7122622],[-101.1907066,19.7122917],[-101.190545,19.7122979],[-101.1904094,19.712317],[-101.190309,19.7123386],[-101.1896266,19.7125264],[-101.1886891,19.7128071],[-101.1884904,19.7128583],[-101.1883893,19.7128904],[-101.1882984,19.7129149],[-101.1874494,19.7131688],[-101.1868069,19.7133616],[-101.1865038,19.7134506],[-101.1864274,19.713477],[-101.1863881,19.7134924],[-101.1862573,19.7135686],[-101.1861978,19.7136043],[-101.1856457,19.7139945],[-101.185039,19.7144418],[-101.1848653,19.7145798],[-101.1845631,19.7148344],[-101.1843921,19.714961],[-101.1837231,19.7154388],[-101.1832258,19.7158386],[-101.1827845,19.7161983],[-101.1818338,19.7169331],[-101.1817901,19.7169652],[-101.1817168,19.7170191],[-101.180606,19.7178349],[-101.1803639,19.7180074],[-101.1801869,19.7181335],[-101.1801217,19.7181799],[-101.1800256,19.7182508],[-101.1784776,19.7193958],[-101.1784552,19.719421],[-101.178437,19.7194493],[-101.1784232,19.7194801],[-101.1784143,19.7195126],[-101.1784105,19.719546],[-101.1784118,19.7195797],[-101.1784182,19.7196128],[-101.1784296,19.7196445],[-101.1784564,19.719737],[-101.1784831,19.7197601],[-101.1785763,19.7198216],[-101.1786247,19.7198494],[-101.1787233,19.7199017],[-101.1787734,19.7199263],[-101.1788765,19.7199692],[-101.1789821,19.7200054],[-101.1790898,19.7200349],[-101.1791992,19.7200575],[-101.1793097,19.7200732],[-101.179421,19.7200819],[-101.1795327,19.7200835],[-101.1796442,19.7200781],[-101.1797552,19.7200656],[-101.1798651,19.7200461],[-101.1799736,19.7200198],[-101.1800802,19.7199867],[-101.1801846,19.7199468],[-101.1802862,19.7199005],[-101.1803301,19.7198797],[-101.180633,19.7197142],[-101.1807047,19.7196775],[-101.180951,19.7195598],[-101.1810566,19.7195013],[-101.181158,19.7194427],[-101.1815135,19.7192686],[-101.1817219,19.7191743],[-101.1818783,19.719118],[-101.1819318,19.7190987],[-101.1822012,19.719024],[-101.1823016,19.7190116],[-101.18255,19.7189873],[-101.182807,19.7189902],[-101.1829269,19.7190009],[-101.1830468,19.7190116],[-101.1833024,19.7190544],[-101.1835494,19.7191258],[-101.1836678,19.7191686],[-101.1839223,19.7192766],[-101.1840042,19.7193113],[-101.1841806,19.7193896]]]}},{"type":"Feature","properties":{"id":"28_1","routeId":"28","routeName":"Gris 4","direction":"vuelta","directionIndex":2,"color":"#808080","casingColor":"#222222","transportType":"combi","name":"Vuelta","geometrySource":"official-kml-explicit-coordinates","matchingEngine":"none"},"geometry":{"type":"MultiLineString","coordinates":[[[-101.2133726,19.702412],[-101.2133543,19.7024029],[-101.2126521,19.7020543],[-101.212549,19.7020137],[-101.2126987,19.7017844],[-101.2127126,19.7017858],[-101.2127546,19.70179],[-101.2135037,19.7011152],[-101.2139867,19.7006801],[-101.2142627,19.7004161],[-101.2149251,19.6998286],[-101.2154629,19.6993516],[-101.215501,19.6993178],[-101.2155697,19.6992568],[-101.2158413,19.6990159],[-101.2164054,19.6985155],[-101.2165108,19.6984221],[-101.216588,19.6983536],[-101.2174122,19.6976226],[-101.2174743,19.6975605],[-101.2176749,19.697407],[-101.2180194,19.6970891],[-101.2181474,19.6969762],[-101.2181964,19.6969216],[-101.2182992,19.6968093],[-101.2183849,19.6966894],[-101.2184706,19.6965637],[-101.2185067,19.6965133],[-101.218622,19.6963381],[-101.2186286,19.6963277],[-101.2187294,19.6961716],[-101.2187418,19.6961559],[-101.2187686,19.6961218],[-101.2188494,19.6960193],[-101.2189122,19.6959317],[-101.218952,19.6958837],[-101.2192478,19.6955993],[-101.2192624,19.6955872],[-101.2197199,19.6951894],[-101.2197751,19.6951414],[-101.2198754,19.6950542],[-101.2203896,19.6945943],[-101.2204471,19.6945429],[-101.2205313,19.6944676],[-101.2207716,19.6942527],[-101.2217379,19.6933885],[-101.2220082,19.6931692],[-101.2221131,19.693084],[-101.2222784,19.6929499],[-101.2229237,19.6923931],[-101.2237751,19.6916486],[-101.2238487,19.6915835],[-101.2239223,19.6915185],[-101.2240633,19.691394],[-101.2240696,19.6913884],[-101.2241303,19.6913348],[-101.2243642,19.6911281],[-101.224467,19.6910403],[-101.2245698,19.6909525],[-101.224567,19.6910268],[-101.2247126,19.6912095],[-101.2247112,19.6912504],[-101.2247911,19.6913023],[-101.2248433,19.6913359],[-101.224871,19.6913537],[-101.2249423,19.6913917],[-101.2249538,19.6913971],[-101.2250463,19.6914398],[-101.2250653,19.6914479],[-101.2251167,19.6914593],[-101.2251937,19.6914701],[-101.2252295,19.6914751],[-101.2253451,19.6914865],[-101.2254478,19.6914936],[-101.2255192,19.6914922],[-101.2255977,19.6914836],[-101.2256705,19.6914651],[-101.2257405,19.6914408],[-101.2258047,19.6914123],[-101.2258236,19.691401],[-101.2258861,19.6913637],[-101.226012,19.691279],[-101.2260303,19.6912676],[-101.226614,19.6907159],[-101.2267391,19.6906031],[-101.2269197,19.6904403],[-101.2275035,19.6899139],[-101.2276255,19.6898039],[-101.2283479,19.6891651],[-101.2283906,19.6891273],[-101.2284794,19.6890487],[-101.2286598,19.6888892],[-101.2287578,19.6888026],[-101.2288786,19.6887103],[-101.2289476,19.6886586],[-101.2290009,19.6886179],[-101.2290561,19.6885826],[-101.2292613,19.6884514],[-101.2296,19.688288],[-101.2305122,19.6878479],[-101.2305763,19.687817],[-101.2307117,19.6877518],[-101.2313671,19.6874366],[-101.2322672,19.6870037],[-101.2324546,19.6869135],[-101.2325351,19.6868748],[-101.2326021,19.6868426],[-101.2327379,19.6867772],[-101.2331182,19.6865944],[-101.2333744,19.6864723],[-101.2334528,19.6864349],[-101.2335313,19.6863975],[-101.2335809,19.6863738],[-101.2336851,19.6863235],[-101.2337387,19.6862979],[-101.2341414,19.686106],[-101.23457,19.6859017],[-101.2347274,19.6858274],[-101.2351534,19.6856233],[-101.2353466,19.6855307],[-101.235492,19.685461],[-101.2355425,19.6854368],[-101.2355467,19.6854348],[-101.2365274,19.6849648],[-101.2365982,19.6849309],[-101.2368114,19.6848287],[-101.2368707,19.6848031],[-101.2368692,19.6848003],[-101.2367389,19.6845689],[-101.2359827,19.6827981],[-101.2359181,19.6826493],[-101.2358153,19.6824124],[-101.2357456,19.6822519],[-101.2357082,19.6821658],[-101.2356478,19.6820268],[-101.2352139,19.6810274],[-101.2348362,19.6801718],[-101.2346042,19.6795875],[-101.2343265,19.6788878],[-101.2341083,19.6786157],[-101.2337902,19.6784165],[-101.2333504,19.6782507],[-101.2332258,19.6782038],[-101.2330292,19.6781297],[-101.2322559,19.6778382],[-101.2302535,19.6771658],[-101.2300255,19.6770893],[-101.2297982,19.6770031],[-101.2295774,19.6769792],[-101.2295072,19.6769716],[-101.2287542,19.6769472],[-101.2284126,19.6769376],[-101.2282733,19.6769337],[-101.2280709,19.6769281],[-101.2278147,19.6769209],[-101.2277472,19.676919],[-101.2275584,19.6769137],[-101.2269507,19.6768983],[-101.2265081,19.6768784],[-101.2264194,19.6768744],[-101.2259335,19.6768525],[-101.2257476,19.6768441],[-101.225692,19.6768416],[-101.2256477,19.6768396],[-101.2254578,19.6768311],[-101.2254479,19.6768308],[-101.2250618,19.6768183],[-101.2249185,19.6768137],[-101.2241291,19.6767883],[-101.2239392,19.6767873],[-101.2235089,19.6767851],[-101.2230534,19.6767648],[-101.2225848,19.6768163],[-101.2225534,19.6768215],[-101.2224448,19.6768392],[-101.2223706,19.6768513],[-101.2221223,19.6768919],[-101.2217091,19.6769653],[-101.2215649,19.6769909],[-101.2212454,19.6770506],[-101.2211277,19.6770726],[-101.2211153,19.6770752],[-101.2208679,19.6771325],[-101.2206832,19.6771648],[-101.2205671,19.6771858],[-101.2204053,19.6771858],[-101.2202397,19.6771858],[-101.2201198,19.6771667],[-101.2200399,19.6771472],[-101.2199941,19.6771267],[-101.2197466,19.6769955],[-101.2195673,19.6769107],[-101.2194311,19.6768464],[-101.2193902,19.676827],[-101.219049,19.676657],[-101.2186368,19.6764753],[-101.2179941,19.6761453],[-101.2178548,19.6760831],[-101.2177154,19.676021],[-101.2170517,19.6756818],[-101.2169344,19.6756218],[-101.2160506,19.6751701],[-101.2149209,19.6746307],[-101.2145924,19.6744738],[-101.2137029,19.674049],[-101.2135426,19.6739696],[-101.2127122,19.6735582],[-101.21204,19.6732286],[-101.2118754,19.6731479],[-101.2115385,19.6729827],[-101.2112255,19.6728316],[-101.2109078,19.6726782],[-101.2103584,19.672413],[-101.2098901,19.6722092],[-101.2097803,19.672168],[-101.2096685,19.67213],[-101.2094948,19.6720967],[-101.209333,19.6720705],[-101.2091831,19.6720472],[-101.2090379,19.6720395],[-101.2088785,19.6720491],[-101.2087783,19.6720691],[-101.2084994,19.6721515],[-101.2081123,19.6723294],[-101.2071249,19.6729509],[-101.2068971,19.6730839],[-101.206697,19.6732007],[-101.2066093,19.6732519],[-101.2065122,19.6733086],[-101.2057924,19.673729],[-101.205116,19.6741386],[-101.2050381,19.6741906],[-101.2044837,19.674538],[-101.2039697,19.6748354],[-101.2037127,19.6749901],[-101.2035581,19.6750829],[-101.2034819,19.6751376],[-101.203282,19.6752732],[-101.2030822,19.675435],[-101.2028728,19.6756492],[-101.2027609,19.6758039],[-101.2026658,19.6759776],[-101.2025967,19.6761346],[-101.2025182,19.676344],[-101.202404,19.6766628],[-101.2022477,19.6771733],[-101.2022327,19.6772258],[-101.2021923,19.677378],[-101.2021114,19.6776707],[-101.2020979,19.6777193],[-101.2020305,19.6779634],[-101.2016902,19.6789723],[-101.2016735,19.6790246],[-101.2015094,19.67951],[-101.2013333,19.6800645],[-101.2012797,19.6801918],[-101.201217,19.6803324],[-101.2011572,19.680419],[-101.2010406,19.6805522],[-101.2009395,19.6806403],[-101.2007913,19.6807534],[-101.2006242,19.6808425],[-101.2004695,19.6809163],[-101.2002839,19.680971],[-101.2001131,19.6810088],[-101.1998057,19.6810781],[-101.1994559,19.6811519],[-101.1990728,19.6812066],[-101.1987682,19.6812399],[-101.1985636,19.6812494],[-101.1982638,19.6812352],[-101.1981186,19.6812114],[-101.1978593,19.6811685],[-101.1977722,19.6811548],[-101.1976023,19.6811281],[-101.1974262,19.6811067],[-101.1973191,19.6811067],[-101.1971528,19.6811086],[-101.1970648,19.6811121],[-101.1969779,19.6811276],[-101.1968899,19.6811526],[-101.1967566,19.681199],[-101.1966043,19.6812632],[-101.1964366,19.6813418],[-101.1963563,19.6813834],[-101.1963366,19.6813929],[-101.1962724,19.6814619],[-101.1961725,19.681544],[-101.1961201,19.6816094],[-101.1960749,19.6816856],[-101.1960428,19.681751],[-101.1960202,19.6818272],[-101.1959988,19.6818914],[-101.1959845,19.6819592],[-101.1959654,19.6820556],[-101.1959428,19.6821508],[-101.1959037,19.6822324],[-101.1958878,19.6822657],[-101.1958745,19.6822934],[-101.1958619,19.6823216],[-101.1958452,19.6823476],[-101.1958247,19.6823708],[-101.1958009,19.6823906],[-101.195774,19.6824068],[-101.195745,19.6824186],[-101.1957144,19.6824258],[-101.1956831,19.6824282],[-101.1956492,19.6824254],[-101.1956163,19.6824169],[-101.1955852,19.6824031],[-101.1955569,19.6823843],[-101.1953623,19.6823804],[-101.1952516,19.6822674],[-101.1951433,19.682171],[-101.1950232,19.6821008],[-101.194816,19.6820364],[-101.1946583,19.6820218],[-101.1944933,19.6820227],[-101.1941387,19.6820627],[-101.1932012,19.6821956],[-101.1930148,19.6822254],[-101.1929376,19.6822378],[-101.1921496,19.6823639],[-101.1920508,19.6823779],[-101.1917841,19.6824156],[-101.191492,19.682457],[-101.1912347,19.6824916],[-101.1907309,19.6825481],[-101.1903829,19.6825343],[-101.190016,19.6825023],[-101.1896432,19.6823984],[-101.1893023,19.6822647],[-101.1887974,19.6820222],[-101.1885261,19.6818889],[-101.1882043,19.6817253],[-101.1879028,19.6815805],[-101.1878441,19.6815527],[-101.1875227,19.6814159],[-101.1871753,19.6813002],[-101.1867581,19.681214],[-101.1863658,19.6812059],[-101.185948,19.6812216],[-101.1853655,19.6812545],[-101.1822575,19.6814508],[-101.1821839,19.6814555],[-101.1821303,19.6814588],[-101.1820799,19.6814618],[-101.1817441,19.6814869],[-101.1814453,19.6814872],[-101.1811407,19.6814908],[-101.1792122,19.6816039],[-101.1770743,19.6817418],[-101.1770123,19.6817458],[-101.176931,19.681751],[-101.1762262,19.6817974],[-101.1761594,19.6818018],[-101.174927,19.6818829],[-101.1741978,19.681933],[-101.1740368,19.6819419],[-101.173817,19.6819541],[-101.1737248,19.6819595],[-101.1731328,19.6819842],[-101.1726341,19.6820204],[-101.1724075,19.6820356],[-101.1720135,19.6820699],[-101.17151,19.6821003],[-101.1714486,19.682104],[-101.1710065,19.6821308],[-101.1709037,19.6821422],[-101.1703498,19.6821784],[-101.1699348,19.682226],[-101.1697458,19.6822594],[-101.1696324,19.6822792],[-101.1695614,19.6822916],[-101.1695189,19.682299],[-101.1694066,19.6823257],[-101.1689021,19.6824761],[-101.1684852,19.6826531],[-101.1681693,19.6827997],[-101.1678951,19.6829691],[-101.1676324,19.6831423],[-101.1674573,19.6832603],[-101.1671508,19.6834621],[-101.1668737,19.6836592],[-101.1668003,19.6837114],[-101.1665379,19.683898],[-101.1664466,19.6839469],[-101.1663,19.6840598],[-101.1661876,19.6841493],[-101.1661698,19.684161],[-101.1659461,19.6843076],[-101.1657746,19.6844329],[-101.1656075,19.6845477],[-101.1654746,19.6846389],[-101.1653247,19.6847419],[-101.165262,19.6847849],[-101.1651747,19.6848448],[-101.1645422,19.685316],[-101.1635949,19.6859666],[-101.1635002,19.6860317],[-101.1628665,19.686467],[-101.1620843,19.6870325],[-101.1619556,19.6871242],[-101.1618772,19.68718],[-101.1618059,19.6872309],[-101.1616702,19.6873276],[-101.1612894,19.6875886],[-101.1611552,19.6876857],[-101.1609639,19.6878227],[-101.1608187,19.6879307],[-101.1607874,19.6879501],[-101.1606584,19.6880297],[-101.1605856,19.6880604],[-101.1603615,19.688155],[-101.1600302,19.6881082],[-101.1598852,19.6880885],[-101.1597017,19.6880635],[-101.1596238,19.6880529],[-101.1595181,19.6880385],[-101.1590618,19.68797],[-101.1589673,19.6879574],[-101.1589491,19.687955],[-101.1588574,19.6879434],[-101.1585259,19.687911],[-101.1584582,19.6879044],[-101.1582586,19.6878848],[-101.1582128,19.6878803],[-101.1582024,19.6878793],[-101.1581199,19.6878712],[-101.1580334,19.6878627],[-101.1579444,19.687854],[-101.157845,19.6878444],[-101.1577613,19.6878362],[-101.1576746,19.6878269],[-101.1576066,19.6878196],[-101.1571487,19.6877703],[-101.1569762,19.6877517],[-101.1568389,19.6877369],[-101.1554993,19.6875927],[-101.1552254,19.6875594],[-101.1549979,19.6875318],[-101.154627,19.6874867],[-101.154529,19.6874748],[-101.1537359,19.6874078],[-101.1536528,19.6874226],[-101.1535345,19.6874437],[-101.1533287,19.6875274],[-101.1530884,19.6876641],[-101.152904,19.6878433],[-101.1528517,19.6878941],[-101.1528243,19.6879206],[-101.1526969,19.6880486],[-101.1526364,19.6881093],[-101.1521582,19.6885894],[-101.1521148,19.6886329],[-101.152009,19.6887431],[-101.1519039,19.6888525],[-101.1514593,19.6893152],[-101.1513896,19.6893878],[-101.1511742,19.689612],[-101.151124,19.6896902],[-101.1509888,19.689901],[-101.150975,19.6899225],[-101.1509316,19.6899902],[-101.1508034,19.69019],[-101.1506724,19.6905787],[-101.1506355,19.6906787],[-101.1505967,19.6907838],[-101.1504831,19.691092],[-101.1504094,19.6912916],[-101.1503426,19.691484],[-101.150283,19.6916558],[-101.1502345,19.6917956],[-101.1501651,19.6919955],[-101.1501362,19.6920788],[-101.150122,19.6921195],[-101.1500596,19.6922995],[-101.1500185,19.6924178],[-101.1499047,19.6927457],[-101.1498432,19.692963],[-101.1497528,19.693311],[-101.1497175,19.6934468],[-101.1496989,19.6935183],[-101.1496694,19.6936319],[-101.1496398,19.6937455],[-101.1496152,19.6939354],[-101.1495942,19.6940978],[-101.1495849,19.6941692],[-101.1495348,19.6947193],[-101.1495123,19.6949658],[-101.149514,19.6950944],[-101.1495158,19.6952229],[-101.1495229,19.6953236],[-101.1495794,19.6955799],[-101.1495892,19.6956245],[-101.1496993,19.6959314],[-101.1497957,19.6960629],[-101.1498296,19.6961092],[-101.1498608,19.6961518],[-101.1498921,19.6961944],[-101.1502525,19.6964653],[-101.1503262,19.6965207],[-101.1503999,19.696576],[-101.1504273,19.6965966],[-101.1506136,19.6967512],[-101.150831,19.6969315],[-101.1509425,19.6970241],[-101.1509555,19.6970348],[-101.151143,19.6971806],[-101.1511599,19.6972092],[-101.151257,19.6974052],[-101.1514245,19.6975461],[-101.1521707,19.6981419],[-101.1531514,19.6989126],[-101.1532164,19.6989637],[-101.1536726,19.6993221],[-101.1538742,19.6994971],[-101.1538896,19.6995106],[-101.1542643,19.6997904],[-101.1544161,19.6999053],[-101.15479,19.7001997],[-101.1548043,19.7002111],[-101.1550169,19.700381],[-101.1550782,19.7004301],[-101.1552294,19.7005509],[-101.1552911,19.7006003],[-101.15554,19.7007993],[-101.1570705,19.7020005],[-101.1578491,19.7026305],[-101.158246,19.7029439],[-101.1583476,19.7030244],[-101.1597929,19.7041783],[-101.1599171,19.7042774],[-101.1599715,19.7043209],[-101.16009,19.704422],[-101.1602784,19.70454],[-101.1604162,19.7046493],[-101.1604714,19.7046931],[-101.1606175,19.704809],[-101.1608956,19.7050296],[-101.160963,19.7050924],[-101.161039,19.7051633],[-101.1612038,19.7053171],[-101.1625294,19.7063167],[-101.1631942,19.7069659],[-101.1634168,19.7070239],[-101.1634874,19.7071001],[-101.1635811,19.7072106],[-101.1636132,19.7072484],[-101.1636748,19.707321],[-101.1638138,19.7075082],[-101.1640061,19.7077594],[-101.1642486,19.708076],[-101.1643598,19.7082212],[-101.1644911,19.7083926],[-101.164564,19.7084854],[-101.1645777,19.7085029],[-101.164641,19.7085835],[-101.1647183,19.7086819],[-101.1648553,19.7088562],[-101.1649304,19.7089536],[-101.1651141,19.70919],[-101.165251,19.7093619],[-101.1654272,19.7095428],[-101.1654688,19.7095777],[-101.1655281,19.7096185],[-101.1656667,19.7096999],[-101.1658245,19.7097847],[-101.1659759,19.7098422],[-101.1660785,19.7098581],[-101.1661523,19.7098719],[-101.1662056,19.7098985],[-101.1662438,19.7099241],[-101.1662495,19.7099308],[-101.1662783,19.7099645],[-101.1662923,19.7100056],[-101.1663057,19.7100537],[-101.1663116,19.7101346],[-101.1663388,19.7102412],[-101.1664089,19.7104774],[-101.1665008,19.7105739],[-101.1665763,19.7106493],[-101.1667861,19.7108337],[-101.1672813,19.7112358],[-101.16731,19.7112592],[-101.167395,19.7113282],[-101.1687062,19.7123083],[-101.168918,19.712463],[-101.1694819,19.712896],[-101.1694843,19.7129865],[-101.1700935,19.713429],[-101.1705305,19.7137422],[-101.1705629,19.7137654],[-101.1708375,19.7139622],[-101.1709141,19.7140171],[-101.1713374,19.7143204],[-101.171422,19.714381],[-101.171445,19.7143975],[-101.1717757,19.7146664],[-101.1718371,19.7147134],[-101.1719978,19.7148358],[-101.1730678,19.7156372],[-101.1731605,19.7157071],[-101.1732389,19.7157662],[-101.1739395,19.7162941],[-101.1740362,19.716367],[-101.1745454,19.7167508],[-101.1749821,19.7170934],[-101.1751668,19.7172384],[-101.1752671,19.7173171],[-101.1754187,19.717436],[-101.1757818,19.7177096],[-101.1759683,19.7178501],[-101.176518,19.7182641],[-101.1768321,19.718502],[-101.1770042,19.7186312],[-101.177032,19.718652],[-101.1771695,19.7187578],[-101.1774246,19.7189541],[-101.1775959,19.7190813],[-101.1776347,19.7191101],[-101.1777654,19.7192071],[-101.1778116,19.7192414],[-101.1778365,19.7192599],[-101.1778862,19.7192968],[-101.1786251,19.7187365],[-101.1787714,19.7186256],[-101.1800403,19.7176634],[-101.1801321,19.7175953],[-101.1807663,19.7171378],[-101.181799,19.7163716],[-101.1824826,19.7158585],[-101.1828625,19.7155804],[-101.1829057,19.7155489],[-101.1840381,19.7147202],[-101.1843141,19.7145442],[-101.1851112,19.7139969],[-101.185442,19.7137589],[-101.1858536,19.7134686],[-101.1860285,19.7133568],[-101.1861131,19.7133027],[-101.1862034,19.713245],[-101.1862843,19.7132069],[-101.1864413,19.7131546],[-101.1869268,19.7129951],[-101.187505,19.7128024],[-101.1878983,19.7126686],[-101.1879848,19.7126392],[-101.1881974,19.7125668],[-101.1882966,19.7125448],[-101.1890231,19.7123812],[-101.189732,19.7121602],[-101.1897639,19.7121515],[-101.1903724,19.7120169],[-101.1905031,19.7119862],[-101.1906482,19.7119624],[-101.1907458,19.7119482],[-101.1909457,19.7119291],[-101.191274,19.7119244],[-101.1917499,19.7119363],[-101.1921234,19.711968],[-101.1921782,19.7119743],[-101.1923733,19.7119981],[-101.1926208,19.7120505],[-101.1930949,19.7121583],[-101.1932342,19.7121896],[-101.1937635,19.7123066],[-101.1938534,19.7123265],[-101.1939462,19.7123455],[-101.1957569,19.7127619],[-101.1974304,19.713152],[-101.1975502,19.7131785],[-101.1976408,19.7131985],[-101.1982601,19.7133354],[-101.1985257,19.7133967],[-101.1986649,19.7134289],[-101.2014371,19.7140692],[-101.2016172,19.714112],[-101.201658,19.7141217],[-101.2016906,19.7141318],[-101.2019419,19.7141915],[-101.2020192,19.7142099],[-101.2020839,19.7142253],[-101.2026693,19.7143538],[-101.2029691,19.7144085],[-101.2032475,19.714449],[-101.2035164,19.7144728],[-101.2038019,19.7144918],[-101.2040375,19.7145013],[-101.2042873,19.7145045],[-101.2043132,19.7145043],[-101.2044777,19.7144894],[-101.2047132,19.7144752],[-101.2048346,19.714468],[-101.2050178,19.714449],[-101.2054461,19.7143824],[-101.2058601,19.7142991],[-101.2062504,19.7142015],[-101.2066216,19.7140754],[-101.2069623,19.7139416],[-101.2070213,19.7139184],[-101.2074139,19.7137423],[-101.2077662,19.7135688],[-101.2080326,19.7134187],[-101.2080806,19.7133871],[-101.208186,19.7133176],[-101.2083395,19.7132164],[-101.2087202,19.7129333],[-101.20902,19.7126858],[-101.2092604,19.7124693],[-101.2094626,19.7122599],[-101.2097125,19.7119648],[-101.2099381,19.7116769],[-101.2099504,19.7116626],[-101.2100337,19.7115246],[-101.2101075,19.7114176],[-101.2101541,19.7113431],[-101.2104953,19.7107989],[-101.2109736,19.7100065],[-101.2114925,19.7091001],[-101.2115725,19.7089702],[-101.2118368,19.7085182],[-101.2119133,19.7083874],[-101.2119966,19.708214],[-101.2120608,19.7080585],[-101.2120871,19.7078968],[-101.2122378,19.7070103],[-101.2125344,19.7051103],[-101.2125496,19.7050131],[-101.2126717,19.704231],[-101.212776,19.70371],[-101.2128471,19.7034526],[-101.2128922,19.703315],[-101.2131172,19.7028928],[-101.2131559,19.7028203],[-101.2132444,19.7026542],[-101.2133389,19.7024741],[-101.2133519,19.7024494],[-101.2133726,19.702412]]]}}]}
