{"type":"FeatureCollection","features":[{"type":"Feature","properties":{"id":"31_0","routeId":"31","routeName":"Guinda 2","direction":"ida","directionIndex":1,"color":"#611240","casingColor":"#222222","transportType":"combi","name":"Ida","geometrySource":"official-kml-explicit-coordinates","matchingEngine":"none"},"geometry":{"type":"MultiLineString","coordinates":[[[-101.1930607,19.6656065],[-101.1935916,19.66495],[-101.1938631,19.6651608],[-101.1939129,19.6651994],[-101.1940786,19.6653288],[-101.1948125,19.6658718],[-101.194973,19.6659846],[-101.1953039,19.6669484],[-101.1955077,19.667462],[-101.195532,19.6675765],[-101.1955187,19.6677128],[-101.1951212,19.6683509],[-101.1954519,19.66855],[-101.1955278,19.6685864],[-101.1956028,19.6686223],[-101.1956855,19.6686619],[-101.1959034,19.6687309],[-101.1963238,19.66885],[-101.196566,19.6688518],[-101.1967674,19.6688255],[-101.1969885,19.6687607],[-101.1972899,19.6686566],[-101.198229,19.6683392],[-101.1987813,19.6681413],[-101.1989325,19.6680659],[-101.1989427,19.6680948],[-101.198967,19.668244],[-101.1990001,19.6684468],[-101.1990112,19.6685155],[-101.1990244,19.6685912],[-101.1990344,19.6686489],[-101.1990712,19.6688607],[-101.1990997,19.6690245],[-101.1991631,19.6693887],[-101.1991865,19.6694373],[-101.1992168,19.6695021],[-101.1992549,19.6695592],[-101.1992914,19.669599],[-101.1993262,19.669637],[-101.1993596,19.6696734],[-101.1994719,19.6697743],[-101.1996927,19.6698885],[-101.1999897,19.669978],[-101.2002219,19.6700294],[-101.2003097,19.6700506],[-101.2003149,19.6700518],[-101.2004979,19.670096],[-101.2006193,19.6701297],[-101.2006483,19.6701398],[-101.2007264,19.670174],[-101.2007949,19.6702216],[-101.200852,19.6702806],[-101.2008996,19.6703435],[-101.2009205,19.6703891],[-101.2009358,19.6704462],[-101.2009872,19.6705262],[-101.2009861,19.6705702],[-101.2009854,19.6705967],[-101.200985,19.6706119],[-101.2009814,19.6707584],[-101.2009318,19.671352],[-101.2009243,19.6714418],[-101.2008768,19.6715008],[-101.2008223,19.6716674],[-101.2007974,19.6718851],[-101.2007894,19.6719557],[-101.2007637,19.6721795],[-101.200749,19.6725811],[-101.2007258,19.6730928],[-101.2006644,19.6737722],[-101.2006222,19.6747477],[-101.2005919,19.6754841],[-101.2005842,19.676029],[-101.2005227,19.6769661],[-101.2005132,19.67711],[-101.2004876,19.6778225],[-101.2011338,19.677848],[-101.2013657,19.6778356],[-101.201476,19.6777817],[-101.2015713,19.6777375],[-101.2017258,19.677597],[-101.2019939,19.6772783],[-101.2021447,19.6771657],[-101.2022327,19.6772258],[-101.2021923,19.677378],[-101.2021114,19.6776707],[-101.2020979,19.6777193],[-101.2020305,19.6779634],[-101.2017721,19.6787293],[-101.2017551,19.6787797],[-101.2016902,19.6789723],[-101.2016735,19.6790246],[-101.2015094,19.67951],[-101.2013333,19.6800645],[-101.2012797,19.6801918],[-101.201217,19.6803324],[-101.2011572,19.680419],[-101.2010406,19.6805522],[-101.2009395,19.6806403],[-101.2007913,19.6807534],[-101.2006242,19.6808425],[-101.2005469,19.6808794],[-101.2004695,19.6809163],[-101.2002839,19.680971],[-101.2001131,19.6810088],[-101.1998057,19.6810781],[-101.1994559,19.6811519],[-101.1990728,19.6812066],[-101.1990431,19.6812098],[-101.1987682,19.6812399],[-101.1985636,19.6812494],[-101.1982638,19.6812352],[-101.1981186,19.6812114],[-101.1978593,19.6811685],[-101.1977722,19.6811548],[-101.1976023,19.6811281],[-101.1975142,19.6811174],[-101.1974725,19.6811123],[-101.1974262,19.6811067],[-101.1973191,19.6811067],[-101.1971528,19.6811086],[-101.1970648,19.6811121],[-101.1969779,19.6811276],[-101.1968899,19.6811526],[-101.1967566,19.681199],[-101.1966043,19.6812632],[-101.1965205,19.6813025],[-101.1964366,19.6813418],[-101.1963563,19.6813834],[-101.1963366,19.6813929],[-101.1962724,19.6814619],[-101.1961725,19.681544],[-101.1961201,19.6816094],[-101.1960749,19.6816856],[-101.1960428,19.681751],[-101.1960202,19.6818272],[-101.1959988,19.6818914],[-101.1959845,19.6819592],[-101.1959654,19.6820556],[-101.1959428,19.6821508],[-101.1959037,19.6822324],[-101.1958878,19.6822657],[-101.1958745,19.6822934],[-101.1958619,19.6823216],[-101.1958452,19.6823476],[-101.1958247,19.6823708],[-101.1958009,19.6823906],[-101.195831,19.6824732],[-101.195831,19.6825148],[-101.1957739,19.6827373],[-101.195768,19.6831454],[-101.1957516,19.6839276],[-101.19575,19.6840025],[-101.1957422,19.6843731],[-101.1957407,19.6844482],[-101.1957391,19.6845234],[-101.1957345,19.6847436],[-101.1956998,19.6858205],[-101.1956957,19.6859497],[-101.1956272,19.6880762],[-101.1956247,19.688154],[-101.1955848,19.6893955],[-101.1955812,19.6895061],[-101.1955787,19.6895852],[-101.1955739,19.689731],[-101.1955715,19.6897926],[-101.1955697,19.6900977],[-101.1955728,19.6902047],[-101.1955503,19.6909624],[-101.1955478,19.6910447],[-101.1955259,19.6917783],[-101.1955258,19.6917831],[-101.1955195,19.6920125],[-101.1955192,19.6920246],[-101.1955177,19.692058],[-101.1955073,19.6922932],[-101.1955053,19.6923759],[-101.1954858,19.6931782],[-101.1954849,19.6932141],[-101.1954718,19.6937513],[-101.1954694,19.6938516],[-101.195443,19.6949346],[-101.1954351,19.6951427],[-101.1954284,19.6953169],[-101.195417,19.6956154],[-101.1954138,19.6956992],[-101.1954118,19.6957509],[-101.1953978,19.6961172],[-101.1953326,19.6962414],[-101.1953084,19.6962951],[-101.1953101,19.6962954],[-101.1952879,19.6966636],[-101.1952852,19.6967098],[-101.1952752,19.6968754],[-101.1952364,19.696988],[-101.195194,19.6977699],[-101.1951611,19.6986879],[-101.195139,19.6992832],[-101.1951271,19.7000791],[-101.1951026,19.7004988],[-101.1950965,19.7006035],[-101.1950928,19.7006666],[-101.1950872,19.700761],[-101.195078,19.7009185],[-101.1950746,19.7010185],[-101.1950433,19.7019179],[-101.1950847,19.7019187],[-101.195833,19.7019319],[-101.1960654,19.701936],[-101.1968643,19.7019502],[-101.1968307,19.7023309],[-101.1968089,19.7030095],[-101.1968135,19.7032985],[-101.1968153,19.7034131],[-101.1968377,19.7048459],[-101.1968721,19.7048464],[-101.1968894,19.7048467],[-101.1971773,19.7048522],[-101.1972517,19.7048536],[-101.1974574,19.7048576],[-101.197614,19.7048605],[-101.1978262,19.7048725],[-101.1979432,19.7048791],[-101.1980383,19.7048845],[-101.198278,19.7048987],[-101.1981883,19.705615],[-101.1981704,19.7058802],[-101.1981583,19.7059789],[-101.1981509,19.70604],[-101.1981463,19.7060776],[-101.1981221,19.7062751],[-101.1980969,19.7065157],[-101.1980803,19.7068238],[-101.1980831,19.7069822],[-101.1979632,19.7070979],[-101.1978873,19.7070829],[-101.1977854,19.7070125],[-101.1973459,19.7071672],[-101.1969941,19.7072731],[-101.1966227,19.7073255],[-101.1962324,19.70739],[-101.1959933,19.7074347],[-101.1957533,19.7074138],[-101.1953681,19.7073826],[-101.1949511,19.707334],[-101.1946041,19.7073322],[-101.1940909,19.7073395],[-101.1940085,19.7073407],[-101.1939086,19.7072913],[-101.1937195,19.7073008],[-101.1935568,19.7073084],[-101.1933212,19.7073187],[-101.1931499,19.7073401],[-101.193019,19.707371],[-101.1928334,19.7074543],[-101.1926526,19.7075305],[-101.1924789,19.7076114],[-101.1923076,19.7077137],[-101.1922076,19.7078112],[-101.1919459,19.7081134],[-101.191677,19.7084775],[-101.1913344,19.7090105],[-101.1910036,19.7095673],[-101.1908109,19.7098718],[-101.19063,19.7101455],[-101.190581,19.7102013],[-101.1904111,19.7103715],[-101.1902041,19.7105262],[-101.1899471,19.710669],[-101.1898341,19.7107166],[-101.1897707,19.7107433],[-101.1897211,19.7107641],[-101.1895069,19.7108355],[-101.1892782,19.7108863],[-101.1892595,19.7108903],[-101.1890644,19.710914],[-101.1889192,19.7109093],[-101.1888502,19.7108998],[-101.1887527,19.7108784],[-101.1886313,19.7108355],[-101.1885951,19.7109083],[-101.1883644,19.7113722],[-101.1883498,19.7114015],[-101.1882292,19.7116175],[-101.1881955,19.7118474],[-101.1881888,19.7118935],[-101.1881935,19.7120482],[-101.188201,19.7120967],[-101.1882174,19.7122032],[-101.1882316,19.7122956],[-101.1882935,19.7125329],[-101.1882966,19.7125448],[-101.1883816,19.7128671],[-101.1883877,19.7128904],[-101.1885109,19.713299],[-101.1885219,19.7133355],[-101.1886182,19.7136894],[-101.1878456,19.7139355],[-101.1877711,19.7139592],[-101.1875206,19.7140389],[-101.1877026,19.7146174],[-101.1877743,19.7148818],[-101.1873521,19.7150088],[-101.1860338,19.7160429],[-101.184626,19.7171784],[-101.1839874,19.7175375],[-101.1848029,19.7179362],[-101.1854118,19.7181797],[-101.1864885,19.7187348],[-101.1865765,19.7187801],[-101.1869061,19.7189501],[-101.1883232,19.7196138],[-101.1884874,19.7196381],[-101.1884821,19.7196911],[-101.1884805,19.719723],[-101.1884694,19.7199341],[-101.188704,19.7199801],[-101.1896069,19.7201303],[-101.1896734,19.7201414],[-101.1905099,19.7202806],[-101.1903999,19.7208314],[-101.1903265,19.7213676],[-101.1902274,19.7219899],[-101.1904283,19.7220713],[-101.1905205,19.7221113],[-101.1907718,19.7222204],[-101.1908317,19.7222464],[-101.190913,19.7222817],[-101.1909833,19.7223122],[-101.1910232,19.7223295],[-101.192137,19.7228522],[-101.192592,19.7230465],[-101.1927126,19.723098],[-101.192842,19.7231533],[-101.1928452,19.7231848],[-101.1928566,19.7232196],[-101.1928623,19.7232558],[-101.192862,19.7232924],[-101.1928565,19.7233239],[-101.1928557,19.7233284],[-101.1928436,19.723363],[-101.1928261,19.7233951],[-101.1928036,19.723424],[-101.192783,19.723443],[-101.1927767,19.7234488],[-101.1927461,19.7234689],[-101.1927127,19.7234838],[-101.1926072,19.7234796],[-101.1925742,19.7234665],[-101.1925081,19.7234403],[-101.1921337,19.7232918],[-101.1918458,19.7231562],[-101.1918024,19.7231352],[-101.1912494,19.7228884],[-101.1911671,19.722955],[-101.1911259,19.7232139],[-101.1911134,19.7232921],[-101.1911051,19.7233445],[-101.1910707,19.72356],[-101.1910098,19.723942],[-101.19099,19.7240663],[-101.1909509,19.724312],[-101.1909029,19.7246132],[-101.1908962,19.7246552],[-101.1908719,19.7248075],[-101.1908646,19.7248835],[-101.1908618,19.7249128],[-101.1908286,19.7249204],[-101.1905263,19.7249842],[-101.1904873,19.7249929],[-101.1904842,19.7254348],[-101.1904834,19.7255498],[-101.1904817,19.7257887]],[[-101.1939277,19.7253283],[-101.1939504,19.725328],[-101.1933687,19.7254212],[-101.192802,19.7254998],[-101.1907695,19.7257971],[-101.1906334,19.7258059],[-101.1904817,19.7257887]],[[-101.1904817,19.7257887],[-101.1904675,19.7258534],[-101.1905583,19.7264114],[-101.1907116,19.727105],[-101.1907048,19.7271552],[-101.1904412,19.7272588],[-101.1902525,19.7273041],[-101.1893502,19.7277597]]]}},{"type":"Feature","properties":{"id":"31_1","routeId":"31","routeName":"Guinda 2","direction":"vuelta","directionIndex":2,"color":"#611240","casingColor":"#222222","transportType":"combi","name":"Vuelta","geometrySource":"official-kml-explicit-coordinates","matchingEngine":"none"},"geometry":{"type":"MultiLineString","coordinates":[[[-101.1893502,19.7277597],[-101.1902525,19.7273041],[-101.1904412,19.7272588],[-101.1907048,19.7271552],[-101.1907116,19.727105],[-101.1905583,19.7264114],[-101.1904675,19.7258534],[-101.1904817,19.7257887],[-101.1904873,19.7249929],[-101.1900575,19.7250889],[-101.1898957,19.7251293],[-101.1898442,19.725144],[-101.1898363,19.7250532],[-101.1898407,19.7248645],[-101.1900365,19.7236721],[-101.1910707,19.72356],[-101.1911051,19.7233445],[-101.1911134,19.7232921],[-101.1911671,19.722955],[-101.1911055,19.7228592],[-101.1910751,19.7228106],[-101.1905235,19.722568],[-101.1902027,19.722411],[-101.1895048,19.7220773],[-101.1893538,19.7220055],[-101.1892927,19.7219764],[-101.1884914,19.7215955],[-101.1884208,19.7215645],[-101.1883938,19.7215526],[-101.188148,19.7214383],[-101.18815,19.721435],[-101.1881961,19.721356],[-101.1882501,19.7212405],[-101.1882611,19.721215],[-101.1882969,19.7211325],[-101.1883169,19.7210548],[-101.1883564,19.7209007],[-101.1884206,19.7205823],[-101.1884341,19.7204554],[-101.1884492,19.7203139],[-101.1884635,19.7200484],[-101.1884663,19.7199945],[-101.1884694,19.7199341],[-101.1884805,19.719723],[-101.1884874,19.7196381],[-101.1883232,19.7196138],[-101.1869061,19.7189501],[-101.1854118,19.7181797],[-101.1848029,19.7179362],[-101.1839874,19.7175375],[-101.184626,19.7171784],[-101.1860338,19.7160429],[-101.1873521,19.7150088],[-101.1877743,19.7148818],[-101.1877026,19.7146174],[-101.1875206,19.7140389],[-101.1886182,19.7136894],[-101.1885219,19.7133355],[-101.1885109,19.713299],[-101.1883879,19.7128908],[-101.1883816,19.7128671],[-101.1882966,19.7125448],[-101.1882935,19.7125329],[-101.1882316,19.7122956],[-101.1882174,19.7122032],[-101.188201,19.7120967],[-101.1881935,19.7120482],[-101.1881888,19.7118935],[-101.1881955,19.7118474],[-101.1882292,19.7116175],[-101.1883831,19.7107134],[-101.188665,19.7107498],[-101.1886633,19.710754],[-101.188742,19.710772],[-101.1888013,19.7107826],[-101.1889907,19.7107982],[-101.1892238,19.7107714],[-101.1892911,19.7107609],[-101.1894514,19.7107343],[-101.1896956,19.7106761],[-101.1899339,19.7105716],[-101.1901275,19.7104258],[-101.1903457,19.710238],[-101.1905385,19.7100325],[-101.1906986,19.7097498],[-101.1910818,19.7091656],[-101.1914531,19.7086353],[-101.1917501,19.7082221],[-101.1917998,19.7081531],[-101.1921162,19.7077669],[-101.1923032,19.7075974],[-101.1925219,19.7074453],[-101.1928544,19.7073098],[-101.1932192,19.7072337],[-101.1934585,19.7072069],[-101.1940294,19.7071699],[-101.1940282,19.7069806],[-101.1940294,19.7069092],[-101.1940051,19.7067562],[-101.1940146,19.7063212],[-101.1940177,19.7061795],[-101.1940303,19.7056029],[-101.1940625,19.7047884],[-101.1940646,19.7046551],[-101.1940668,19.7045211],[-101.194075,19.7039992],[-101.1940764,19.7039057],[-101.1941482,19.7029501],[-101.1940498,19.7029513],[-101.1940732,19.7024253],[-101.1940771,19.7023399],[-101.1940967,19.7018992],[-101.1941562,19.7019004],[-101.1941641,19.7010035],[-101.1941653,19.7008709],[-101.1942149,19.6999059],[-101.1942192,19.6997439],[-101.1942207,19.6988342],[-101.1942059,19.6983039],[-101.1942074,19.6978522],[-101.1942124,19.6971138],[-101.1942533,19.6967835],[-101.1942829,19.6966803],[-101.1942907,19.69653],[-101.194293,19.6964853],[-101.1942962,19.6964224],[-101.1943067,19.6962187],[-101.1951491,19.6962663],[-101.1951724,19.6954786],[-101.1951746,19.695403],[-101.1951786,19.6952671],[-101.1951814,19.6951739],[-101.1951979,19.6946134],[-101.1952384,19.6928407],[-101.1952372,19.6925316],[-101.1952265,19.6924757],[-101.1952359,19.6922224],[-101.195253,19.6919448],[-101.1952554,19.6917338],[-101.1952646,19.6913107],[-101.1952713,19.6911375],[-101.1952791,19.6909357],[-101.1952834,19.6908238],[-101.1952955,19.6905102],[-101.1952984,19.690435],[-101.1953029,19.6903195],[-101.1953062,19.6902323],[-101.1953073,19.690204],[-101.1953107,19.6899126],[-101.1953122,19.6897855],[-101.1953892,19.6876562],[-101.1953956,19.6874772],[-101.1954155,19.6867196],[-101.1954185,19.6866057],[-101.1954406,19.6857647],[-101.1954446,19.6856105],[-101.195468,19.6847189],[-101.1954673,19.6845381],[-101.1954669,19.6844345],[-101.1954666,19.6843574],[-101.1954661,19.6842011],[-101.1954851,19.6836929],[-101.1954974,19.683349],[-101.1956478,19.6832283],[-101.1956542,19.6830464],[-101.1956573,19.6829586],[-101.1956252,19.6828491],[-101.195605,19.6827052],[-101.1955931,19.6826528],[-101.1955812,19.6826029],[-101.1955586,19.682541],[-101.1955431,19.6824934],[-101.1955419,19.6824613],[-101.1955569,19.6823843],[-101.1955356,19.6823648],[-101.1955172,19.6823424],[-101.1955023,19.6823177],[-101.1954909,19.6822911],[-101.1954829,19.6822595],[-101.1954799,19.6822271],[-101.1954822,19.6821946],[-101.1954897,19.6821629],[-101.1955021,19.6821327],[-101.1955192,19.682105],[-101.1955404,19.6820803],[-101.1955395,19.6820211],[-101.1957358,19.6815202],[-101.1959143,19.6814595],[-101.195945,19.681408],[-101.1960052,19.6813885],[-101.1960931,19.6813578],[-101.1962878,19.6812787],[-101.1963465,19.6812548],[-101.1964164,19.6812263],[-101.1964868,19.6811974],[-101.1965265,19.6811811],[-101.1965294,19.6811799],[-101.1966567,19.6811276],[-101.1967531,19.6810943],[-101.1968863,19.6810562],[-101.19701,19.6810324],[-101.1971311,19.6810091],[-101.1973215,19.6810162],[-101.1974738,19.6810258],[-101.1976618,19.6810496],[-101.1978878,19.6810876],[-101.1981781,19.6811424],[-101.1984565,19.6811685],[-101.1986207,19.6811733],[-101.1986974,19.6811668],[-101.1988444,19.6811543],[-101.1989659,19.6811343],[-101.1991775,19.6810995],[-101.1996391,19.6810234],[-101.1999889,19.6809472],[-101.2000388,19.6809327],[-101.2001888,19.6808996],[-101.2003625,19.6808449],[-101.2005409,19.6807712],[-101.2005986,19.6807441],[-101.2006932,19.6806998],[-101.2008407,19.6805951],[-101.200974,19.6804642],[-101.2011048,19.6802976],[-101.2012333,19.6800216],[-101.2014451,19.6793625],[-101.201538,19.679073],[-101.2015767,19.6789524],[-101.2016309,19.6787835],[-101.2016731,19.6786519],[-101.2020114,19.6775517],[-101.2021101,19.6772698],[-101.2021447,19.6771657],[-101.2019939,19.6772783],[-101.2017258,19.677597],[-101.2015713,19.6777375],[-101.201476,19.6777817],[-101.2013657,19.6778356],[-101.2011338,19.677848],[-101.2004876,19.6778225],[-101.2005132,19.67711],[-101.2005842,19.676029],[-101.2005919,19.6754841],[-101.2006222,19.6747477],[-101.2006644,19.6737722],[-101.2007258,19.6730928],[-101.200749,19.6725811],[-101.2007637,19.6721795],[-101.2008223,19.6716674],[-101.2008768,19.6715008],[-101.2008215,19.6714494],[-101.2008158,19.6713714],[-101.2008185,19.6713412],[-101.2008585,19.6708909],[-101.2008594,19.6708797],[-101.2008835,19.6706085],[-101.200892,19.6705129],[-101.2009358,19.6704462],[-101.2009205,19.6703891],[-101.2008996,19.6703435],[-101.200852,19.6702806],[-101.2007949,19.6702216],[-101.2007264,19.670174],[-101.2006483,19.6701398],[-101.2006193,19.6701297],[-101.2004979,19.670096],[-101.2003149,19.6700518],[-101.2003097,19.6700506],[-101.2002219,19.6700294],[-101.1999897,19.669978],[-101.1996927,19.6698885],[-101.1994719,19.6697743],[-101.1993596,19.6696734],[-101.1993262,19.669637],[-101.1992914,19.669599],[-101.1992549,19.6695592],[-101.1992168,19.6695021],[-101.1991865,19.6694373],[-101.1991631,19.6693887],[-101.1990998,19.6690248],[-101.1990712,19.6688607],[-101.1990344,19.6686489],[-101.1990244,19.6685912],[-101.1990112,19.6685155],[-101.198967,19.6682441],[-101.1989427,19.6680948],[-101.1989325,19.6680659],[-101.1987813,19.6681413],[-101.198229,19.6683392],[-101.1972899,19.6686566],[-101.1969885,19.6687607],[-101.1967674,19.6688255],[-101.196566,19.6688518],[-101.1963238,19.66885],[-101.1959034,19.6687309],[-101.1956855,19.6686619],[-101.1954519,19.66855],[-101.1947906,19.6681519],[-101.1951212,19.6676078],[-101.194906,19.6669938],[-101.1945041,19.6671182],[-101.1941425,19.6661333],[-101.1937606,19.6662479],[-101.1936623,19.6660627],[-101.1933968,19.6658318],[-101.1939129,19.6651994],[-101.1935916,19.66495],[-101.1930607,19.6656065]]]}}]}
