{"type":"FeatureCollection","features":[{"type":"Feature","properties":{"id":"39_0","routeId":"39","routeName":"Naranja 1 [La Soledad]","direction":"ida","directionIndex":1,"color":"#EC5400","casingColor":"#222222","transportType":"combi","name":"Ida","reviewedCorrection":"c1-remove-black-use-green-street"},"geometry":{"type":"MultiLineString","coordinates":[[[-101.173169,19.725492],[-101.1731,19.72559],[-101.174013,19.725564],[-101.175003,19.725539],[-101.175007,19.725946],[-101.175022,19.726335],[-101.175059,19.726749],[-101.175084,19.727133],[-101.175097,19.727533],[-101.175107,19.727708],[-101.175112,19.727922],[-101.175131,19.728325],[-101.175289,19.72892],[-101.175403,19.729309],[-101.175497,19.729704],[-101.175597,19.730092],[-101.175682,19.730484],[-101.175858,19.730874],[-101.176051,19.731274],[-101.176251,19.731676],[-101.176438,19.732093],[-101.177384,19.732046],[-101.177773,19.731788],[-101.178136,19.731591],[-101.178409,19.731571],[-101.178557,19.73156],[-101.179007,19.731526],[-101.179453,19.731509],[-101.179916,19.731495],[-101.18038,19.731476],[-101.180951,19.731725],[-101.18153,19.732055],[-101.181559,19.732078],[-101.181942,19.732384],[-101.182584,19.732293],[-101.182764,19.732268],[-101.183033,19.732286],[-101.183058,19.731959],[-101.183154,19.730823],[-101.183188,19.73047],[-101.183212,19.730054],[-101.183225,19.729835],[-101.183171,19.729631],[-101.183177,19.72953],[-101.1832,19.729065],[-101.183306,19.728013],[-101.183367,19.727481],[-101.18346,19.726943],[-101.183631,19.726388],[-101.183886,19.7259],[-101.184171,19.725411],[-101.184223,19.725327],[-101.184524,19.724923],[-101.185243,19.724265],[-101.185253,19.724255],[-101.185344,19.724184],[-101.185814,19.723854],[-101.186068,19.723675],[-101.18634,19.723466],[-101.187334,19.722638],[-101.18778,19.72215],[-101.187954,19.721913],[-101.188039,19.721798],[-101.188094,19.721702],[-101.188186,19.721539],[-101.188206,19.7215],[-101.188241,19.721418],[-101.188354,19.721156],[-101.188414,19.720967],[-101.188445,19.720867],[-101.188536,19.720536],[-101.18859,19.720193],[-101.188611,19.719943],[-101.188622,19.719319],[-101.188635,19.719093],[-101.188674,19.718622],[-101.188687,19.71853],[-101.188698,19.718033],[-101.188701,19.717918],[-101.188728,19.717294],[-101.188818,19.716457],[-101.188757,19.716448],[-101.188719,19.716447],[-101.188977,19.715626],[-101.189014,19.715442],[-101.189017,19.715263],[-101.189003,19.715118],[-101.188787,19.714252],[-101.188639,19.713763],[-101.188471,19.713353],[-101.188421,19.713188],[-101.188365,19.713001],[-101.188322,19.712855],[-101.188308,19.7128],[-101.18827,19.712659],[-101.188245,19.71257],[-101.188316,19.712552],[-101.188391,19.712532],[-101.188306,19.712232],[-101.188259,19.711966],[-101.188283,19.711695],[-101.188346,19.711457],[-101.188452,19.711257],[-101.188547,19.711047],[-101.188645,19.710833],[-101.188676,19.710755],[-101.188758,19.710586],[-101.188912,19.710324],[-101.189048,19.710107],[-101.189181,19.70989],[-101.189461,19.709462],[-101.189728,19.709027],[-101.189913,19.70871],[-101.189996,19.708585],[-101.190218,19.708242],[-101.190405,19.707958],[-101.19058,19.707654],[-101.190702,19.707339],[-101.190847,19.706934],[-101.189038,19.707154],[-101.189112,19.706904],[-101.18914,19.706765],[-101.189215,19.706464],[-101.189296,19.70617],[-101.189335,19.705934],[-101.189374,19.705643],[-101.18938,19.705596],[-101.189423,19.70535],[-101.18948,19.705279],[-101.189495,19.705261],[-101.18952,19.705286],[-101.189591,19.705349],[-101.189624,19.705349],[-101.190365,19.705343],[-101.190365,19.704688],[-101.190376,19.703818],[-101.190387,19.702934],[-101.190388,19.702875],[-101.190388,19.702828],[-101.190404,19.701847],[-101.190404,19.701822],[-101.190418,19.700924],[-101.190436,19.699767],[-101.190458,19.698365],[-101.190492,19.697254],[-101.190497,19.696463],[-101.190497,19.696463],[-101.190492,19.697254],[-101.190458,19.698365],[-101.190436,19.699767],[-101.190418,19.700924],[-101.190404,19.701822],[-101.190404,19.701847],[-101.190388,19.702828],[-101.190388,19.702875],[-101.190387,19.702934],[-101.190376,19.703818],[-101.190365,19.704688],[-101.190365,19.705343],[-101.189624,19.705349],[-101.189591,19.705349],[-101.18952,19.705286],[-101.189495,19.705261],[-101.18948,19.705279],[-101.189423,19.70535],[-101.18938,19.705596],[-101.189374,19.705643],[-101.189335,19.705934],[-101.189296,19.70617],[-101.189215,19.706464],[-101.18914,19.706765],[-101.189112,19.706904],[-101.189038,19.707154],[-101.188818,19.708027],[-101.188799,19.708136],[-101.188639,19.709077],[-101.188446,19.710408],[-101.188396,19.710737],[-101.188207,19.711542],[-101.188135,19.711974],[-101.188139,19.71209],[-101.188151,19.712166],[-101.188164,19.712269],[-101.188245,19.71257],[-101.18827,19.712659],[-101.188308,19.7128],[-101.188322,19.712855],[-101.188365,19.713001],[-101.188421,19.713188],[-101.188471,19.713353],[-101.188639,19.713763],[-101.188787,19.714252],[-101.189003,19.715118],[-101.189017,19.715263],[-101.189014,19.715442],[-101.188977,19.715626],[-101.188719,19.716447],[-101.188757,19.716448],[-101.188818,19.716457],[-101.188728,19.717294],[-101.188701,19.717918],[-101.188698,19.718033],[-101.188687,19.71853],[-101.188674,19.718622],[-101.188635,19.719093],[-101.188622,19.719319],[-101.188611,19.719943],[-101.18859,19.720193],[-101.188536,19.720536],[-101.188445,19.720867],[-101.188414,19.720967],[-101.188354,19.721156],[-101.188241,19.721418],[-101.188206,19.7215],[-101.187982,19.721399],[-101.187958,19.721439],[-101.187894,19.721548],[-101.187878,19.721576],[-101.187853,19.721611],[-101.187837,19.721635],[-101.187753,19.721741],[-101.187493,19.722032],[-101.18729,19.722235],[-101.187059,19.722425],[-101.186826,19.722634],[-101.186312,19.723052],[-101.186204,19.723153],[-101.185918,19.723403],[-101.185826,19.723489],[-101.185698,19.723645],[-101.185377,19.723932],[-101.185222,19.724059],[-101.18483,19.724381],[-101.184965,19.724359],[-101.184587,19.724718],[-101.184223,19.725063],[-101.18402,19.72539],[-101.18384,19.725678],[-101.183791,19.725773],[-101.183501,19.726344],[-101.1834,19.726636],[-101.18327,19.727167],[-101.183235,19.72739],[-101.183202,19.727679],[-101.183161,19.728001],[-101.182508,19.727913],[-101.182106,19.727859],[-101.18187,19.727827],[-101.181513,19.727779],[-101.181257,19.727752],[-101.18153,19.73197],[-101.18148,19.73207],[-101.18145,19.73205],[-101.18153,19.732055],[-101.180951,19.731725],[-101.18038,19.731476],[-101.179916,19.731495],[-101.179453,19.731509],[-101.179007,19.731526],[-101.178557,19.73156],[-101.178409,19.731571],[-101.178136,19.731591],[-101.177773,19.731788],[-101.177384,19.732046],[-101.176438,19.732093],[-101.176251,19.731676],[-101.176051,19.731274],[-101.175858,19.730874],[-101.175682,19.730484],[-101.175597,19.730092],[-101.175497,19.729704],[-101.175403,19.729309],[-101.175289,19.72892],[-101.175131,19.728325],[-101.175112,19.727922],[-101.175107,19.727708],[-101.175097,19.727533],[-101.175084,19.727133],[-101.175059,19.726749],[-101.175022,19.726335],[-101.175007,19.725946],[-101.175003,19.725539],[-101.174013,19.725564],[-101.173928,19.725502],[-101.173287,19.725322],[-101.173166,19.725496]]]}}]}
