{"type": "FeatureCollection", "features": [{"type": "Feature", "properties": {"id": "77_0", "routeId": "77", "routeName": "Ruta 2 (Contra Reloj)", "direction": "ida", "directionIndex": 1, "color": "#EBCF00", "casingColor": "#222222", "transportType": "combi", "name": "Ida"}, "geometry": {"type": "MultiLineString", "coordinates": [[[-101.204754, 19.69261], [-101.20483, 19.692621], [-101.204918, 19.692748], [-101.205484, 19.693478], [-101.205508, 19.693284], [-101.206163, 19.6936], [-101.206154, 19.69368], [-101.206792, 19.693995], [-101.206779, 19.694087], [-101.208594, 19.695247], [-101.20864, 19.695253], [-101.208764, 19.695268], [-101.208365, 19.698013], [-101.207747, 19.700406], [-101.20809, 19.700471], [-101.20797, 19.700624], [-101.207894, 19.700713], [-101.207866, 19.700748], [-101.207783, 19.700833], [-101.207841, 19.700957], [-101.207924, 19.701027], [-101.207606, 19.701704], [-101.20762, 19.701526], [-101.207515, 19.701379], [-101.207435, 19.701355], [-101.206757, 19.701795], [-101.206692, 19.701951], [-101.206686, 19.702076], [-101.20672, 19.702185], [-101.206752, 19.70222], [-101.20641, 19.702382], [-101.206429, 19.702724], [-101.205973, 19.703211], [-101.205979, 19.703367], [-101.206046, 19.704252], [-101.206119, 19.705259], [-101.206192, 19.706607], [-101.206305, 19.707912], [-101.206154, 19.707875], [-101.205844, 19.707808], [-101.205375, 19.707717], [-101.204894, 19.707647], [-101.204327, 19.707567], [-101.204394, 19.70847], [-101.204438, 19.709078], [-101.204492, 19.709804], [-101.204532, 19.710345], [-101.204548, 19.710557], [-101.204574, 19.710913], [-101.204387, 19.710906], [-101.20398, 19.710904], [-101.203281, 19.710898], [-101.20239, 19.710878], [-101.202283, 19.710876], [-101.201359, 19.710843], [-101.20093, 19.710839], [-101.200374, 19.710834], [-101.200337, 19.710833], [-101.200305, 19.710833], [-101.199207, 19.710823], [-101.197639, 19.710808], [-101.196804, 19.7108], [-101.195801, 19.710791], [-101.194766, 19.710781], [-101.193871, 19.710773], [-101.193118, 19.710766], [-101.192188, 19.710757], [-101.191432, 19.71075], [-101.191024, 19.710746], [-101.190586, 19.710742], [-101.189889, 19.710736], [-101.189802, 19.710735], [-101.190519, 19.710093], [-101.190415, 19.710226], [-101.190276, 19.710358], [-101.190146, 19.710448], [-101.189975, 19.710541], [-101.189748, 19.710634], [-101.189268, 19.710781], [-101.18914, 19.7108], [-101.188991, 19.710798], [-101.188676, 19.710755], [-101.188396, 19.710737], [-101.188196, 19.710762], [-101.187707, 19.710885], [-101.187481, 19.710976], [-101.186727, 19.711646], [-101.186737, 19.711678], [-101.186232, 19.711888], [-101.186242, 19.711921], [-101.18572, 19.712022], [-101.185596, 19.712113], [-101.185314, 19.712298], [-101.185125, 19.71244], [-101.184054, 19.713263], [-101.182731, 19.71326], [-101.18147, 19.713258], [-101.180168, 19.713256], [-101.179559, 19.713255], [-101.179021, 19.713254], [-101.17864, 19.713254], [-101.177812, 19.713252], [-101.176949, 19.713252], [-101.176059, 19.713249], [-101.175298, 19.711552], [-101.176163, 19.711556], [-101.176172, 19.711404], [-101.175709, 19.710729], [-101.175378, 19.710729], [-101.175502, 19.709893], [-101.175168, 19.709908], [-101.174842, 19.709342], [-101.174862, 19.708998], [-101.174059, 19.708072], [-101.174073, 19.707923], [-101.171254, 19.708746], [-101.17136, 19.707724], [-101.171446, 19.706756], [-101.171541, 19.705758], [-101.171595, 19.704968], [-101.171657, 19.704351], [-101.171714, 19.703788], [-101.171837, 19.702567], [-101.170916, 19.702486], [-101.170123, 19.702411], [-101.169018, 19.702307], [-101.168249, 19.702237], [-101.168234, 19.702376], [-101.167459, 19.702334], [-101.167458, 19.702343], [-101.16649, 19.70228], [-101.166484, 19.702306], [-101.165562, 19.702245], [-101.165556, 19.702271], [-101.163759, 19.702184], [-101.1637, 19.70247], [-101.163541, 19.702128], [-101.162967, 19.702192], [-101.162845, 19.70192], [-101.162382, 19.702098], [-101.161883, 19.700986], [-101.161455, 19.700007], [-101.160902, 19.70011], [-101.160517, 19.700178], [-101.160212, 19.700231], [-101.160087, 19.700255], [-101.159768, 19.700312], [-101.159653, 19.700335], [-101.15925, 19.700413], [-101.158974, 19.700451], [-101.158796, 19.700488], [-101.158381, 19.700564], [-101.158135, 19.700609], [-101.158257, 19.699339], [-101.158293, 19.698922], [-101.158328, 19.698524], [-101.158378, 19.698001], [-101.158427, 19.697569], [-101.15848, 19.697048], [-101.158551, 19.696366], [-101.158616, 19.695667], [-101.158619, 19.695594], [-101.158622, 19.695531], [-101.158626, 19.695446], [-101.158614, 19.694845], [-101.158551, 19.694821], [-101.158616, 19.694328], [-101.158552, 19.694303], [-101.158635, 19.693764], [-101.158573, 19.693741], [-101.158609, 19.692948], [-101.158132, 19.692867], [-101.158167, 19.692665], [-101.158236, 19.69261], [-101.158362, 19.692577], [-101.158604, 19.692544], [-101.158607, 19.692544], [-101.158651, 19.691983], [-101.158618, 19.691834], [-101.159116, 19.68838], [-101.159141, 19.688193], [-101.159198, 19.688105], [-101.15929, 19.688063], [-101.159544, 19.688008], [-101.159661, 19.688022], [-101.16023, 19.688087], [-101.160367, 19.68808], [-101.16049, 19.688124], [-101.160956, 19.688171], [-101.161448, 19.688229], [-101.16363, 19.688499], [-101.163703, 19.688517], [-101.164261, 19.68863], [-101.165617, 19.688938], [-101.167024, 19.689258], [-101.168393, 19.689569], [-101.16978, 19.689884], [-101.169846, 19.689567], [-101.171447, 19.688009], [-101.171482, 19.687857], [-101.172107, 19.687569], [-101.172231, 19.687054], [-101.172997, 19.686335], [-101.173131, 19.686371], [-101.173149, 19.686292], [-101.17318, 19.686161], [-101.173223, 19.685976], [-101.173516, 19.684718], [-101.173782, 19.683579], [-101.173788, 19.683542], [-101.172106, 19.681987], [-101.172426, 19.681966], [-101.172585, 19.681955], [-101.173807, 19.681878], [-101.174105, 19.681859], [-101.174239, 19.68185], [-101.175329, 19.681782], [-101.176273, 19.681724], [-101.17638, 19.681787], [-101.176417, 19.681808], [-101.176992, 19.681772], [-101.179059, 19.681612], [-101.17944, 19.68159], [-101.179618, 19.681579], [-101.180144, 19.681551], [-101.184081, 19.681748], [-101.184067, 19.681757], [-101.184058, 19.681769], [-101.184053, 19.681784], [-101.184054, 19.681799], [-101.18406, 19.681813], [-101.18407, 19.681825], [-101.184083, 19.681834], [-101.184099, 19.681837], [-101.184115, 19.681836], [-101.18413, 19.68183], [-101.184143, 19.681819], [-101.184151, 19.681805], [-101.184154, 19.68179], [-101.184151, 19.681774], [-101.184142, 19.68176], [-101.184466, 19.681273], [-101.184397, 19.681579], [-101.184389, 19.681664], [-101.184412, 19.681722], [-101.184456, 19.681743], [-101.184503, 19.681764], [-101.184657, 19.681744], [-101.184829, 19.681649], [-101.185123, 19.681661], [-101.185142, 19.681468], [-101.185227, 19.681476], [-101.185378, 19.68149], [-101.185374, 19.681527], [-101.185799, 19.681603], [-101.185783, 19.681878], [-101.185917, 19.681889], [-101.185944, 19.681683], [-101.18692, 19.681203], [-101.187013, 19.681221], [-101.187253, 19.681276], [-101.187437, 19.681199], [-101.187817, 19.68135], [-101.188559, 19.681689], [-101.18882, 19.681832], [-101.189246, 19.68188], [-101.189216, 19.681564], [-101.18979, 19.681556], [-101.18979, 19.68156], [-101.190342, 19.681559], [-101.190342, 19.681562], [-101.190921, 19.68164], [-101.190941, 19.68162], [-101.190972, 19.681611], [-101.191004, 19.681617], [-101.192415, 19.681611], [-101.192466, 19.681546], [-101.192765, 19.681399], [-101.19279, 19.681392], [-101.1921, 19.682237], [-101.194598, 19.681818], [-101.194827, 19.681858], [-101.195037, 19.681914], [-101.195139, 19.68197], [-101.195264, 19.682051], [-101.195358, 19.68214], [-101.19549, 19.682267], [-101.195514, 19.682726], [-101.195531, 19.682815], [-101.195515, 19.68331], [-101.195495, 19.68391], [-101.195487, 19.684158], [-101.195452, 19.685406], [-101.195377, 19.688033], [-101.195363, 19.688531], [-101.195362, 19.688589], [-101.195322, 19.690209], [-101.195433, 19.690207], [-101.195472, 19.690205], [-101.195591, 19.690204], [-101.196206, 19.690206], [-101.197063, 19.690213], [-101.197799, 19.690207], [-101.1984, 19.69021], [-101.199078, 19.690206], [-101.19977, 19.690204], [-101.200381, 19.690199], [-101.20091, 19.690209], [-101.200963, 19.690219], [-101.201007, 19.690242], [-101.201604, 19.690621], [-101.202011, 19.690832], [-101.202244, 19.690866], [-101.202212, 19.691137], [-101.202871, 19.691432], [-101.202862, 19.691507], [-101.203542, 19.691806], [-101.203532, 19.691878], [-101.204011, 19.692081], [-101.204002, 19.692154], [-101.204465, 19.692355], [-101.204438, 19.692562], [-101.204754, 19.69261]]]}}]}