{"type":"FeatureCollection","features":[{"type":"Feature","properties":{"id":"78_0","routeId":"78","routeName":"Alberca (Metropolis)","direction":"ida","directionIndex":1,"color":"#FFC800","casingColor":"#222222","transportType":"combi","name":"Ida","geometrySource":"official-kml-explicit-coordinates","matchingEngine":"none"},"geometry":{"type":"MultiLineString","coordinates":[[[-101.147012,19.6942815],[-101.1470179,19.6942647],[-101.1470511,19.6941698],[-101.1470728,19.694181],[-101.1470887,19.6941892],[-101.1471264,19.6942087],[-101.1471404,19.694216],[-101.1472081,19.694251],[-101.1473191,19.6943035],[-101.1473311,19.6943091],[-101.1473813,19.6943329],[-101.1474127,19.694345],[-101.1474522,19.6943602],[-101.1474806,19.6943711],[-101.147497,19.6943775],[-101.1475393,19.6943938],[-101.1476634,19.6944222],[-101.1476843,19.694427],[-101.1477468,19.6944414],[-101.1478294,19.6944551],[-101.1478327,19.6944557],[-101.147927,19.6944714],[-101.147941,19.6944737],[-101.1479634,19.6944767],[-101.1479887,19.69448],[-101.1480204,19.6944842],[-101.1480865,19.6944929],[-101.1481287,19.6944984],[-101.148158,19.6945023],[-101.1482134,19.6945067],[-101.1482153,19.6945068],[-101.1482726,19.6945113],[-101.1483027,19.6945137],[-101.1484626,19.6945175],[-101.1486147,19.6944922],[-101.1487161,19.6944748],[-101.1488175,19.6944574],[-101.1489152,19.6944092],[-101.1489826,19.6943624],[-101.1490576,19.6943093],[-101.1491227,19.6942313],[-101.1491934,19.6941285],[-101.1492845,19.6939802],[-101.1492959,19.6939399],[-101.1493642,19.6936975],[-101.1494837,19.693302],[-101.1495382,19.6931218],[-101.1495537,19.6930751],[-101.1495744,19.6930127],[-101.1496594,19.6927561],[-101.1496752,19.6927084],[-101.1496855,19.6926775],[-101.1497036,19.692623],[-101.149737,19.692522],[-101.1498316,19.6922415],[-101.1498577,19.6921642],[-101.1498608,19.6921551],[-101.1498732,19.6921182],[-101.1499506,19.6918886],[-101.1500796,19.6915318],[-101.1501745,19.6912693],[-101.1502099,19.6911568],[-101.1502366,19.6910724],[-101.1503376,19.6907519],[-101.1503439,19.690732],[-101.1503777,19.6906209],[-101.1504357,19.6904298],[-101.1504756,19.6902987],[-101.150485,19.6902677],[-101.1504924,19.6902433],[-101.1505121,19.6901785],[-101.1505549,19.690082],[-101.1506285,19.6899588],[-101.1506658,19.6898965],[-101.1507326,19.6897954],[-101.1507571,19.6897581],[-101.1508003,19.689693],[-101.1508339,19.6896537],[-101.1508774,19.6896027],[-101.1509057,19.6895695],[-101.1510651,19.6893828],[-101.1511203,19.689318],[-101.1511372,19.6892982],[-101.1512189,19.6892126],[-101.151251,19.689179],[-101.1513288,19.6890976],[-101.151426,19.6889958],[-101.1514993,19.688919],[-101.1515204,19.6888969],[-101.1515456,19.6888693],[-101.1515913,19.6888194],[-101.1516857,19.6887162],[-101.1517989,19.6885925],[-101.1518381,19.6885532],[-101.1519961,19.6883948],[-101.1521126,19.6882781],[-101.152164,19.6882235],[-101.1522313,19.6881522],[-101.1523092,19.6880697],[-101.1525322,19.6878333],[-101.1525908,19.68777],[-101.1527171,19.6876325],[-101.152803,19.6875389],[-101.1528885,19.6874648],[-101.1530938,19.68732],[-101.1531293,19.6873066],[-101.1532733,19.6872523],[-101.1533034,19.687241],[-101.1533071,19.6872396],[-101.1533951,19.6872064],[-101.1535043,19.6871831],[-101.1535162,19.6871806],[-101.1535267,19.6871783],[-101.1535611,19.687171],[-101.1539041,19.6871573],[-101.1540557,19.6871746],[-101.1543423,19.6872026],[-101.1546365,19.687226],[-101.1546771,19.6872293],[-101.1549298,19.6872597],[-101.1549717,19.687264],[-101.1550371,19.6872707],[-101.1552431,19.6872918],[-101.1553304,19.6873007],[-101.1554434,19.6873123],[-101.1555564,19.6873239],[-101.1562791,19.6874108],[-101.1563675,19.6874205],[-101.1565925,19.6874454],[-101.1566303,19.6874496],[-101.1566678,19.6874537],[-101.1567053,19.6874578],[-101.156717,19.6874591],[-101.1567896,19.6874672],[-101.1568739,19.6874765],[-101.1569468,19.6874845],[-101.1569816,19.6874884],[-101.1571989,19.6875144],[-101.1572241,19.6875174],[-101.1573075,19.6875275],[-101.1574162,19.6875405],[-101.1577549,19.687589],[-101.1580189,19.6876483],[-101.1580987,19.6876662],[-101.1582013,19.6876777],[-101.1584423,19.6877047],[-101.1585278,19.6877143],[-101.1585341,19.687715],[-101.1585528,19.6877172],[-101.1586886,19.6877335],[-101.1587385,19.687736],[-101.1588743,19.6877428],[-101.1589566,19.6877474],[-101.1590033,19.6877523],[-101.1590556,19.687758],[-101.1591305,19.6877647],[-101.1592207,19.6877728],[-101.1592862,19.6877786],[-101.1593109,19.6877808],[-101.1594066,19.6877894],[-101.1595013,19.6877978],[-101.1595886,19.6878056],[-101.159678,19.6878142],[-101.1597371,19.6878199],[-101.1598597,19.6878317],[-101.1599475,19.6878401],[-101.1599846,19.6878437],[-101.1600499,19.6878603],[-101.1601279,19.68788],[-101.1602058,19.6878998],[-101.1602929,19.6879112],[-101.1603729,19.6879012],[-101.1603999,19.6878928],[-101.16046,19.6878741],[-101.1605451,19.6878269],[-101.160588,19.687803],[-101.1606344,19.6877773],[-101.1607326,19.6877228],[-101.1609639,19.6878227],[-101.1609812,19.6878296],[-101.1612852,19.6879512],[-101.1613608,19.6879683],[-101.1614417,19.6879858],[-101.1614886,19.687996],[-101.1615225,19.6880033],[-101.1620222,19.6880519],[-101.1621304,19.6880624],[-101.1623068,19.6880796],[-101.1637658,19.6882631],[-101.1640367,19.6883243],[-101.1641388,19.6883473],[-101.1643075,19.6883854],[-101.1643302,19.6883905],[-101.1656516,19.6886851],[-101.1656885,19.6886933],[-101.16674,19.6889042],[-101.1669645,19.6889492],[-101.1671489,19.6889861],[-101.167349,19.6890299],[-101.167714,19.6891097],[-101.1677937,19.6891271],[-101.1678715,19.6891441],[-101.1683611,19.6892511],[-101.1684733,19.6892756],[-101.1691529,19.6894242],[-101.169854,19.6895728],[-101.1710596,19.6898284],[-101.171359,19.6898918],[-101.1720054,19.690019],[-101.1720706,19.6900267],[-101.1721139,19.6900318],[-101.1722484,19.6900668],[-101.1737744,19.6903614],[-101.174817,19.6905856],[-101.1749089,19.6906053],[-101.1754556,19.6907228],[-101.1755239,19.6907375],[-101.1760897,19.6908591],[-101.1773481,19.6906288],[-101.178128,19.690464],[-101.1784808,19.6904358],[-101.179176,19.6905349],[-101.1797172,19.6907136],[-101.1796958,19.6908207],[-101.1796875,19.690862],[-101.1796666,19.6909663],[-101.1796575,19.6910117],[-101.1796458,19.6910705],[-101.1795582,19.6915861],[-101.1795516,19.6916244],[-101.1795451,19.6916628],[-101.1795381,19.6917041],[-101.17952,19.6918104],[-101.1794795,19.6920491],[-101.1794732,19.6920861],[-101.1794661,19.6921276],[-101.1794506,19.6922191],[-101.1794114,19.6924498],[-101.1793968,19.6925357],[-101.1793845,19.6926081],[-101.1793656,19.6927193],[-101.179356,19.6927755],[-101.1793474,19.692826],[-101.1793388,19.6928765],[-101.1793305,19.6929206],[-101.1792982,19.6930927],[-101.1792793,19.6931931],[-101.1792114,19.6935537],[-101.1792056,19.6935865],[-101.1791863,19.6936939],[-101.1791561,19.6938626],[-101.1791366,19.6939709],[-101.1791325,19.6939942],[-101.1791183,19.6940733],[-101.1790945,19.6942061],[-101.1790456,19.694479],[-101.1790169,19.6946391],[-101.1789967,19.6947518],[-101.1799639,19.6949133],[-101.1800985,19.6949358],[-101.1807796,19.6950495],[-101.1807387,19.695286],[-101.1807182,19.6954045],[-101.1807055,19.6954778],[-101.1806977,19.6955225],[-101.1806612,19.6958515],[-101.1806524,19.6959311],[-101.1806327,19.696108],[-101.1806247,19.6961806],[-101.180978,19.696213],[-101.181047,19.6962194],[-101.1811161,19.6962257],[-101.1811709,19.6962307],[-101.1814329,19.6962548],[-101.1815551,19.696266],[-101.1823402,19.6963382],[-101.1824625,19.6963494],[-101.1824547,19.6976496],[-101.1824545,19.6976813],[-101.1824543,19.6977261],[-101.1824535,19.6978479],[-101.1824528,19.6979698],[-101.1824518,19.6981318],[-101.1824509,19.6982852],[-101.1823966,19.6986629],[-101.1823823,19.6987619],[-101.1823644,19.6988869],[-101.182342,19.699042],[-101.182267,19.6995633],[-101.1822552,19.6996454],[-101.1822359,19.6997744],[-101.1827326,19.6998008],[-101.1828498,19.6998071],[-101.1830848,19.6998196],[-101.1831261,19.7006248],[-101.1831313,19.7007103],[-101.1831362,19.7007913],[-101.1831387,19.7008325],[-101.1831491,19.7010045],[-101.1832117,19.7020365],[-101.1832155,19.7020994],[-101.1835964,19.702078],[-101.1836856,19.702073],[-101.1838962,19.7020612],[-101.1844825,19.7020302],[-101.1848204,19.702015],[-101.1850028,19.7020067],[-101.1853902,19.7019893],[-101.185866,19.7019023],[-101.1860332,19.7018867],[-101.1865495,19.7018855],[-101.1871354,19.7019108],[-101.1873015,19.701918],[-101.1873528,19.7019202],[-101.1874041,19.7019224],[-101.1876364,19.7019325],[-101.1878434,19.7019414],[-101.1879414,19.7019537],[-101.1879903,19.7019598],[-101.1880393,19.7019659],[-101.1880598,19.7019685],[-101.1881486,19.7019796],[-101.1882352,19.7019904],[-101.1883037,19.7019926],[-101.1883574,19.7019943],[-101.1883911,19.7019953],[-101.188411,19.701996],[-101.1884666,19.7019977],[-101.1884943,19.7019986],[-101.1885183,19.7019994],[-101.1885748,19.7020011],[-101.1886312,19.7020029],[-101.1886877,19.7020047],[-101.1887441,19.7020065],[-101.1887984,19.7020082],[-101.1887786,19.7027576],[-101.1887758,19.7028635],[-101.1887755,19.7028751],[-101.1887725,19.7029875],[-101.1887688,19.7031274],[-101.1887674,19.7031797],[-101.188765,19.703271],[-101.1887588,19.703507],[-101.1887508,19.7037717],[-101.188745,19.7039679],[-101.188743,19.7040326],[-101.1887418,19.7040747],[-101.1887312,19.7044287],[-101.1887341,19.7046476],[-101.1888518,19.7046525],[-101.1889556,19.7046561],[-101.1890053,19.7046578],[-101.1890758,19.7046603],[-101.189577,19.7046776],[-101.1897423,19.7046834],[-101.189993,19.7046931],[-101.190103,19.7046974],[-101.1903134,19.7047056],[-101.1903367,19.7047065],[-101.1904797,19.7047121],[-101.1906379,19.7047158],[-101.1907342,19.7047181],[-101.1913589,19.7047328],[-101.1913741,19.7047331],[-101.1915257,19.7047367],[-101.1916174,19.704738],[-101.191717,19.7047395],[-101.1918026,19.7047407],[-101.1918369,19.7047412],[-101.1918594,19.7047415],[-101.1919768,19.7047432],[-101.1924279,19.7047497],[-101.1933323,19.7047661],[-101.1934587,19.70477],[-101.1939195,19.7047841],[-101.1939235,19.7047842],[-101.1940625,19.7047884],[-101.1942288,19.7047935],[-101.1943784,19.7047951],[-101.1945631,19.7047971],[-101.1947216,19.7047988],[-101.1948669,19.7048004],[-101.1950582,19.7048025],[-101.1951207,19.7048032],[-101.1951596,19.7048036],[-101.1952522,19.7048048],[-101.1954756,19.7048075],[-101.1955601,19.7048085],[-101.195896,19.7048075],[-101.1959102,19.7048075],[-101.1959674,19.7048073],[-101.1960195,19.7048071],[-101.1960624,19.7048331],[-101.1967991,19.7048452],[-101.1968377,19.7048459],[-101.1968721,19.7048464],[-101.1970247,19.7048493],[-101.1971773,19.7048522],[-101.1972517,19.7048536],[-101.1974574,19.7048576],[-101.197614,19.7048605],[-101.1978262,19.7048725],[-101.1979432,19.7048791],[-101.1980383,19.7048845],[-101.198278,19.7048987],[-101.1982574,19.7050634],[-101.1982495,19.7051264],[-101.1982385,19.7052139],[-101.1982243,19.7053277],[-101.1981883,19.705615],[-101.1981758,19.7058001],[-101.1981704,19.7058802],[-101.1981644,19.7059296],[-101.1981583,19.7059789],[-101.1981509,19.70604],[-101.1981463,19.7060776],[-101.1981349,19.7061705],[-101.1981221,19.7062751],[-101.1981035,19.706453],[-101.1980969,19.7065157],[-101.1980803,19.7068238],[-101.1980831,19.7069822],[-101.1979632,19.7070979],[-101.1979546,19.7071835],[-101.1979461,19.7072692],[-101.1979392,19.7073789],[-101.1979301,19.7074747],[-101.1979232,19.7075379],[-101.1979109,19.7076492],[-101.1978848,19.707887],[-101.1978798,19.7079391],[-101.1978698,19.7080429],[-101.1978625,19.7081193],[-101.1978538,19.7082102],[-101.1978402,19.7083516],[-101.1978318,19.7084396],[-101.1978274,19.708485],[-101.1978228,19.7085335],[-101.1978172,19.7085917],[-101.1978151,19.7086131],[-101.1978113,19.7086534],[-101.197809,19.708677],[-101.1977788,19.7089923],[-101.1977699,19.7091379],[-101.1977628,19.7092541],[-101.197751,19.7094469],[-101.1977445,19.7095518],[-101.1977249,19.7098732],[-101.1977163,19.7100133],[-101.1977083,19.7101439],[-101.1976349,19.7107733],[-101.1976084,19.7110818],[-101.1975975,19.7112078],[-101.1975955,19.7112318],[-101.1975901,19.7112943],[-101.1975836,19.7113701],[-101.1975794,19.7114185],[-101.197575,19.7114701],[-101.1975676,19.7115562],[-101.1975602,19.7116423],[-101.1975582,19.7116648],[-101.19755,19.7117602],[-101.1975202,19.712107],[-101.1975098,19.7122281],[-101.1975031,19.7123057],[-101.1974661,19.7127364],[-101.1974654,19.7127452],[-101.1974625,19.7127785],[-101.1974573,19.712839],[-101.1974532,19.7128863],[-101.1974521,19.7128994],[-101.1974482,19.7129443],[-101.1974304,19.713152],[-101.1973895,19.7135286],[-101.1974995,19.7135606],[-101.1974909,19.7136431],[-101.1974797,19.7137724],[-101.1974749,19.7138286],[-101.1974513,19.7141019],[-101.1974452,19.7141664],[-101.197437,19.7142536],[-101.1974256,19.7143735],[-101.1974152,19.7144838],[-101.1974113,19.7145245],[-101.1974103,19.7145349],[-101.1973714,19.7149337],[-101.1973295,19.7153773],[-101.1972914,19.715798],[-101.1972533,19.7162168],[-101.1972487,19.7162601],[-101.1972337,19.7163986],[-101.1972119,19.7166006],[-101.1972044,19.7166701],[-101.1972039,19.7166755],[-101.1971501,19.7171163],[-101.1971426,19.7172322],[-101.1971351,19.717348],[-101.1971298,19.7174294],[-101.1971201,19.7175797],[-101.197115,19.7176472],[-101.1971052,19.7177754],[-101.1970877,19.7180042],[-101.1970649,19.7182165],[-101.1970543,19.7183147],[-101.1970421,19.7184287],[-101.1970068,19.7186878],[-101.1969962,19.7187659],[-101.1969458,19.7187286],[-101.1968955,19.7186914],[-101.1963123,19.718317],[-101.1962265,19.7182585],[-101.1960789,19.718158],[-101.1960441,19.7181343],[-101.1959886,19.7180964],[-101.1956093,19.7178381],[-101.1951431,19.717514],[-101.1950754,19.7174689],[-101.1947,19.7172184],[-101.1945015,19.7170989],[-101.1943925,19.7170451],[-101.1943351,19.7181034],[-101.1942934,19.7193625],[-101.194291,19.7194339],[-101.1942901,19.7194617],[-101.1942852,19.7196091],[-101.1942829,19.7196793],[-101.1942708,19.7200447],[-101.194276,19.7201506],[-101.1942785,19.7202079],[-101.1943019,19.7207561],[-101.1943057,19.7208464],[-101.1943114,19.7209805],[-101.194315,19.7210642],[-101.1943538,19.7219743],[-101.1943574,19.7220499],[-101.1943576,19.7220538],[-101.1943642,19.7221951],[-101.1943663,19.7222399],[-101.1943699,19.7223161],[-101.1943727,19.7223745],[-101.1943736,19.7223947],[-101.1943774,19.7224747],[-101.1943846,19.7226261],[-101.1943921,19.7227851],[-101.1943947,19.722841],[-101.1943966,19.7228805],[-101.1944044,19.7230791],[-101.1944056,19.7231756],[-101.1938578,19.723248],[-101.193261,19.7233446],[-101.1933631,19.7233903],[-101.1934002,19.7234074],[-101.1935844,19.7234945],[-101.1940727,19.7237229],[-101.1941764,19.7237673],[-101.1941865,19.7237716],[-101.1942814,19.7238123],[-101.1943896,19.7238586],[-101.1947294,19.7239899],[-101.1949421,19.7240599],[-101.1950506,19.7240891],[-101.1951591,19.7241184],[-101.1952122,19.724132],[-101.1953602,19.7241683],[-101.1956177,19.7242188],[-101.1957286,19.7242351],[-101.1958534,19.7242549],[-101.1960293,19.7242828],[-101.1961813,19.7243069],[-101.196688,19.7243869],[-101.1968346,19.7244078],[-101.196848,19.7244094],[-101.1969907,19.7244268],[-101.1973504,19.724463],[-101.1976098,19.7244778],[-101.1976858,19.7244871],[-101.1983162,19.7245642],[-101.1983206,19.7245647],[-101.198492,19.7245856],[-101.1986044,19.7245994],[-101.198877,19.7246327],[-101.1990688,19.7246561],[-101.1991848,19.7246703],[-101.2005652,19.724839],[-101.200705,19.7248583],[-101.2007924,19.7248704],[-101.2008448,19.7248776],[-101.2008857,19.7248825],[-101.2010086,19.7248972],[-101.2011725,19.7249167],[-101.2015185,19.7249579],[-101.2030368,19.7251453],[-101.2038588,19.7252442],[-101.2039305,19.7252528],[-101.2040498,19.7252672],[-101.2040986,19.725273],[-101.2042898,19.725296],[-101.2043676,19.7253054],[-101.2045314,19.7253251],[-101.2046108,19.7253346],[-101.2050486,19.7253878],[-101.2052989,19.7254182],[-101.2052259,19.7257534],[-101.2052056,19.7258465]],[[-101.2052,19.7258661],[-101.2051515,19.7260344],[-101.2050821,19.7262754],[-101.2050576,19.7263607],[-101.2050091,19.7265292],[-101.2050056,19.7265412],[-101.2049857,19.7266103],[-101.2049531,19.7267236],[-101.2048716,19.7270065],[-101.2048125,19.7272118],[-101.2047609,19.727199],[-101.2045542,19.7271477],[-101.2043386,19.7270942],[-101.2041367,19.7270442],[-101.2039313,19.7269932],[-101.2038958,19.726983],[-101.2038308,19.7269644],[-101.2037376,19.7269376],[-101.2035964,19.7268971],[-101.2034467,19.7268541],[-101.2033105,19.726815],[-101.2031275,19.7267624],[-101.2030383,19.7267368],[-101.2029736,19.7267182],[-101.2029522,19.7268116],[-101.202924,19.7269347],[-101.2028846,19.7271066],[-101.202791,19.727515],[-101.202763,19.727637],[-101.2027379,19.7277229],[-101.2027035,19.7278411],[-101.2025996,19.7281948],[-101.2024993,19.7285354],[-101.2024756,19.7286158],[-101.2024482,19.7287088],[-101.2023904,19.7289048],[-101.2023749,19.7290156],[-101.2023421,19.7292495],[-101.2023485,19.7297118],[-101.2023552,19.7302154],[-101.2019752,19.7301219],[-101.2019004,19.7300975],[-101.2016317,19.7299988],[-101.2014426,19.7299123],[-101.2012116,19.729802],[-101.2010962,19.7297512],[-101.2010643,19.7297398],[-101.2009958,19.7297153],[-101.2005813,19.7296289],[-101.2002356,19.7296074],[-101.2002176,19.7296063],[-101.2001613,19.7296028],[-101.1998186,19.7296024],[-101.199813,19.7296024],[-101.1997724,19.7296023],[-101.1993604,19.7295943],[-101.1993128,19.7295948],[-101.199309,19.7295949],[-101.1990862,19.7295975],[-101.1990812,19.7295976],[-101.1988952,19.7295998],[-101.1988927,19.7295998],[-101.198751,19.7296015],[-101.1987558,19.729614],[-101.1987569,19.7296167],[-101.1988203,19.7297796],[-101.1989987,19.7302384],[-101.1990133,19.7302758],[-101.1990551,19.7303823],[-101.1990588,19.7303917],[-101.1991365,19.7305893],[-101.1991372,19.7305911],[-101.1991734,19.7306834],[-101.1991758,19.7306894],[-101.1992005,19.7307521],[-101.1993104,19.7310336],[-101.1993222,19.7310639],[-101.1993924,19.7312437],[-101.1993935,19.7312464],[-101.1994042,19.7312737],[-101.199435,19.7313775],[-101.1994432,19.7314062],[-101.1994512,19.7314405],[-101.1994619,19.7314866],[-101.1994749,19.7315681],[-101.1994821,19.7316504],[-101.1994836,19.731733],[-101.1994792,19.7318154],[-101.199469,19.7318974],[-101.199453,19.7319784],[-101.1994433,19.7320144],[-101.1994396,19.7320279],[-101.1994314,19.7320581],[-101.1994042,19.7321361],[-101.1993375,19.7323568],[-101.199266,19.7324493],[-101.1992415,19.7325269],[-101.199241,19.7325284],[-101.1992019,19.7326517],[-101.1991204,19.7328899],[-101.1991154,19.7329044],[-101.1991119,19.7329147],[-101.1990408,19.7331366],[-101.1990284,19.733169],[-101.1989479,19.7333786],[-101.1989059,19.7334905],[-101.198904,19.7334955],[-101.1988383,19.7336708],[-101.1986962,19.7340652],[-101.1986933,19.7340732],[-101.1986624,19.734159],[-101.1986338,19.7342692],[-101.1986307,19.7343318],[-101.1986397,19.7344017],[-101.1986532,19.7345059],[-101.1986885,19.734657],[-101.1987409,19.7348575],[-101.1987884,19.7350547],[-101.1987942,19.7350785],[-101.1988186,19.7351801],[-101.1988819,19.7354436],[-101.1989301,19.7356225],[-101.1989331,19.7356337],[-101.1989597,19.7357326],[-101.1990192,19.7359467],[-101.1990668,19.7361844],[-101.1991093,19.7363931],[-101.1991712,19.7368363],[-101.1992207,19.7371045],[-101.1992439,19.7372653],[-101.1992833,19.7376932],[-101.1993119,19.7378194],[-101.1993234,19.7379274],[-101.1993254,19.7379464],[-101.1993452,19.7381334],[-101.1993584,19.7382511],[-101.1994017,19.7385662],[-101.1994252,19.7387213],[-101.1994486,19.73889],[-101.1994506,19.7389039],[-101.1994643,19.7390028],[-101.1994916,19.7391473],[-101.1995559,19.7397788],[-101.1995583,19.7398025],[-101.1995585,19.7398042],[-101.1995648,19.7398665],[-101.1995218,19.7398834],[-101.199331,19.7399583],[-101.1993265,19.7399601],[-101.1991104,19.7400449],[-101.198625,19.7402519],[-101.1981253,19.7404447],[-101.1975637,19.7406636],[-101.1970902,19.7408587],[-101.1968538,19.7409539],[-101.1967716,19.740987],[-101.1957553,19.7413965],[-101.1948146,19.7417374],[-101.1946909,19.7418137],[-101.1945719,19.7418969],[-101.1944696,19.7419802],[-101.1942245,19.7423752],[-101.1938129,19.7431581],[-101.193706,19.7433656],[-101.1935987,19.7435411],[-101.193485,19.7437094],[-101.1934829,19.7437125],[-101.193425,19.7437981],[-101.1932918,19.7440718],[-101.1931443,19.7444096],[-101.192992,19.7447547],[-101.192923,19.7448784],[-101.1928349,19.7450093],[-101.1927485,19.74509],[-101.1926704,19.7451477],[-101.1925603,19.7452164],[-101.1924464,19.7452824],[-101.192202,19.7453638],[-101.1919236,19.7454756],[-101.1918582,19.7454959],[-101.1918216,19.7455106],[-101.1917878,19.7455312],[-101.1917578,19.7455571],[-101.1917325,19.7455875],[-101.1917125,19.7456216],[-101.1916984,19.7456585],[-101.1916905,19.7456973],[-101.191689,19.7457368],[-101.1916941,19.7457761],[-101.1916952,19.7457826],[-101.1917417,19.7468175],[-101.1917433,19.7469219],[-101.1917438,19.7469557],[-101.1917512,19.7474266],[-101.1917583,19.7480953],[-101.1917932,19.7481065],[-101.1918048,19.7481102],[-101.1919068,19.7481429],[-101.1919114,19.7482285],[-101.19192,19.7483859],[-101.1919343,19.7486468],[-101.1919487,19.7489102],[-101.1919623,19.7491596],[-101.1919694,19.7492897],[-101.191978,19.7494482],[-101.1919805,19.7494931],[-101.1919932,19.7497262],[-101.1920028,19.749901],[-101.192013,19.7500881],[-101.1920236,19.7502822],[-101.1920305,19.7504089],[-101.1920398,19.7505801],[-101.192057,19.7508953],[-101.1920686,19.7511063],[-101.192087,19.7514436],[-101.1920946,19.7515832],[-101.1921323,19.7515836],[-101.1923417,19.7515861],[-101.1924659,19.7515876],[-101.1926136,19.7515893],[-101.1927465,19.7515909],[-101.1928643,19.7515923],[-101.1930468,19.7515944],[-101.193115,19.7515952],[-101.1932406,19.7515966],[-101.1933849,19.7515983],[-101.1935137,19.7515999],[-101.1936477,19.7516015],[-101.1937984,19.7516033],[-101.1939756,19.7516052],[-101.19414,19.7516073],[-101.1942112,19.7516082],[-101.194307,19.7516093],[-101.1944682,19.7516111],[-101.1945194,19.7516118],[-101.1945728,19.7516124],[-101.1946355,19.7516132],[-101.1946976,19.7516417],[-101.1947783,19.7516465],[-101.1948488,19.7516507],[-101.1949552,19.751657],[-101.1951113,19.7516663],[-101.1952408,19.7516764],[-101.1954199,19.7516903],[-101.1954999,19.7516966],[-101.1956489,19.7517087],[-101.1958611,19.751726],[-101.1960933,19.7517456],[-101.1963254,19.7517652],[-101.1964787,19.7517768],[-101.1967546,19.7517968],[-101.1970385,19.751818],[-101.1972742,19.7518353],[-101.1974033,19.7518469],[-101.19785,19.7518839],[-101.1981543,19.7519071],[-101.1982663,19.751919],[-101.1984413,19.7519384],[-101.1985652,19.7519479],[-101.1988285,19.751969],[-101.1990334,19.7519858],[-101.1992583,19.7520046],[-101.1994047,19.7520157],[-101.1996726,19.7520342],[-101.1998552,19.7520463],[-101.1999266,19.7520489],[-101.2001678,19.7520603],[-101.2003323,19.7520677],[-101.2003296,19.7521611],[-101.2002913,19.7524326],[-101.2002885,19.7524524],[-101.2002534,19.752701],[-101.2002456,19.7528768],[-101.20024,19.7530129],[-101.2002371,19.7530944],[-101.2010081,19.7532124],[-101.2015649,19.7533203],[-101.2016188,19.7533425],[-101.2016599,19.7533593],[-101.2017183,19.7533833],[-101.2017611,19.7534009],[-101.2018306,19.7534762],[-101.20189,19.7535404],[-101.2019379,19.7535923],[-101.201977,19.7536506],[-101.2021097,19.7538479],[-101.2021435,19.7538982],[-101.202178,19.7539496],[-101.2022382,19.754039],[-101.2023308,19.7541761],[-101.2024455,19.754344],[-101.2025046,19.7544306],[-101.2025845,19.7545474],[-101.2026209,19.7546007],[-101.2026657,19.7546663],[-101.2027249,19.7547547],[-101.2027495,19.7547939],[-101.2027941,19.7548325],[-101.2029065,19.75493],[-101.2030222,19.7550302],[-101.2031969,19.7551816],[-101.2033255,19.7552924],[-101.2034233,19.7553765],[-101.2035936,19.7555227],[-101.2037309,19.7556412],[-101.2037971,19.7556986],[-101.2038372,19.7557334],[-101.2038748,19.7557661],[-101.2039717,19.7558504],[-101.2040508,19.7559192],[-101.2041426,19.755999],[-101.2042286,19.7560738],[-101.2043626,19.756191],[-101.2044993,19.7563131],[-101.204511,19.7563061],[-101.2045363,19.7562897],[-101.2045736,19.7562655],[-101.2045998,19.7562652],[-101.2046622,19.7562645],[-101.2047149,19.7562638],[-101.2047486,19.756286],[-101.204774,19.7563027],[-101.2048093,19.7563259],[-101.2048287,19.7563387],[-101.2048378,19.7563446],[-101.2048575,19.7563576],[-101.2048617,19.7563786],[-101.204868,19.75641],[-101.204876,19.7564495],[-101.2048831,19.7564852],[-101.20489,19.7565197],[-101.2048756,19.756548],[-101.2048556,19.7565871],[-101.2048212,19.7566544],[-101.2048316,19.7566699],[-101.2058377,19.758176],[-101.205839,19.758178],[-101.2062335,19.7587686],[-101.2065757,19.7588342],[-101.2065528,19.7589565],[-101.2064694,19.7594042],[-101.2063996,19.7597815],[-101.206308,19.7602773],[-101.2061245,19.7602409],[-101.2055948,19.7601357],[-101.2056002,19.7600593],[-101.2056045,19.760004],[-101.2050176,19.7599095],[-101.2049749,19.7599027],[-101.2043014,19.7597941],[-101.204299,19.7597937],[-101.2040988,19.7597615],[-101.2040806,19.7597585],[-101.2040601,19.7598032],[-101.2040154,19.7600736],[-101.2039917,19.7602166],[-101.2039531,19.7604499],[-101.2039046,19.7607274],[-101.2038569,19.7609957],[-101.2038685,19.7611014],[-101.203873,19.7611425],[-101.2038726,19.76116],[-101.2038545,19.7612352],[-101.2038449,19.761275],[-101.203836,19.761312],[-101.2038216,19.761373],[-101.2038082,19.7614355],[-101.2037979,19.761483],[-101.2037844,19.7615457],[-101.203775,19.7615889],[-101.2037598,19.7616596],[-101.2037421,19.7617417],[-101.2037204,19.7618421],[-101.2037019,19.7619295],[-101.2036885,19.7620112],[-101.2036575,19.7622003],[-101.2036314,19.7623598],[-101.2036124,19.7624759],[-101.2035962,19.7625749],[-101.203587,19.7626446],[-101.2035711,19.7627915],[-101.2035812,19.7629778],[-101.2036595,19.7631632],[-101.2036884,19.7632141],[-101.2037763,19.7633688],[-101.2038201,19.7633673],[-101.2038517,19.7633714],[-101.2039062,19.7633785],[-101.2040166,19.7633929],[-101.2040847,19.7634017],[-101.2041552,19.7634109],[-101.2043708,19.7634859],[-101.2046122,19.7636084],[-101.2048672,19.7637971],[-101.2051287,19.7639963],[-101.2053019,19.7640987],[-101.2055186,19.764196],[-101.2058013,19.764331],[-101.2059489,19.7644403],[-101.2060275,19.7645321],[-101.2061553,19.7647017],[-101.206198,19.7647918],[-101.2062454,19.7648966],[-101.2062731,19.7650755],[-101.2062952,19.7651617],[-101.2063265,19.7652839],[-101.2064246,19.7655387],[-101.2064639,19.7656407],[-101.2065171,19.7657519],[-101.2066037,19.7659309],[-101.2066605,19.7660179],[-101.2066787,19.7660458],[-101.2067937,19.7662221],[-101.2069122,19.7663347],[-101.2069509,19.7663708],[-101.2069728,19.7663919],[-101.2069975,19.7664157],[-101.2069696,19.7664438],[-101.2069274,19.7664863],[-101.2070917,19.766603],[-101.2071046,19.7666136],[-101.2071109,19.7666191],[-101.2071832,19.7666795],[-101.2072714,19.7674707],[-101.207292,19.7675987],[-101.2073664,19.7677758],[-101.2071231,19.7678911],[-101.2070241,19.7679377],[-101.2069045,19.7677579],[-101.206766,19.7678256],[-101.2064857,19.7679627],[-101.2061823,19.7681061],[-101.2061384,19.7681196],[-101.2060365,19.768151],[-101.2059255,19.7681571],[-101.2056498,19.768318],[-101.2053145,19.7685135],[-101.2052029,19.7683512],[-101.2049902,19.7680419],[-101.2048354,19.7678169],[-101.2047627,19.7676696],[-101.2050029,19.7675089],[-101.2050967,19.7674559],[-101.2054995,19.7672281],[-101.2059446,19.7669764],[-101.2060953,19.7667821],[-101.2063996,19.7663896],[-101.2065845,19.7661512]]]}},{"type":"Feature","properties":{"id":"78_1","routeId":"78","routeName":"Alberca (Metropolis)","direction":"vuelta","directionIndex":2,"color":"#FFC800","casingColor":"#222222","transportType":"combi","name":"Vuelta","geometrySource":"official-kml-explicit-coordinates","matchingEngine":"none"},"geometry":{"type":"MultiLineString","coordinates":[[[-101.2001457,19.7046214],[-101.2001516,19.704185],[-101.2001541,19.7040384],[-101.2001553,19.7039807],[-101.2001616,19.7037256],[-101.200163,19.7036708],[-101.2001665,19.7035302],[-101.2001687,19.7034403],[-101.2001785,19.7030442],[-101.2001792,19.7030185],[-101.2001793,19.7030135],[-101.2002049,19.7021266],[-101.2002069,19.7020794],[-101.200207,19.7020775],[-101.2002071,19.7020759],[-101.2002074,19.7020687],[-101.2002079,19.7020569],[-101.2002375,19.7013782],[-101.2002255,19.7012244],[-101.2002246,19.7012123],[-101.1997594,19.7011902],[-101.1992703,19.701167],[-101.1991649,19.701162],[-101.1990866,19.7011583],[-101.1989724,19.7011505],[-101.1989463,19.7011483],[-101.1987252,19.7011301],[-101.1978376,19.701101],[-101.1977322,19.7010975],[-101.1976496,19.7010948],[-101.1975325,19.7010909],[-101.1968469,19.7010684],[-101.1963397,19.7010518],[-101.1962749,19.7010501],[-101.1962337,19.701049],[-101.1959866,19.7010424],[-101.1951092,19.7010191],[-101.1950746,19.7010185],[-101.1941641,19.7010035],[-101.1938645,19.7009986],[-101.1936848,19.7009956],[-101.1932353,19.7009882],[-101.1927343,19.7009804],[-101.1925965,19.7009782],[-101.1923773,19.7009748],[-101.1923319,19.7009738],[-101.1920302,19.7009671],[-101.1919457,19.700965],[-101.191861,19.7009629],[-101.1916917,19.7009588],[-101.1916304,19.7009572],[-101.191453,19.7009529],[-101.1907656,19.7009359],[-101.190667,19.7009335],[-101.1903845,19.7009266],[-101.1899227,19.7009152],[-101.1897637,19.7009114],[-101.1891243,19.7008963],[-101.1887603,19.7008877],[-101.188581,19.7008835],[-101.1879224,19.7008679],[-101.1877938,19.7008604],[-101.1870471,19.7008166],[-101.1869887,19.7008131],[-101.1869268,19.7008095],[-101.1868736,19.7008064],[-101.1867399,19.7007986],[-101.1864524,19.7007847],[-101.1860253,19.7007641],[-101.1858934,19.7007577],[-101.1858518,19.7007557],[-101.1852439,19.7007296],[-101.1851235,19.7007244],[-101.1845516,19.7006999],[-101.1845334,19.7006989],[-101.1845112,19.6998975],[-101.1844371,19.6989808],[-101.1844149,19.6984577],[-101.1844247,19.6983575],[-101.1837507,19.698329],[-101.1837014,19.6983269],[-101.1828746,19.6982887],[-101.1824509,19.6982855],[-101.1823966,19.6986629],[-101.1823823,19.6987619],[-101.1823644,19.6988869],[-101.182342,19.699042],[-101.182267,19.6995633],[-101.1822552,19.6996454],[-101.1822359,19.6997744],[-101.1827326,19.6998008],[-101.1828498,19.6998071],[-101.1830848,19.6998196],[-101.1831261,19.7006248],[-101.1826208,19.7005772],[-101.1825922,19.7005745],[-101.1825495,19.7005705],[-101.1824661,19.7005626],[-101.1821155,19.7005296],[-101.1820566,19.7005259],[-101.181994,19.7005219],[-101.1816788,19.7005019],[-101.1817826,19.6997777],[-101.1818563,19.6996334],[-101.1819329,19.6991965],[-101.1819591,19.6990472],[-101.181979,19.6989336],[-101.1819852,19.6988978],[-101.1820413,19.6985779],[-101.1820517,19.6985184],[-101.1820788,19.6983642],[-101.1820907,19.6982828],[-101.1821287,19.6980237],[-101.1821405,19.6979435],[-101.1823098,19.6967902],[-101.1816782,19.6966806],[-101.1816008,19.6966672],[-101.1815819,19.6966639],[-101.1815322,19.6966553],[-101.1808246,19.6965325],[-101.1807232,19.6965149],[-101.180536,19.6964824],[-101.1801963,19.6964235],[-101.1801446,19.6964145],[-101.1799141,19.6963745],[-101.1798283,19.6963597],[-101.1797495,19.696346],[-101.1795974,19.6963196],[-101.1795399,19.6963096],[-101.1794456,19.6962933],[-101.1793186,19.6962717],[-101.1792804,19.6962653],[-101.1791929,19.6962504],[-101.1787183,19.69617],[-101.1787607,19.6959518],[-101.1788135,19.6956809],[-101.178828,19.695606],[-101.17885,19.6954932],[-101.1788657,19.6954125],[-101.1789253,19.6951063],[-101.1789754,19.6948575],[-101.1789879,19.6947954],[-101.1789967,19.6947518],[-101.1790169,19.6946391],[-101.1790456,19.694479],[-101.1790945,19.6942061],[-101.1791183,19.6940733],[-101.1791325,19.6939942],[-101.1791366,19.6939709],[-101.1791561,19.6938626],[-101.1791863,19.6936939],[-101.1792056,19.6935865],[-101.1792114,19.6935537],[-101.1792793,19.6931931],[-101.1792982,19.6930927],[-101.1793305,19.6929206],[-101.1793474,19.692826],[-101.179356,19.6927755],[-101.1793656,19.6927193],[-101.1793721,19.6926805],[-101.1793845,19.6926081],[-101.1794033,19.6924973],[-101.1794114,19.6924498],[-101.1794506,19.6922191],[-101.1794661,19.6921276],[-101.1794732,19.6920861],[-101.1794795,19.6920491],[-101.17952,19.6918104],[-101.1795381,19.6917041],[-101.1795451,19.6916628],[-101.1795516,19.6916244],[-101.1795582,19.6915861],[-101.1796458,19.6910705],[-101.1796575,19.6910117],[-101.1796666,19.6909663],[-101.1796875,19.690862],[-101.1784132,19.6906087],[-101.1776358,19.6907758],[-101.1774474,19.6908201],[-101.177202,19.6908779],[-101.1767681,19.6909799],[-101.1760206,19.691118],[-101.1756943,19.6910575],[-101.1749206,19.6909306],[-101.1736148,19.6906454],[-101.1721944,19.6903894],[-101.172132,19.690379],[-101.1720358,19.6903624],[-101.1719455,19.6903299],[-101.1718101,19.6903017],[-101.1716866,19.6902759],[-101.1715864,19.690255],[-101.1714277,19.6902219],[-101.1713346,19.6902024],[-101.1712415,19.690183],[-101.1697805,19.6898665],[-101.1697172,19.6898522],[-101.1695911,19.6898238],[-101.169425,19.6897864],[-101.1690219,19.6896956],[-101.1684076,19.6895572],[-101.1682053,19.6895132],[-101.1677959,19.6894243],[-101.1658433,19.6890001],[-101.165649,19.6889578],[-101.1656252,19.6889526],[-101.1653565,19.6888937],[-101.1648045,19.6887727],[-101.1646914,19.6887479],[-101.1646477,19.6887383],[-101.1645529,19.6887175],[-101.1643475,19.6886725],[-101.1642589,19.6886531],[-101.1642372,19.6886486],[-101.1642261,19.6886463],[-101.1636936,19.688537],[-101.1634438,19.6884894],[-101.1630107,19.6884323],[-101.1620142,19.6883238],[-101.161544,19.6882852],[-101.1614236,19.6882753],[-101.1610023,19.6882203],[-101.1609514,19.6882151],[-101.1609255,19.6882125],[-101.1608038,19.6882],[-101.1606294,19.6881821],[-101.1605278,19.6881717],[-101.1603615,19.688155],[-101.1600302,19.6881082],[-101.1598852,19.6880885],[-101.1597017,19.6880635],[-101.1596238,19.6880529],[-101.1595181,19.6880385],[-101.1590618,19.68797],[-101.1589673,19.6879574],[-101.1589491,19.687955],[-101.1588574,19.6879434],[-101.1585259,19.687911],[-101.1584582,19.6879044],[-101.15838,19.6878967],[-101.1582667,19.6878856],[-101.1582586,19.6878848],[-101.1582128,19.6878803],[-101.1582024,19.6878793],[-101.1581199,19.6878712],[-101.1580334,19.6878627],[-101.1579444,19.687854],[-101.157845,19.6878444],[-101.1577613,19.6878362],[-101.1576746,19.6878269],[-101.1576066,19.6878196],[-101.1572227,19.6877783],[-101.1571487,19.6877703],[-101.1571115,19.6877663],[-101.1569762,19.6877517],[-101.1568389,19.6877369],[-101.1562617,19.6876748],[-101.1561691,19.6876648],[-101.1559986,19.6876465],[-101.1558794,19.6876337],[-101.1554993,19.6875927],[-101.155285,19.6875667],[-101.1552254,19.6875594],[-101.1551789,19.6875538],[-101.1549979,19.6875318],[-101.154912,19.6875214],[-101.1547782,19.6875051],[-101.1547312,19.6874994],[-101.154627,19.6874867],[-101.154529,19.6874748],[-101.154377,19.687462],[-101.1543256,19.6874576],[-101.1537359,19.6874078],[-101.1536528,19.6874226],[-101.1535345,19.6874437],[-101.1533598,19.6875148],[-101.1533287,19.6875274],[-101.1530884,19.6876641],[-101.152904,19.6878433],[-101.1528517,19.6878941],[-101.1528243,19.6879206],[-101.1526969,19.6880486],[-101.1526364,19.6881093],[-101.1525363,19.6882098],[-101.1524838,19.6882625],[-101.1524661,19.6882802],[-101.1521582,19.6885894],[-101.1521148,19.6886329],[-101.152009,19.6887431],[-101.1519039,19.6888525],[-101.1514593,19.6893152],[-101.1514245,19.6893515],[-101.1513896,19.6893878],[-101.1513712,19.689407],[-101.1512445,19.6895388],[-101.1512058,19.6895792],[-101.1511742,19.689612],[-101.151124,19.6896902],[-101.1509888,19.689901],[-101.150975,19.6899225],[-101.1509316,19.6899902],[-101.15083,19.6901486],[-101.1507994,19.6902021],[-101.1506724,19.6905787],[-101.1506355,19.6906787],[-101.1505967,19.6907838],[-101.1504831,19.691092],[-101.1504094,19.6912916],[-101.1503426,19.691484],[-101.1503219,19.6915436],[-101.1502946,19.6916223],[-101.150283,19.6916558],[-101.1502345,19.6917956],[-101.1501651,19.6919955],[-101.1501506,19.6920372],[-101.1501362,19.6920788],[-101.150122,19.6921195],[-101.1501021,19.692177],[-101.1500596,19.6922995],[-101.1500185,19.6924178],[-101.1499338,19.6926618],[-101.1499047,19.6927457],[-101.1498432,19.692963],[-101.1498084,19.6930967],[-101.1497737,19.6932304],[-101.1497528,19.693311],[-101.1497351,19.6933789],[-101.1497199,19.6934374],[-101.1497175,19.6934468],[-101.1496989,19.6935183],[-101.1496694,19.6936319],[-101.1496583,19.6936747],[-101.1496472,19.6937174],[-101.1496398,19.6937455],[-101.1496152,19.6939354],[-101.1496047,19.6940166],[-101.1495942,19.6940978],[-101.1495849,19.6941692],[-101.1495449,19.6946087],[-101.1495367,19.6946581],[-101.1494801,19.6946576],[-101.149285,19.6946558],[-101.1492065,19.6946583],[-101.1491994,19.6946626],[-101.1491802,19.6946742],[-101.1491735,19.6946782],[-101.1491307,19.6947041],[-101.1490284,19.6946973],[-101.1490148,19.6946963],[-101.1489092,19.6946893],[-101.1489029,19.6946889],[-101.1488162,19.6946831],[-101.1487889,19.6946813],[-101.148721,19.6946768],[-101.1486922,19.6946748],[-101.1485928,19.6946682],[-101.1485893,19.694668],[-101.1484661,19.6946598],[-101.1484454,19.6946584],[-101.148333,19.6946503],[-101.1481808,19.6946394],[-101.1480894,19.6946273],[-101.1480779,19.6946258],[-101.1480148,19.6946174],[-101.1479791,19.6946127],[-101.1478754,19.6945911],[-101.1478665,19.6945893],[-101.1477798,19.6945712],[-101.1477506,19.6945651],[-101.1476345,19.6945308],[-101.1475184,19.6944966],[-101.1472382,19.6943887],[-101.1471872,19.694369],[-101.1470996,19.6943253],[-101.1470823,19.6943166],[-101.147012,19.6942815]],[[-101.2001457,19.7046214],[-101.2002455,19.7046266],[-101.2004619,19.7045924],[-101.2001457,19.7046214]],[[-101.2042971,19.7257275],[-101.2035946,19.7256419],[-101.2035192,19.7256327],[-101.2030704,19.725578],[-101.2030101,19.7255706],[-101.2029098,19.7255589],[-101.2018411,19.7254338],[-101.2016331,19.7254095],[-101.2015293,19.7253974],[-101.2014356,19.7253865],[-101.201342,19.7253755],[-101.2010636,19.725343],[-101.2003005,19.7252539],[-101.2000613,19.725226],[-101.2000079,19.7252198],[-101.200005,19.7252195],[-101.1999545,19.7252136],[-101.1998516,19.7252016],[-101.1994506,19.7251549],[-101.1992966,19.7251369],[-101.1980491,19.7249915],[-101.1979527,19.7249786],[-101.1977377,19.7249499],[-101.1972952,19.7248907],[-101.1969948,19.7248553],[-101.1968529,19.7248385],[-101.196533,19.7247877],[-101.196402,19.7247645],[-101.1959708,19.7246881],[-101.1956132,19.7246223],[-101.1954904,19.7245862],[-101.1953194,19.7245372],[-101.1952306,19.7245118],[-101.1951868,19.7244992],[-101.1949253,19.7244243],[-101.1948242,19.7243954],[-101.1947994,19.7243882],[-101.1947849,19.7243833],[-101.1945152,19.7242897],[-101.1941398,19.7241441],[-101.1940209,19.7240926],[-101.193941,19.7240579],[-101.1937273,19.7239652],[-101.1936558,19.7239342],[-101.1935447,19.7238853],[-101.19343,19.7238347],[-101.1933288,19.72379],[-101.1932132,19.7237401],[-101.1930919,19.723688],[-101.1929705,19.7236359],[-101.1930191,19.723549],[-101.1930863,19.7234288],[-101.193159,19.7232989],[-101.1933317,19.7232104],[-101.1938352,19.7231488],[-101.1939244,19.7231378],[-101.1944044,19.7230791],[-101.1943966,19.7228805],[-101.1943947,19.722841],[-101.1943921,19.7227851],[-101.1943846,19.7226261],[-101.1943774,19.7224747],[-101.1943771,19.7224672],[-101.1943754,19.7224329],[-101.1943736,19.7223947],[-101.1943727,19.7223745],[-101.1943699,19.7223161],[-101.1943663,19.7222399],[-101.1943642,19.7221951],[-101.1943576,19.7220538],[-101.1943574,19.7220499],[-101.1943538,19.7219743],[-101.194315,19.7210642],[-101.1943114,19.7209805],[-101.1943086,19.7209135],[-101.1943037,19.7207996],[-101.1943019,19.7207561],[-101.1942785,19.7202079],[-101.194276,19.7201506],[-101.1942708,19.7200447],[-101.1942829,19.7196793],[-101.1942852,19.7196091],[-101.1942901,19.7194617],[-101.194291,19.7194339],[-101.1942934,19.7193625],[-101.1943325,19.7181827],[-101.1943351,19.7181034],[-101.1943925,19.7170451],[-101.1945015,19.7170989],[-101.1947,19.7172184],[-101.1950754,19.7174689],[-101.1951431,19.717514],[-101.1956093,19.7178381],[-101.1959886,19.7180964],[-101.1960441,19.7181343],[-101.1960789,19.718158],[-101.1962265,19.7182585],[-101.1963123,19.718317],[-101.1968955,19.7186914],[-101.1969552,19.7180305],[-101.1969635,19.717936],[-101.1969945,19.7175588],[-101.1970241,19.7172639],[-101.1970296,19.7172088],[-101.1970363,19.7171419],[-101.1970855,19.7166595],[-101.1970858,19.7166565],[-101.1971195,19.7163038],[-101.1971291,19.7162026],[-101.1971296,19.7161977],[-101.19717,19.7158455],[-101.1971766,19.7157877],[-101.1971772,19.7157827],[-101.1972115,19.7153316],[-101.1972186,19.7152557],[-101.1972339,19.7150932],[-101.1972376,19.7150533],[-101.1972413,19.715014],[-101.197245,19.7149747],[-101.1972495,19.7149261],[-101.1972876,19.7145112],[-101.1973371,19.7140638],[-101.1973558,19.7137519],[-101.1973832,19.7135866],[-101.1973895,19.7135286],[-101.1974304,19.713152],[-101.1974482,19.7129443],[-101.1974521,19.7128994],[-101.1974532,19.7128863],[-101.1974573,19.712839],[-101.1974625,19.7127785],[-101.1974654,19.7127452],[-101.1974661,19.7127364],[-101.1975031,19.7123057],[-101.1975098,19.7122281],[-101.1975202,19.712107],[-101.19755,19.7117602],[-101.1975582,19.7116648],[-101.1975602,19.7116423],[-101.1975676,19.7115562],[-101.197575,19.7114701],[-101.1975767,19.7114495],[-101.1975857,19.7113452],[-101.1975901,19.7112943],[-101.1975905,19.7112889],[-101.1975955,19.7112318],[-101.1975975,19.7112078],[-101.1976084,19.7110818],[-101.1976349,19.7107733],[-101.1977083,19.7101439],[-101.1977163,19.7100133],[-101.1977249,19.7098732],[-101.1977445,19.7095518],[-101.197751,19.7094469],[-101.1977628,19.7092541],[-101.1977699,19.7091379],[-101.1977788,19.7089923],[-101.197809,19.708677],[-101.1978113,19.7086534],[-101.1978151,19.7086131],[-101.1978172,19.7085917],[-101.1978228,19.7085335],[-101.1978274,19.708485],[-101.1978318,19.7084396],[-101.1978402,19.7083516],[-101.1978538,19.7082102],[-101.1978625,19.7081193],[-101.1978698,19.7080429],[-101.1978798,19.7079391],[-101.1978848,19.707887],[-101.1979109,19.7076492],[-101.1979232,19.7075379],[-101.1979301,19.7074747],[-101.1979371,19.7074115],[-101.1979392,19.7073789],[-101.1979461,19.7072692],[-101.1979546,19.7071835],[-101.1979632,19.7070979],[-101.1979282,19.7069994],[-101.1978932,19.7069008],[-101.19785,19.7067551],[-101.1978972,19.7065501],[-101.1979032,19.7065468],[-101.1981002,19.706454],[-101.1980969,19.7065157],[-101.1981035,19.706453],[-101.1988912,19.7062099],[-101.1991289,19.7061377],[-101.1991859,19.7061204],[-101.199242,19.7061034],[-101.199305,19.7060843],[-101.1994486,19.7060407],[-101.1994323,19.7056371],[-101.1995681,19.7056444],[-101.2000911,19.7056021],[-101.2000916,19.7055689],[-101.2000929,19.7054968],[-101.2000954,19.7053529],[-101.2000981,19.7051958],[-101.2001016,19.7049926],[-101.2001031,19.7049087],[-101.2001052,19.7047895],[-101.2001457,19.7046214]],[[-101.2065845,19.7661512],[-101.206551,19.7660908],[-101.2065104,19.7660174],[-101.2064868,19.7659749],[-101.206432,19.765876],[-101.2064209,19.7658543],[-101.2063563,19.7657024],[-101.2062508,19.7654515],[-101.206189,19.7652911],[-101.2061709,19.7652038],[-101.2061166,19.7649402],[-101.2060907,19.7648129],[-101.2060415,19.7647355],[-101.2059765,19.7646357],[-101.2058754,19.7645159],[-101.2057323,19.7643838],[-101.2055265,19.7643034],[-101.2054736,19.7642784],[-101.2051633,19.764128],[-101.2051067,19.7640886],[-101.2049238,19.7639613],[-101.2047373,19.7638315],[-101.2046212,19.7637549],[-101.2044635,19.7636557],[-101.2043787,19.7636024],[-101.204305,19.7635784],[-101.204131,19.7635218],[-101.2040389,19.7634919],[-101.2038265,19.7634658],[-101.2037208,19.7634671],[-101.2036514,19.763468],[-101.2036345,19.7633736],[-101.203471,19.7628979],[-101.2034647,19.7627637],[-101.2034615,19.7626602],[-101.2035056,19.7623748],[-101.2035479,19.7621015],[-101.2035747,19.7619289],[-101.2035994,19.7617708],[-101.203644,19.761544],[-101.203668,19.7614226],[-101.2037125,19.7611964],[-101.2037525,19.7609932],[-101.2037808,19.7608469],[-101.2038056,19.7607045],[-101.2039134,19.7600859],[-101.2039735,19.7597413],[-101.2040062,19.7596815],[-101.2040837,19.7592275],[-101.2040852,19.7592188],[-101.2041043,19.7591067],[-101.2045311,19.756731],[-101.204497,19.7567061],[-101.2044861,19.7566982],[-101.204429,19.756651],[-101.2043825,19.7565703],[-101.2043815,19.7564986],[-101.2043901,19.7564775],[-101.2044038,19.7564439],[-101.204419,19.7564067],[-101.2043537,19.7563384],[-101.2042694,19.7562654],[-101.2041075,19.7561263],[-101.2040297,19.7560595],[-101.2039456,19.7559872],[-101.2038029,19.7558646],[-101.2036568,19.7557392],[-101.203516,19.7556182],[-101.2032612,19.7554009],[-101.2030734,19.7552428],[-101.2028954,19.7550931],[-101.202802,19.7550146],[-101.2026491,19.7548859],[-101.2026272,19.7548562],[-101.2024446,19.7546082],[-101.2023555,19.7544873],[-101.2022683,19.7543567],[-101.202196,19.7542476],[-101.2020924,19.7540911],[-101.2019446,19.7538676],[-101.2018201,19.7536793],[-101.2017373,19.7535542],[-101.2015945,19.7534412],[-101.2013158,19.7533923],[-101.2011497,19.7533649],[-101.2010631,19.7533507],[-101.2008349,19.7533131],[-101.2005989,19.7532742],[-101.2005319,19.7532631],[-101.2002651,19.7532242],[-101.2001211,19.7532031],[-101.2001328,19.7530869],[-101.2001681,19.7527373],[-101.2002041,19.7523806],[-101.2002307,19.7521165],[-101.2001272,19.7521077],[-101.1999824,19.7520953],[-101.1998506,19.752084],[-101.1996579,19.7520675],[-101.1995055,19.7520545],[-101.1994469,19.7520501],[-101.1992449,19.7520384],[-101.1991304,19.752031],[-101.199071,19.7520262],[-101.1989134,19.7520125],[-101.1987361,19.7519972],[-101.1986125,19.7519881],[-101.1984301,19.7519751],[-101.1982752,19.7519634],[-101.1980646,19.7519473],[-101.1978912,19.7519335],[-101.1976684,19.7519158],[-101.1975333,19.7519049],[-101.1972996,19.751886],[-101.1971484,19.7518738],[-101.1969366,19.7518564],[-101.1967511,19.7518407],[-101.1966956,19.7518358],[-101.1965979,19.7518268],[-101.1964484,19.7518128],[-101.1963341,19.7518041],[-101.1962745,19.7517996],[-101.196117,19.7517875],[-101.1959096,19.7517713],[-101.1956384,19.75175],[-101.1954055,19.7517317],[-101.1951373,19.7517103],[-101.1949741,19.7516973],[-101.1949077,19.7516921],[-101.1946974,19.7516753],[-101.1945815,19.7516747],[-101.1944058,19.7516718],[-101.1943285,19.7516703],[-101.1942095,19.751668],[-101.1939461,19.7516649],[-101.1937432,19.7516632],[-101.1935463,19.7516614],[-101.1933168,19.7516583],[-101.1930177,19.7516541],[-101.1926418,19.7516482],[-101.1923354,19.751644],[-101.1920482,19.7516414],[-101.1919793,19.7506231],[-101.1919651,19.7504134],[-101.1919478,19.7500775],[-101.1919343,19.7498138],[-101.1919143,19.7494227],[-101.1918948,19.7490415],[-101.1918814,19.7487809],[-101.191878,19.7487149],[-101.1918662,19.748484],[-101.1918549,19.7482641],[-101.1918048,19.7481102],[-101.1917583,19.7480953],[-101.1917512,19.7474266],[-101.1917459,19.7470897],[-101.1917458,19.7470835],[-101.1917438,19.7469557],[-101.1917433,19.7469219],[-101.1917417,19.7468175],[-101.1916952,19.7457826],[-101.1916941,19.7457761],[-101.191689,19.7457368],[-101.1916905,19.7456973],[-101.1916984,19.7456585],[-101.1917125,19.7456216],[-101.1917325,19.7455875],[-101.1917578,19.7455571],[-101.1917878,19.7455312],[-101.1918216,19.7455106],[-101.1918582,19.7454959],[-101.1919236,19.7454756],[-101.192202,19.7453638],[-101.1924464,19.7452824],[-101.1925603,19.7452164],[-101.1926704,19.7451477],[-101.1927485,19.74509],[-101.1928349,19.7450093],[-101.192923,19.7448784],[-101.192992,19.7447547],[-101.1931443,19.7444096],[-101.1932918,19.7440718],[-101.193425,19.7437981],[-101.1934829,19.7437125],[-101.193485,19.7437094],[-101.1935987,19.7435411],[-101.193706,19.7433656],[-101.1938129,19.7431581],[-101.1942245,19.7423752],[-101.1944696,19.7419802],[-101.1945719,19.7418969],[-101.1946909,19.7418137],[-101.1948146,19.7417374],[-101.1957553,19.7413965],[-101.1964455,19.7411184],[-101.1964746,19.7411067],[-101.1967716,19.740987],[-101.1968538,19.7409539],[-101.1970902,19.7408587],[-101.1975637,19.7406636],[-101.1981253,19.7404447],[-101.198625,19.7402519],[-101.1991104,19.7400449],[-101.1993265,19.7399601],[-101.199331,19.7399583],[-101.1995218,19.7398834],[-101.1995648,19.7398665],[-101.1995585,19.7398042],[-101.1995583,19.7398025],[-101.1995559,19.7397788],[-101.1994916,19.7391473],[-101.1994643,19.7390028],[-101.1994506,19.7389039],[-101.1994486,19.73889],[-101.1994252,19.7387213],[-101.1994017,19.7385662],[-101.1993584,19.7382511],[-101.1993452,19.7381334],[-101.1993254,19.7379464],[-101.1993234,19.7379274],[-101.1993119,19.7378194],[-101.1992833,19.7376932],[-101.1992439,19.7372653],[-101.1992207,19.7371045],[-101.1991712,19.7368363],[-101.1991259,19.7365119],[-101.1991093,19.7363931],[-101.1990668,19.7361844],[-101.1990192,19.7359467],[-101.1989597,19.7357326],[-101.1989331,19.7356337],[-101.1989301,19.7356225],[-101.1988819,19.7354436],[-101.1988186,19.7351801],[-101.1987409,19.7348575],[-101.1986885,19.734657],[-101.1986532,19.7345059],[-101.1986397,19.7344017],[-101.1986337,19.7343556],[-101.1986307,19.7343318],[-101.1986338,19.7342692],[-101.1986624,19.734159],[-101.1986933,19.7340732],[-101.1986962,19.7340652],[-101.1988383,19.7336708],[-101.198904,19.7334955],[-101.1989059,19.7334905],[-101.1989479,19.7333786],[-101.1990284,19.733169],[-101.1990408,19.7331366],[-101.1991119,19.7329147],[-101.1991154,19.7329044],[-101.1991204,19.7328899],[-101.1992019,19.7326517],[-101.199241,19.7325284],[-101.1992415,19.7325269],[-101.199266,19.7324493],[-101.1992603,19.7323447],[-101.1992595,19.7323302],[-101.1993368,19.7320852],[-101.1993583,19.7320083],[-101.1993741,19.73193],[-101.1993843,19.7318507],[-101.1993888,19.7317709],[-101.1993875,19.731691],[-101.1993816,19.7316241],[-101.1993805,19.7316115],[-101.1993678,19.7315326],[-101.1993494,19.7314548],[-101.1993421,19.7314304],[-101.1993362,19.7314106],[-101.1993284,19.731387],[-101.199288,19.7312813],[-101.1991814,19.7310186],[-101.1990425,19.7306531],[-101.1990368,19.7306368],[-101.1989501,19.7303893],[-101.1990551,19.7303823],[-101.1993562,19.7303624],[-101.1993572,19.7302914],[-101.1993611,19.7300305],[-101.1993604,19.7296038],[-101.1993604,19.7295943],[-101.1997724,19.7296023],[-101.199813,19.7296024],[-101.1998186,19.7296024],[-101.1998655,19.7296024],[-101.1998812,19.7296025],[-101.2001613,19.7296028],[-101.2002176,19.7296063],[-101.2002356,19.7296074],[-101.2005813,19.7296289],[-101.2009958,19.7297153],[-101.2010643,19.7297398],[-101.2010962,19.7297512],[-101.2012116,19.729802],[-101.2014426,19.7299123],[-101.2016317,19.7299988],[-101.2019004,19.7300975],[-101.2019752,19.7301219],[-101.2023552,19.7302154],[-101.2023491,19.7297635],[-101.2023453,19.7294807],[-101.2023421,19.7292495],[-101.2023749,19.7290156],[-101.2023904,19.7289048],[-101.202451,19.7286993],[-101.2024642,19.7286543],[-101.2024918,19.7285606],[-101.2025996,19.7281948],[-101.2026625,19.7279809],[-101.2026651,19.7279719],[-101.2027035,19.7278411],[-101.202763,19.727637],[-101.2027949,19.7274977],[-101.202825,19.7273665],[-101.2028846,19.7271066],[-101.2029205,19.7269501],[-101.2029413,19.7268594],[-101.2029736,19.7267182],[-101.203103,19.7267554],[-101.2032299,19.7267918],[-101.2033154,19.7268164],[-101.2035522,19.7268844],[-101.2036468,19.7269115],[-101.2037012,19.7269272],[-101.2038078,19.7269578],[-101.2038399,19.726967],[-101.2039313,19.7269932],[-101.2039463,19.7269487],[-101.2040059,19.7267713],[-101.2040134,19.7267459],[-101.204017,19.7267338],[-101.2040357,19.7266714],[-101.2040529,19.7266139],[-101.2040664,19.7265688],[-101.2040895,19.7264916],[-101.2040961,19.7264697],[-101.2041118,19.7264171],[-101.2042242,19.7260532],[-101.2042689,19.7258826],[-101.204275,19.7258592],[-101.2042944,19.7257418],[-101.2042971,19.7257275]]]}}]}
