{"type":"FeatureCollection","features":[{"type":"Feature","properties":{"id":"79_0","routeId":"79","routeName":"Alberca Gertrudis","direction":"ida","directionIndex":1,"color":"#FFC800","casingColor":"#222222","transportType":"combi","name":"Ida","publicationSource":"full-rebuild-kml-pdf-valhalla","reviewedCorrection":"south-carriageway-red-reference","reviewedRedCorridorApplied":true},"geometry":{"type":"MultiLineString","coordinates":[[[-101.217967,19.751955],[-101.217899,19.751921],[-101.217779,19.75186],[-101.217345,19.751632],[-101.217003,19.751466],[-101.216596,19.751275],[-101.215622,19.750829],[-101.215039,19.750554],[-101.211435,19.748816],[-101.210648,19.748203],[-101.21069,19.748129],[-101.211771,19.746231],[-101.212013,19.74581],[-101.212778,19.746155],[-101.212887,19.746074],[-101.213044,19.745733],[-101.213201,19.745414],[-101.213311,19.745511],[-101.213369,19.745534],[-101.213407,19.745528],[-101.213825,19.745045],[-101.214269,19.74447],[-101.214552,19.744074],[-101.215245,19.744001],[-101.21591,19.743927],[-101.216422,19.743848],[-101.21632,19.74326],[-101.215454,19.743187],[-101.215164,19.743162],[-101.215084,19.743157],[-101.214726,19.743134],[-101.214235,19.743099],[-101.213701,19.743076],[-101.211857,19.742946],[-101.211462,19.74289],[-101.210815,19.742741],[-101.210089,19.742532],[-101.209443,19.742345],[-101.20906,19.742199],[-101.208498,19.742029],[-101.207834,19.741886],[-101.207632,19.741798],[-101.206436,19.741136],[-101.206004,19.740935],[-101.204294,19.740101],[-101.203995,19.740028],[-101.203802,19.740005],[-101.20368,19.73999],[-101.203359,19.739971],[-101.200588,19.739652],[-101.20034,19.739633],[-101.200094,19.739696],[-101.19959,19.739876],[-101.199582,19.739787],[-101.199576,19.739708],[-101.199574,19.739686],[-101.199561,19.739563],[-101.199486,19.739156],[-101.199461,19.73901],[-101.199418,19.738699],[-101.199397,19.738565],[-101.199348,19.73825],[-101.19933,19.738122],[-101.199289,19.737808],[-101.199265,19.737693],[-101.199223,19.737249],[-101.199202,19.737067],[-101.199171,19.736817],[-101.199113,19.736377],[-101.19907,19.736198],[-101.199009,19.735954],[-101.198989,19.735892],[-101.198933,19.735721],[-101.198921,19.735668],[-101.198869,19.735441],[-101.198815,19.735203],[-101.198742,19.734881],[-101.198689,19.734658],[-101.198644,19.734493],[-101.198617,19.734367],[-101.198636,19.734261],[-101.198679,19.734116],[-101.198761,19.733908],[-101.19885,19.733684],[-101.198889,19.733573],[-101.199011,19.733214],[-101.199037,19.733147],[-101.19918,19.73268],[-101.199226,19.732536],[-101.199288,19.73246],[-101.199364,19.732234],[-101.199465,19.731923],[-101.199498,19.731664],[-101.199466,19.731431],[-101.199354,19.73112],[-101.199224,19.730768],[-101.19908,19.730368],[-101.199054,19.730306],[-101.198926,19.730012],[-101.198783,19.729644],[-101.199371,19.729632],[-101.19975,19.729629],[-101.200149,19.729632],[-101.200579,19.729633],[-101.200973,19.729755],[-101.201505,19.729974],[-101.201931,19.730127],[-101.202209,19.7302],[-101.202362,19.730226],[-101.202352,19.729265],[-101.202362,19.729052],[-101.202403,19.72891],[-101.202496,19.728591],[-101.202615,19.728227],[-101.202713,19.727849],[-101.202817,19.727481],[-101.202901,19.72712],[-101.203006,19.726751],[-101.203301,19.726831],[-101.203949,19.726999],[-101.204007,19.726797],[-101.204102,19.726462],[-101.204215,19.726068],[-101.204306,19.725749],[-101.204697,19.725808],[-101.205172,19.725879],[-101.205268,19.725433],[-101.204772,19.72536],[-101.204582,19.725332],[-101.203666,19.725223],[-101.201709,19.725081],[-101.198984,19.724688],[-101.198133,19.72498],[-101.19737,19.72488],[-101.197113,19.724851],[-101.196867,19.724823],[-101.195864,19.724673],[-101.195447,19.724577],[-101.19489,19.724414],[-101.194459,19.72426],[-101.193366,19.723778],[-101.192944,19.723592],[-101.192881,19.723564],[-101.193084,19.723203],[-101.193184,19.723181],[-101.194404,19.723032],[-101.194381,19.72251],[-101.194362,19.722014],[-101.194344,19.721571],[-101.194323,19.721095],[-101.194304,19.720636],[-101.194282,19.720116],[-101.194308,19.719566],[-101.19433,19.719097],[-101.194378,19.7181],[-101.194427,19.717057],[-101.195144,19.717519],[-101.195565,19.717804],[-101.195928,19.71806],[-101.196402,19.718378],[-101.196899,19.718713],[-101.197015,19.718773],[-101.19705,19.718408],[-101.19709,19.717986],[-101.197129,19.717569],[-101.197169,19.717152],[-101.197212,19.71669],[-101.197218,19.716625],[-101.197255,19.716218],[-101.197296,19.715798],[-101.197338,19.715353],[-101.197379,19.714935],[-101.197418,19.71451],[-101.197458,19.714088],[-101.197505,19.713598],[-101.197429,19.713477],[-101.197397,19.713413],[-101.197412,19.713202],[-101.197423,19.713086],[-101.197429,19.713022],[-101.197433,19.712975],[-101.197498,19.712284],[-101.197542,19.711889],[-101.197592,19.7113],[-101.197639,19.710808],[-101.19769,19.710235],[-101.197761,19.709471],[-101.197803,19.709022],[-101.197841,19.708622],[-101.197911,19.707865],[-101.197974,19.707205],[-101.198028,19.707019],[-101.198045,19.706951],[-101.198074,19.70682],[-101.198141,19.70643],[-101.198244,19.705606],[-101.198369,19.705036],[-101.198467,19.704867],[-101.198272,19.704878],[-101.196829,19.704809],[-101.195933,19.704787],[-101.19543,19.704789],[-101.19516,19.704785]],[[-101.19516,19.704785],[-101.195002,19.704783],[-101.1941,19.704766],[-101.194076,19.704765],[-101.19405,19.704764],[-101.193185,19.704741],[-101.192307,19.704729],[-101.191369,19.70471],[-101.190365,19.704688],[-101.189618,19.704649],[-101.188734,19.704625],[-101.188755,19.703778],[-101.188755,19.703711],[-101.188789,19.702891],[-101.188792,19.702828],[-101.188793,19.702801],[-101.188815,19.702015],[-101.188442,19.701984],[-101.187979,19.701955],[-101.187858,19.701946],[-101.18767,19.701933],[-101.186929,19.70188],[-101.186599,19.701871],[-101.186054,19.701904],[-101.185402,19.702001],[-101.184606,19.70202],[-101.183898,19.702048],[-101.183182,19.702081],[-101.183167,19.70172],[-101.183136,19.700626],[-101.183129,19.699817],[-101.182239,19.699753],[-101.182311,19.699301],[-101.182463,19.698263],[-101.182476,19.696757],[-101.182511,19.696367],[-101.181492,19.69629],[-101.180608,19.696202],[-101.180704,19.695664],[-101.180799,19.695121],[-101.180815,19.695029],[-101.180027,19.694904],[-101.179925,19.694885],[-101.179606,19.694836],[-101.179032,19.69475],[-101.179228,19.69354],[-101.179325,19.692914],[-101.17942,19.692372],[-101.179576,19.691401],[-101.179651,19.69101],[-101.179698,19.69077],[-101.179714,19.690671],[-101.179545,19.690634],[-101.178591,19.690424],[-101.178529,19.690411],[-101.178008,19.690495],[-101.177403,19.690594],[-101.176841,19.690686],[-101.176094,19.690807],[-101.175486,19.69069],[-101.174898,19.690577],[-101.174288,19.690449],[-101.17373,19.690333],[-101.172655,19.690121],[-101.172274,19.690046],[-101.172128,19.690016],[-101.17102,19.689798],[-101.170435,19.689683],[-101.169846,19.689567],[-101.169149,19.689412],[-101.168464,19.68926],[-101.167778,19.689108],[-101.167076,19.688952],[-101.16636,19.688793],[-101.165691,19.688645],[-101.165006,19.6884693],[-101.164337,19.6882386],[-101.163722,19.6880415],[-101.162889,19.6878298],[-101.162441,19.6877261],[-101.162147,19.6876573],[-101.161393,19.687546],[-101.160978,19.687374],[-101.160886,19.687342],[-101.16064,19.687351],[-101.160495,19.687434],[-101.16043,19.687469],[-101.160354,19.687487],[-101.160296,19.687496],[-101.160221,19.6875],[-101.160124,19.68749],[-101.159675,19.687437],[-101.159573,19.687424],[-101.159057,19.687363],[-101.158961,19.687351],[-101.158475,19.687293],[-101.158191,19.687259],[-101.158015,19.687238],[-101.157872,19.687222],[-101.157701,19.687201],[-101.157457,19.687136],[-101.157359,19.687123],[-101.157296,19.687114],[-101.157004,19.687092],[-101.156959,19.687088],[-101.156726,19.687061],[-101.156646,19.687054],[-101.1566,19.68705],[-101.156466,19.687035],[-101.156271,19.687011],[-101.156132,19.686997],[-101.156113,19.686995],[-101.156012,19.686987],[-101.154603,19.686814],[-101.15427,19.686778],[-101.154133,19.686766],[-101.154009,19.686755],[-101.153926,19.686748],[-101.153822,19.686747],[-101.153735,19.68675],[-101.153646,19.686758],[-101.153597,19.686763],[-101.153563,19.686766],[-101.153468,19.686784],[-101.153409,19.686803],[-101.153286,19.686842],[-101.153159,19.68689],[-101.153084,19.686925],[-101.153041,19.686947],[-101.152991,19.686977],[-101.15295,19.687006],[-101.152932,19.687013],[-101.152888,19.687056],[-101.152792,19.68714],[-101.152708,19.687214],[-101.152479,19.687461],[-101.152287,19.687657],[-101.152148,19.6878],[-101.152118,19.68783],[-101.151982,19.687979],[-101.151915,19.688046],[-101.1518,19.688177],[-101.151729,19.688255],[-101.151581,19.688417],[-101.151357,19.688639],[-101.151237,19.688758],[-101.151117,19.688875],[-101.151005,19.688986],[-101.150935,19.689079],[-101.150867,19.689168],[-101.150808,19.689256],[-101.150728,19.689374],[-101.150615,19.689593],[-101.150592,19.689639],[-101.150496,19.689878],[-101.150479,19.68992],[-101.150339,19.690282],[-101.150313,19.69035],[-101.150051,19.691105],[-101.149986,19.691304],[-101.149932,19.691497],[-101.149857,19.691698],[-101.149753,19.692024],[-101.149714,19.692146],[-101.149683,19.69225],[-101.149629,19.692428],[-101.149622,19.692458],[-101.149553,19.69267],[-101.149416,19.693108],[-101.149298,19.693513],[-101.149237,19.693626],[-101.149163,19.6937678],[-101.149085,19.6938962],[-101.149018,19.6939744],[-101.148923,19.6940448],[-101.148809,19.6941117],[-101.148713,19.6941492],[-101.148503,19.6941867],[-101.148473,19.6942282],[-101.14814,19.6942592],[-101.147797,19.694275],[-101.147497,19.6942469],[-101.1473,19.6942171],[-101.147166,19.6941766],[-101.147119,19.6941622],[-101.147085,19.6941484]]]}},{"type":"Feature","properties":{"id":"79_1","routeId":"79","routeName":"Alberca Gertrudis","direction":"vuelta","directionIndex":2,"color":"#FFC800","casingColor":"#222222","transportType":"combi","name":"Vuelta","publicationSource":"full-rebuild-kml-pdf-valhalla","reviewedRedCorridorApplied":true,"reviewedCorrection":"south-carriageway-red-reference"},"geometry":{"type":"MultiLineString","coordinates":[[[-101.147006,19.6942944],[-101.147125,19.6943284],[-101.147286,19.6943602],[-101.14769,19.6944285],[-101.148213,19.6944668],[-101.14873,19.6944507],[-101.150633,19.694564],[-101.151659,19.694655],[-101.152502,19.694729],[-101.152782,19.694774],[-101.153014,19.69483],[-101.153528,19.694902],[-101.154977,19.695243],[-101.149548,19.694374],[-101.149596,19.694024],[-101.149619,19.693853],[-101.149634,19.693755],[-101.149662,19.693581],[-101.149687,19.693454],[-101.149742,19.693262],[-101.149897,19.692791],[-101.149976,19.692521],[-101.150041,19.692325],[-101.150052,19.692281],[-101.15009,19.692165],[-101.150127,19.692047],[-101.150201,19.691802],[-101.150327,19.691386],[-101.150508,19.6909],[-101.150638,19.690546],[-101.150655,19.690498],[-101.150803,19.690033],[-101.150831,19.689974],[-101.150855,19.689925],[-101.150939,19.689766],[-101.151022,19.689645],[-101.151104,19.689523],[-101.151489,19.689105],[-101.151636,19.688945],[-101.151848,19.688719],[-101.152199,19.688367],[-101.152389,19.688169],[-101.152665,19.687897],[-101.152887,19.687659],[-101.15313,19.687442],[-101.153182,19.68741],[-101.153402,19.687281],[-101.153592,19.687228],[-101.153618,19.687225],[-101.153864,19.687205],[-101.154047,19.687225],[-101.15431,19.687249],[-101.154589,19.687275],[-101.154609,19.687277],[-101.15487,19.687305],[-101.155189,19.68735],[-101.155633,19.687383],[-101.155736,19.687394],[-101.155962,19.687422],[-101.156392,19.687475],[-101.156518,19.687491],[-101.157383,19.687599],[-101.157514,19.687613],[-101.157647,19.687573],[-101.157754,19.687585],[-101.157804,19.68759],[-101.158024,19.687615],[-101.158756,19.687699],[-101.158987,19.687725],[-101.15909,19.687737],[-101.159544,19.687788],[-101.159661,19.687802],[-101.16023,19.687867],[-101.160367,19.68786],[-101.16049,19.687904],[-101.160956,19.687951],[-101.161448,19.688009],[-101.16363,19.6883936],[-101.163703,19.6884165],[-101.164261,19.6885669],[-101.165617,19.688938],[-101.167024,19.689258],[-101.168393,19.689569],[-101.16978,19.689884],[-101.171238,19.690181],[-101.172051,19.690346],[-101.172197,19.690375],[-101.173072,19.690548],[-101.173655,19.690663],[-101.174235,19.690778],[-101.174825,19.690895],[-101.174942,19.690918],[-101.175394,19.691007],[-101.176015,19.69113],[-101.176682,19.690985],[-101.17723,19.690868],[-101.177798,19.69073],[-101.178343,19.690609],[-101.178443,19.690596],[-101.178596,19.690616],[-101.179284,19.690735],[-101.179549,19.690781],[-101.179698,19.69077],[-101.179651,19.69101],[-101.179576,19.691401],[-101.17942,19.692372],[-101.179325,19.692914],[-101.179228,19.69354],[-101.179032,19.69475],[-101.178851,19.695743],[-101.178806,19.695962],[-101.178762,19.696169],[-101.180548,19.696455],[-101.181438,19.696601],[-101.182382,19.696747],[-101.182088,19.698254],[-101.182054,19.698431],[-101.1818,19.699667],[-101.181732,19.700038],[-101.181648,19.700529],[-101.182126,19.700559],[-101.182239,19.699753],[-101.182311,19.699301],[-101.182463,19.698263],[-101.182928,19.698289],[-101.18318,19.698303],[-101.183711,19.69831],[-101.183766,19.698949],[-101.183815,19.699866],[-101.183859,19.700693],[-101.184568,19.700685],[-101.185349,19.700717],[-101.186424,19.700776],[-101.186489,19.700779],[-101.186913,19.700805],[-101.187821,19.700834],[-101.188513,19.700854],[-101.189794,19.700895],[-101.190418,19.700924],[-101.191458,19.700942],[-101.19237,19.700957],[-101.193264,19.700966],[-101.193539,19.700974],[-101.194192,19.700989],[-101.19514,19.701002],[-101.196019,19.701019],[-101.196853,19.70105],[-101.198738,19.70114],[-101.199585,19.701185],[-101.19981,19.701191],[-101.200197,19.701223],[-101.200241,19.7013],[-101.200193,19.702061],[-101.200143,19.703015],[-101.200142,19.703035],[-101.200145,19.704061],[-101.200137,19.70462],[-101.200111,19.705571],[-101.200118,19.705608],[-101.200132,19.705655],[-101.200192,19.705726],[-101.200277,19.705794],[-101.199998,19.705874],[-101.199399,19.706043],[-101.198141,19.70643],[-101.197946,19.706486],[-101.197935,19.706881],[-101.197943,19.706989],[-101.197948,19.707048],[-101.197974,19.707205],[-101.197911,19.707865],[-101.197841,19.708622],[-101.197803,19.709022],[-101.197761,19.709471],[-101.19769,19.710235],[-101.197639,19.710808],[-101.197592,19.7113],[-101.197542,19.711889],[-101.197498,19.712284],[-101.197433,19.712975],[-101.197429,19.713022],[-101.197423,19.713086],[-101.197412,19.713202],[-101.197397,19.713413],[-101.197429,19.713477],[-101.197379,19.713612],[-101.197337,19.714062],[-101.197299,19.714484],[-101.197259,19.714909],[-101.197217,19.715327],[-101.197177,19.715772],[-101.197135,19.716193],[-101.197089,19.716662],[-101.197048,19.717128],[-101.197009,19.717547],[-101.19697,19.717962],[-101.196929,19.718389],[-101.196899,19.718713],[-101.196402,19.718378],[-101.195928,19.71806],[-101.195565,19.717804],[-101.195144,19.717519],[-101.194427,19.717057],[-101.194378,19.7181],[-101.19433,19.719097],[-101.194308,19.719566],[-101.194282,19.720116],[-101.194304,19.720636],[-101.194323,19.721095],[-101.194344,19.721571],[-101.194362,19.722014],[-101.194381,19.72251],[-101.194404,19.723032],[-101.193184,19.723181],[-101.193084,19.723203],[-101.192881,19.723564],[-101.192944,19.723592],[-101.193366,19.723778],[-101.194459,19.72426],[-101.19489,19.724414],[-101.195447,19.724577],[-101.195864,19.724673],[-101.196867,19.724823],[-101.197113,19.724851],[-101.19737,19.72488],[-101.198133,19.72498],[-101.200208,19.725254],[-101.201139,19.725367],[-101.201324,19.725388],[-101.202556,19.725538],[-101.202616,19.725544],[-101.203629,19.725666],[-101.204294,19.725748]],[[-101.204294,19.725748],[-101.204306,19.725749],[-101.204215,19.726068],[-101.204102,19.726462],[-101.204007,19.726797],[-101.203949,19.726999],[-101.203301,19.726831],[-101.203006,19.726751],[-101.202901,19.72712],[-101.202817,19.727481],[-101.202713,19.727849],[-101.202615,19.728227],[-101.202496,19.728591],[-101.202403,19.72891],[-101.202362,19.729052],[-101.202352,19.729265],[-101.202362,19.730226],[-101.202209,19.7302],[-101.201931,19.730127],[-101.201505,19.729974],[-101.200973,19.729755],[-101.200579,19.729633],[-101.200149,19.729632],[-101.19975,19.729629],[-101.199371,19.729632],[-101.199369,19.730011],[-101.199366,19.73036],[-101.19908,19.730368],[-101.198961,19.730387]],[[-101.198961,19.730387],[-101.199346,19.731418],[-101.199387,19.731677],[-101.199371,19.731928],[-101.199284,19.732203],[-101.199247,19.73233],[-101.199213,19.732449],[-101.199226,19.732536],[-101.19918,19.73268],[-101.199037,19.733147],[-101.199011,19.733214],[-101.198889,19.733573],[-101.19885,19.733684],[-101.198761,19.733908],[-101.198679,19.734116],[-101.198636,19.734261],[-101.198617,19.734367],[-101.198644,19.734493],[-101.198689,19.734658],[-101.198737,19.734858]],[[-101.198737,19.734858],[-101.198742,19.734881],[-101.19881,19.735182]],[[-101.19881,19.735182],[-101.198815,19.735203],[-101.198869,19.735441],[-101.198921,19.735668],[-101.198933,19.735721],[-101.198989,19.735892],[-101.199009,19.735954],[-101.19907,19.736198],[-101.199113,19.736377],[-101.199171,19.736817],[-101.199202,19.737067],[-101.199223,19.737249],[-101.199265,19.737693],[-101.199289,19.737808],[-101.19933,19.738122],[-101.199348,19.73825],[-101.199397,19.738565],[-101.199418,19.738699],[-101.199461,19.73901],[-101.199486,19.739156],[-101.199561,19.739563],[-101.199574,19.739686],[-101.199576,19.739708],[-101.199582,19.739787],[-101.19959,19.739876],[-101.200094,19.739696],[-101.20034,19.739633],[-101.200588,19.739652],[-101.203359,19.739971],[-101.20368,19.73999],[-101.203802,19.740005],[-101.203995,19.740028],[-101.204294,19.740101],[-101.206004,19.740935],[-101.206436,19.741136],[-101.207632,19.741798],[-101.207834,19.741886],[-101.208498,19.742029],[-101.20906,19.742199],[-101.209443,19.742345],[-101.210089,19.742532],[-101.210815,19.742741],[-101.211462,19.74289],[-101.211857,19.742946],[-101.213701,19.743076],[-101.214235,19.743099],[-101.214726,19.743134],[-101.215084,19.743157],[-101.215164,19.743162],[-101.215454,19.743187],[-101.21632,19.74326],[-101.216422,19.743848],[-101.21591,19.743927],[-101.215245,19.744001],[-101.214552,19.744074],[-101.214269,19.74447],[-101.213825,19.745045],[-101.213407,19.745528],[-101.213369,19.745534],[-101.213311,19.745511],[-101.213201,19.745414],[-101.213044,19.745733],[-101.212887,19.746074],[-101.212778,19.746155],[-101.212013,19.74581],[-101.211771,19.746231],[-101.21069,19.748129],[-101.210648,19.748203],[-101.211435,19.748816],[-101.215039,19.750554],[-101.215622,19.750829],[-101.216596,19.751275],[-101.217003,19.751466],[-101.217345,19.751632],[-101.217779,19.75186],[-101.217899,19.751921],[-101.217983,19.751963]]]}}]}
