{"type":"FeatureCollection","features":[{"type":"Feature","properties":{"id":"84_0","routeId":"84","routeName":"Prados Verdes A","direction":"ida","directionIndex":1,"color":"#70A800","casingColor":"#222222","transportType":"combi","name":"Ida","geometrySource":"official-kml-explicit-coordinates","matchingEngine":"none"},"geometry":{"type":"MultiLineString","coordinates":[[[-101.1897615,19.7013254],[-101.1897615,19.7013364],[-101.1896139,19.7013472],[-101.1878153,19.7013276],[-101.1878259,19.7015585],[-101.1878434,19.7019414],[-101.1879414,19.7019537],[-101.1879903,19.7019598],[-101.1880393,19.7019659],[-101.1880598,19.7019685],[-101.1881486,19.7019796],[-101.1883037,19.7019926],[-101.1883574,19.7019943],[-101.1883911,19.7019953],[-101.188411,19.701996],[-101.1884666,19.7019977],[-101.1884943,19.7019986],[-101.1885183,19.7019994],[-101.1885748,19.7020011],[-101.1886312,19.7020029],[-101.1886877,19.7020047],[-101.1887441,19.7020065],[-101.1887984,19.7020082],[-101.1887786,19.7027576],[-101.1887758,19.7028635],[-101.1887755,19.7028751],[-101.1887725,19.7029875],[-101.1887698,19.7030885],[-101.1887688,19.7031274],[-101.1887674,19.7031797],[-101.188765,19.703271],[-101.1887639,19.7033145],[-101.188761,19.7034233],[-101.1887588,19.703507],[-101.1887548,19.7036393],[-101.1887508,19.7037717],[-101.188745,19.7039679],[-101.188743,19.7040326],[-101.1887418,19.7040747],[-101.1887312,19.7044287],[-101.1887341,19.7046476],[-101.1887408,19.7051384],[-101.1894076,19.7051876],[-101.1894052,19.7053432],[-101.1897364,19.70534],[-101.1897628,19.7053397],[-101.1898304,19.7053391],[-101.1898422,19.7053389],[-101.189866,19.7053387],[-101.189937,19.705338],[-101.189961,19.7053378],[-101.1899719,19.7053377],[-101.1900092,19.7053373],[-101.1902556,19.7053349],[-101.190313,19.7053366],[-101.1903204,19.7053368],[-101.1906784,19.7053476],[-101.1907462,19.7053468],[-101.190814,19.7053461],[-101.1908425,19.7053458],[-101.1909078,19.705345],[-101.1910056,19.7053439],[-101.1910137,19.7053438],[-101.1910535,19.7053434],[-101.1911814,19.7053419],[-101.1913491,19.70534],[-101.1913592,19.7054558],[-101.1913539,19.7055717],[-101.1913351,19.7056405],[-101.1913234,19.7056831],[-101.1913135,19.7057192],[-101.1912986,19.705771],[-101.1912149,19.7058813],[-101.1912055,19.7059455],[-101.1911845,19.7059758],[-101.1910884,19.7062021],[-101.1910632,19.7062616],[-101.1910278,19.706345],[-101.1909924,19.7064285],[-101.190963,19.7065163],[-101.1909332,19.7066052],[-101.1909284,19.7066195],[-101.1909273,19.7066227],[-101.1909077,19.7066814],[-101.190878,19.7067699],[-101.1908517,19.7068485],[-101.1908305,19.7069118],[-101.1908115,19.7069687],[-101.1907926,19.707025],[-101.1907896,19.7070341],[-101.1907708,19.7070902],[-101.1907528,19.707144],[-101.1907316,19.7072073],[-101.1907245,19.7072283],[-101.1907198,19.7072423],[-101.1907111,19.7072685],[-101.1906953,19.7073155],[-101.1906927,19.7073232],[-101.1906792,19.7073636],[-101.1906693,19.7073932],[-101.1906597,19.7074219],[-101.1906554,19.7074344],[-101.1906222,19.7075318],[-101.1905648,19.7076618],[-101.1905263,19.7077262],[-101.1904743,19.7078132],[-101.1904223,19.7079003],[-101.1903725,19.7079871],[-101.1903164,19.7080852],[-101.1902837,19.7081404],[-101.1902371,19.7082192],[-101.1901904,19.708298],[-101.1901729,19.7083276],[-101.190102,19.7084475],[-101.1900814,19.7084823],[-101.1899962,19.7086262],[-101.1899715,19.708668],[-101.1899392,19.7087224],[-101.1899009,19.7087871],[-101.1898597,19.7088568],[-101.1898433,19.7088845],[-101.1898057,19.708948],[-101.1897256,19.7090765],[-101.1896187,19.709242],[-101.1895633,19.7093278],[-101.1893624,19.7096388],[-101.1893059,19.7097263],[-101.1892957,19.709742],[-101.1892904,19.7097502],[-101.1892671,19.7097863],[-101.1892595,19.709798],[-101.1892391,19.7098297],[-101.1892133,19.7098695],[-101.1891881,19.7099086],[-101.1891502,19.7099673],[-101.1891231,19.7100093],[-101.1891122,19.710026],[-101.1890971,19.7100494],[-101.189073,19.7100868],[-101.1890489,19.7101241],[-101.1889897,19.7102157],[-101.1888788,19.7103874],[-101.1888517,19.7104293],[-101.1888283,19.7104655],[-101.1888,19.7105304],[-101.1887717,19.7105952],[-101.1887591,19.7106135],[-101.188665,19.7107498],[-101.1886633,19.710754],[-101.1886607,19.7107607],[-101.1886313,19.7108355],[-101.1885951,19.7109083],[-101.1885338,19.7110316],[-101.1884746,19.7111505],[-101.1884724,19.7111549],[-101.1884454,19.7112091],[-101.1884275,19.7112452],[-101.1884162,19.7112679],[-101.1884003,19.7113],[-101.1883826,19.7113354],[-101.1883644,19.7113722],[-101.1883498,19.7114015],[-101.1883338,19.7114301],[-101.1882292,19.7116175],[-101.1882123,19.7117331],[-101.188209,19.7117555],[-101.1881938,19.7118965],[-101.1881929,19.711922],[-101.1881918,19.7119932],[-101.1881943,19.712053],[-101.188201,19.7120967],[-101.1882092,19.7121499],[-101.1882174,19.7122032],[-101.1882247,19.7122505],[-101.188228,19.7122723],[-101.1882316,19.7122956],[-101.1882935,19.7125329],[-101.1882966,19.7125448],[-101.1883816,19.7128671],[-101.1883877,19.7128904],[-101.188433,19.7130404],[-101.1884412,19.7130678],[-101.1884494,19.7130949],[-101.1884564,19.7131181],[-101.188459,19.7131266],[-101.1884764,19.7131845],[-101.1884872,19.7132203],[-101.1885109,19.713299],[-101.1885219,19.7133355],[-101.1889513,19.713209],[-101.1892217,19.7131459],[-101.1893372,19.713119],[-101.1894921,19.7130829],[-101.18992,19.713006],[-101.1902044,19.7130383],[-101.1908247,19.7131332],[-101.1909088,19.713145],[-101.1909784,19.7131543],[-101.1920879,19.7133021],[-101.1923379,19.7133408],[-101.1924549,19.7133589],[-101.1930172,19.713446],[-101.1937384,19.7135985],[-101.1941376,19.7137251],[-101.1942339,19.7138493],[-101.1944996,19.7139058],[-101.1950311,19.7140188],[-101.1955997,19.7141353],[-101.1956637,19.7141485],[-101.196093,19.7142358],[-101.1974113,19.7145245],[-101.1974103,19.7145349],[-101.1973714,19.7149337],[-101.1973637,19.7150152],[-101.1973295,19.7153773],[-101.1972914,19.715798],[-101.1972533,19.7162168],[-101.1972487,19.7162601],[-101.1972337,19.7163986],[-101.1972119,19.7166006],[-101.1972044,19.7166701],[-101.197307,19.7166793],[-101.1976993,19.7167701],[-101.199743,19.717211],[-101.20042,19.7173485],[-101.200501,19.717365],[-101.2008057,19.7174269],[-101.2017674,19.7176223],[-101.2029105,19.7178805],[-101.2030439,19.7179107],[-101.2043204,19.718199],[-101.2044759,19.7182342],[-101.2057794,19.7185228],[-101.2063143,19.7186375],[-101.2063843,19.7186525],[-101.2072283,19.7188336],[-101.2081458,19.7190313],[-101.2089128,19.7191928],[-101.2089736,19.7192056],[-101.2090641,19.7192247],[-101.2092938,19.719264],[-101.210954,19.7196163],[-101.2131964,19.7201216],[-101.2132869,19.7201445],[-101.2135589,19.7202127],[-101.2143639,19.7203939],[-101.214496,19.7205705],[-101.2145642,19.7206618],[-101.2149449,19.7211705],[-101.2153512,19.7217199],[-101.2154346,19.7218301],[-101.2155072,19.7219261],[-101.2160143,19.7225959],[-101.2165658,19.7226942],[-101.2165186,19.7231755],[-101.2170175,19.7232509],[-101.2171461,19.7232759],[-101.2176694,19.7233779],[-101.2183053,19.7235017],[-101.2183761,19.7235155],[-101.2185406,19.7235475],[-101.2186627,19.7235713],[-101.2187109,19.7235807],[-101.2196734,19.7237682],[-101.2197554,19.7239713],[-101.2199242,19.7245045],[-101.220389,19.7259995],[-101.2198431,19.7259393],[-101.2182411,19.7255975],[-101.218501,19.7260573],[-101.2185981,19.7262112],[-101.2186558,19.7263027],[-101.2188106,19.7265481],[-101.2188979,19.7266999],[-101.21894,19.7267732],[-101.2191521,19.7271421],[-101.2200838,19.7272578],[-101.2202955,19.7272806],[-101.2205573,19.7273162],[-101.2208263,19.7273345],[-101.2209279,19.7273293],[-101.2210249,19.7273243],[-101.2211461,19.7273181],[-101.2213585,19.7272858],[-101.2214702,19.7272635],[-101.2215461,19.7272452],[-101.2216857,19.7272121],[-101.221835,19.7271603],[-101.2219893,19.7271067],[-101.2221126,19.7270536],[-101.2221844,19.7270227],[-101.2222359,19.7270006],[-101.2223717,19.7269237],[-101.22245,19.7268766],[-101.2225738,19.7267959],[-101.2226952,19.7266984],[-101.2227999,19.7266103],[-101.2228974,19.7265151],[-101.2230545,19.7263456],[-101.2231421,19.7262348],[-101.2232034,19.7261501],[-101.2234091,19.7258598],[-101.223511,19.725718],[-101.2235619,19.7256471],[-101.2236128,19.7255762],[-101.2238964,19.7251555],[-101.2239954,19.7250032],[-101.2240943,19.7248508],[-101.2241329,19.7249954],[-101.2242016,19.7252524],[-101.2242441,19.7253475],[-101.2242318,19.7253657],[-101.2242063,19.7254062],[-101.2239743,19.7257747],[-101.2239267,19.7258508],[-101.2235661,19.7263797],[-101.2234887,19.7264932],[-101.2233842,19.7266465],[-101.2230968,19.7269549],[-101.222935,19.7270824],[-101.2226428,19.7272718],[-101.2225912,19.7273053],[-101.2225396,19.7273387],[-101.2223506,19.7274612],[-101.2220517,19.7275697],[-101.221749,19.727663],[-101.2214612,19.7277125],[-101.2213579,19.7277244],[-101.2213377,19.7277267],[-101.221188,19.727744],[-101.2209122,19.7277657],[-101.2208554,19.7277677],[-101.2207876,19.7277689],[-101.2204812,19.7277456],[-101.2202242,19.7277123],[-101.2193187,19.7275959],[-101.218969,19.7275517],[-101.2189099,19.7275442],[-101.2178952,19.7274157],[-101.2177947,19.727403],[-101.2177418,19.7273963],[-101.2176688,19.7273871],[-101.2175306,19.7273697],[-101.2172407,19.7273332],[-101.217176,19.727325],[-101.2169579,19.7272976],[-101.2167967,19.7272773],[-101.2157123,19.7271408],[-101.2156218,19.7271294],[-101.2155562,19.7271212],[-101.215447,19.7271074],[-101.2148304,19.7270298],[-101.2146631,19.7270088],[-101.2145498,19.7269945],[-101.2144958,19.7269877],[-101.2144094,19.7269769],[-101.21279,19.7267738],[-101.2121803,19.7267002],[-101.2117685,19.7266505],[-101.2116387,19.7266348],[-101.2113567,19.7266008],[-101.210548,19.7265037],[-101.2101531,19.7264563],[-101.2100392,19.7264426],[-101.2089811,19.7263156],[-101.2089349,19.7263101],[-101.2078092,19.7261749],[-101.2076921,19.7261609],[-101.2076473,19.7264287],[-101.207603,19.7266248],[-101.2075659,19.726787],[-101.2075225,19.7269768],[-101.2074778,19.7271729],[-101.2074517,19.7272869],[-101.207415,19.7274479],[-101.2073715,19.7276383],[-101.207334,19.7278032],[-101.2073003,19.7279567],[-101.2072738,19.7280771],[-101.2072336,19.7282598],[-101.2072025,19.7284013],[-101.2071631,19.7285805],[-101.2071108,19.7288185],[-101.2070647,19.7290282],[-101.2070218,19.7292233],[-101.2069788,19.7294191],[-101.2069583,19.7295154],[-101.2069314,19.7296648],[-101.2069076,19.7297897],[-101.2068457,19.7298524],[-101.2067896,19.7299039],[-101.206665,19.7305274],[-101.2062502,19.7304594],[-101.2062174,19.7304541],[-101.2061725,19.7306252],[-101.2061463,19.7307251],[-101.2061374,19.7307598],[-101.2061135,19.7308712],[-101.2061012,19.7309286],[-101.206072,19.7310647],[-101.2060357,19.7312339],[-101.2060013,19.7313941],[-101.2059733,19.7315246],[-101.2059284,19.7317339],[-101.2058844,19.731934],[-101.2058323,19.7321686],[-101.2058253,19.7322004],[-101.205802,19.7323051],[-101.205795,19.7323393],[-101.2057858,19.7323956],[-101.2057593,19.7325582],[-101.2057393,19.7326806],[-101.2057251,19.732768],[-101.2057103,19.732859],[-101.2056917,19.7329727],[-101.2056726,19.7330903],[-101.2056544,19.7332014],[-101.2056365,19.7333114],[-101.2056209,19.7334073],[-101.2056079,19.7334869],[-101.2056121,19.7335518],[-101.2056179,19.7336394]]]}},{"type":"Feature","properties":{"id":"84_1","routeId":"84","routeName":"Prados Verdes A","direction":"vuelta","directionIndex":2,"color":"#70A800","casingColor":"#222222","transportType":"combi","name":"Vuelta","geometrySource":"official-kml-explicit-coordinates","matchingEngine":"none"},"geometry":{"type":"MultiLineString","coordinates":[[[-101.2062173,19.73597],[-101.2061871,19.7357544],[-101.2061538,19.7356092],[-101.2061276,19.7354665],[-101.2060801,19.735357],[-101.2060496,19.735331],[-101.2060202,19.7352192],[-101.2059878,19.735096],[-101.2059533,19.7349646],[-101.2059238,19.7348524],[-101.2058968,19.7347499],[-101.2058537,19.734586],[-101.2058277,19.7344871],[-101.2057801,19.7343064],[-101.205737,19.7341426],[-101.2056961,19.7339894],[-101.2056755,19.7339265],[-101.2056271,19.7337806],[-101.2056192,19.73366],[-101.205615,19.7335956],[-101.2056079,19.7334869],[-101.2056278,19.7333647],[-101.205644,19.7332653],[-101.205661,19.7331614],[-101.205686,19.7330078],[-101.2056988,19.7329294],[-101.2057316,19.7327281],[-101.2057693,19.7324965],[-101.2057964,19.7323303],[-101.2058303,19.7321775],[-101.2058475,19.7321],[-101.2058555,19.732064],[-101.2058579,19.7320531],[-101.2058669,19.7320125],[-101.2058811,19.7319481],[-101.2058989,19.7318686],[-101.2059176,19.731784],[-101.2059483,19.731641],[-101.2059697,19.7315413],[-101.2059873,19.7314593],[-101.2060127,19.7313409],[-101.2060257,19.7312807],[-101.2060416,19.7312065],[-101.2060605,19.7311184],[-101.2060733,19.7310589],[-101.2060895,19.7309831],[-101.2060983,19.7309421],[-101.2061359,19.730767],[-101.2061704,19.7306333],[-101.2062174,19.7304541],[-101.2062334,19.7303793],[-101.2062868,19.7301313],[-101.2063319,19.7299217],[-101.2063518,19.7298291],[-101.2065126,19.7298471],[-101.2066788,19.7298658],[-101.2066901,19.7298671],[-101.2068145,19.729881],[-101.2068457,19.7298524],[-101.2068764,19.7298213],[-101.2069093,19.729788],[-101.2069176,19.7297374],[-101.2069314,19.7296648],[-101.2069583,19.7295154],[-101.2069936,19.7293517],[-101.2070333,19.7291713],[-101.207085,19.728936],[-101.2071558,19.728614],[-101.2072048,19.7283911],[-101.2072498,19.7281863],[-101.2073092,19.7279158],[-101.2073591,19.7276923],[-101.2073664,19.7276605],[-101.2074517,19.7272869],[-101.2074837,19.7271468],[-101.2075266,19.7269592],[-101.2075659,19.726787],[-101.2076089,19.7265983],[-101.2076473,19.7264287],[-101.2076621,19.7263402],[-101.2076768,19.7262523],[-101.2076921,19.7261609],[-101.207609,19.7261488],[-101.207495,19.7261322],[-101.2074744,19.7261292],[-101.2073756,19.7261169],[-101.2065906,19.7260191],[-101.2064618,19.726003],[-101.2059214,19.7259357],[-101.2058233,19.7259235],[-101.2052056,19.7258465],[-101.2052259,19.7257534],[-101.2052989,19.7254182],[-101.2053774,19.724973],[-101.205449,19.724671],[-101.2055581,19.724347],[-101.2056916,19.7241447],[-101.2058018,19.7238996],[-101.2057917,19.7237133],[-101.2057509,19.7234987],[-101.2056326,19.7231561],[-101.2055224,19.7228492],[-101.2054834,19.7227292],[-101.2054434,19.7226064],[-101.2053643,19.7223636],[-101.2052612,19.7220208],[-101.2052171,19.7218406],[-101.2051561,19.7217288],[-101.2051493,19.7214977],[-101.2051397,19.7213545],[-101.2050543,19.7211978],[-101.2050656,19.7209181],[-101.20509,19.7204876],[-101.2050716,19.7202513],[-101.2047494,19.7193878],[-101.2044971,19.7187468],[-101.2040212,19.7199212],[-101.2038216,19.7202749],[-101.2022999,19.7199544],[-101.2021817,19.7199295],[-101.2018898,19.7198651],[-101.2005536,19.7195852],[-101.2002995,19.7195563],[-101.2000795,19.7205387],[-101.1999776,19.720539],[-101.1998919,19.7205271],[-101.1997729,19.720501],[-101.1995754,19.7204201],[-101.1992637,19.7202226],[-101.1990554,19.7200895],[-101.1990006,19.7200546],[-101.1985594,19.7197728],[-101.1980407,19.719435],[-101.1974292,19.7190543],[-101.1969962,19.7187659],[-101.1969458,19.7187286],[-101.1968955,19.7186914],[-101.1963123,19.718317],[-101.1962265,19.7182585],[-101.1960789,19.718158],[-101.1960441,19.7181343],[-101.1959886,19.7180964],[-101.1956093,19.7178381],[-101.1951431,19.717514],[-101.1950754,19.7174689],[-101.1947,19.7172184],[-101.1945015,19.7170989],[-101.1943925,19.7170451],[-101.1942961,19.7169976],[-101.1941966,19.7169485],[-101.1938918,19.7167981],[-101.1936156,19.7166759],[-101.1934348,19.7165958],[-101.193268,19.716531],[-101.1931037,19.7164672],[-101.1927727,19.7163386],[-101.1926927,19.7163086],[-101.192606,19.716276],[-101.1925007,19.7162365],[-101.1921259,19.7160956],[-101.1916012,19.7159228],[-101.191092,19.7157785],[-101.1907728,19.7156892],[-101.189906,19.7154846],[-101.1890739,19.7152938],[-101.1890611,19.7152169],[-101.1890573,19.7151938],[-101.1890383,19.7150707],[-101.1890318,19.7150472],[-101.1890307,19.7150435],[-101.189004,19.7149482],[-101.1889808,19.7148655],[-101.1889462,19.7147424],[-101.1889364,19.7147074],[-101.1889218,19.7146612],[-101.1888871,19.7145517],[-101.1888845,19.7145433],[-101.1888746,19.714512],[-101.1888591,19.7144628],[-101.1888379,19.714396],[-101.1888374,19.7143943],[-101.1888355,19.7143882],[-101.1888278,19.7143638],[-101.1887875,19.7142358],[-101.1887842,19.7142253],[-101.1887737,19.714192],[-101.1887293,19.7140504],[-101.1887188,19.7140167],[-101.1887003,19.7139576],[-101.1886828,19.7139018],[-101.1886751,19.7138772],[-101.1886314,19.7137376],[-101.1886182,19.7136894],[-101.1886024,19.7136312],[-101.1885771,19.7135383],[-101.1885722,19.7135201],[-101.1885701,19.7135124],[-101.1885602,19.7134763],[-101.1885544,19.713455],[-101.1885406,19.7134043],[-101.188531,19.713369],[-101.1885109,19.713299],[-101.1884872,19.7132203],[-101.1884764,19.7131845],[-101.188459,19.7131266],[-101.1884564,19.7131181],[-101.1884494,19.7130949],[-101.1884412,19.7130678],[-101.188433,19.7130404],[-101.1883879,19.7128908],[-101.1883816,19.7128671],[-101.1882966,19.7125448],[-101.1882935,19.7125329],[-101.1882316,19.7122956],[-101.188228,19.7122723],[-101.1882247,19.7122505],[-101.1882174,19.7122032],[-101.1882092,19.7121499],[-101.188201,19.7120967],[-101.1881943,19.712053],[-101.1881918,19.7119933],[-101.1881929,19.711922],[-101.1881938,19.7118965],[-101.188209,19.7117555],[-101.1882123,19.7117331],[-101.1882292,19.7116175],[-101.1882858,19.7112852],[-101.188292,19.7112489],[-101.1883163,19.7111062],[-101.1883252,19.7110536],[-101.1883323,19.7110119],[-101.1883342,19.7110011],[-101.1883831,19.7107134],[-101.1883939,19.7106629],[-101.1884164,19.7105577],[-101.188433,19.7104798],[-101.1884496,19.7104019],[-101.1888788,19.7103874],[-101.1889897,19.7102157],[-101.1890489,19.7101241],[-101.189073,19.7100868],[-101.1890971,19.7100494],[-101.1891122,19.710026],[-101.1891231,19.7100093],[-101.1891502,19.7099673],[-101.1891881,19.7099086],[-101.1892133,19.7098695],[-101.1892391,19.7098297],[-101.1892593,19.7097983],[-101.1892671,19.7097863],[-101.1892904,19.7097502],[-101.1892957,19.709742],[-101.1893056,19.7097268],[-101.1893624,19.7096388],[-101.1895633,19.7093278],[-101.1896187,19.709242],[-101.1897256,19.7090765],[-101.1897763,19.7089939],[-101.1898597,19.7088568],[-101.1899009,19.7087871],[-101.1899392,19.7087224],[-101.1899715,19.708668],[-101.1899962,19.7086262],[-101.1900814,19.7084823],[-101.190102,19.7084475],[-101.1901269,19.7084053],[-101.1901587,19.7083516],[-101.1901676,19.7083367],[-101.1902151,19.7082563],[-101.1902371,19.7082192],[-101.1902837,19.7081404],[-101.1903164,19.7080852],[-101.1903725,19.7079871],[-101.1904223,19.7079003],[-101.1904743,19.7078132],[-101.1905263,19.7077262],[-101.1905648,19.7076618],[-101.1905978,19.7075946],[-101.1906199,19.7075384],[-101.1906253,19.7075248],[-101.1906597,19.7074219],[-101.190669,19.7073942],[-101.1906792,19.7073636],[-101.1906927,19.7073232],[-101.1906953,19.7073155],[-101.1907111,19.7072685],[-101.1907198,19.7072423],[-101.1907245,19.7072283],[-101.1907316,19.7072073],[-101.1907528,19.707144],[-101.1907708,19.7070902],[-101.1907896,19.7070341],[-101.1907926,19.707025],[-101.1908115,19.7069687],[-101.1908305,19.7069118],[-101.1908517,19.7068485],[-101.190878,19.7067699],[-101.1909077,19.7066814],[-101.1909273,19.7066227],[-101.1909284,19.7066195],[-101.1909332,19.7066052],[-101.190963,19.7065163],[-101.1909924,19.7064285],[-101.1907507,19.7063667],[-101.1906784,19.7063482],[-101.1905091,19.7063049],[-101.1904657,19.706325],[-101.1904229,19.7063448],[-101.1903367,19.7063847],[-101.1902009,19.7064367],[-101.189952,19.7065321],[-101.1898535,19.7065698],[-101.1897536,19.706615],[-101.1896538,19.7066602],[-101.189562,19.7067018],[-101.1894162,19.7067678],[-101.1893028,19.7068192],[-101.1892704,19.7068338],[-101.1890873,19.7068181],[-101.1891595,19.7065604],[-101.189168,19.7065256],[-101.1892068,19.7063672],[-101.1892701,19.7061083],[-101.1892848,19.7060484],[-101.1892995,19.7059885],[-101.1893208,19.7059012],[-101.1893546,19.7056266],[-101.1893606,19.7055781],[-101.1893829,19.7054607],[-101.1894052,19.7053432],[-101.1895404,19.7052037],[-101.1895612,19.7049047],[-101.189567,19.7048202],[-101.189577,19.7046776],[-101.1896327,19.7042406],[-101.1896481,19.7041198],[-101.1896524,19.7040861],[-101.189653,19.704081],[-101.1896663,19.7039766],[-101.1896729,19.7039252],[-101.1896884,19.7038036],[-101.1897138,19.7032203],[-101.1897175,19.7031361],[-101.1897197,19.703084],[-101.1897211,19.703052],[-101.1897228,19.7030138],[-101.1897292,19.7028662],[-101.1897371,19.7020378],[-101.189754,19.7018537],[-101.1897591,19.7017986],[-101.1897602,19.7015772],[-101.1897609,19.701446],[-101.1897615,19.7013364]]]}}]}
