{"type":"FeatureCollection","features":[{"type":"Feature","properties":{"id":"85_0","routeId":"85","routeName":"Prados Verdes B","direction":"ida","directionIndex":1,"color":"#70A800","casingColor":"#222222","transportType":"combi","name":"Ida","geometrySource":"official-kml-explicit-coordinates","matchingEngine":"none"},"geometry":{"type":"MultiLineString","coordinates":[[[-101.1897614,19.7013572],[-101.1897615,19.7013364],[-101.1896139,19.7013472],[-101.188125,19.7013309],[-101.1879927,19.7013295],[-101.1878153,19.7013276],[-101.1878259,19.7015585],[-101.1878434,19.7019414],[-101.1879414,19.7019537],[-101.1879903,19.7019598],[-101.1880393,19.7019659],[-101.1880598,19.7019685],[-101.1881486,19.7019796],[-101.1883037,19.7019926],[-101.1883574,19.7019943],[-101.1883911,19.7019953],[-101.188411,19.701996],[-101.1884666,19.7019977],[-101.1884943,19.7019986],[-101.1885183,19.7019994],[-101.1885748,19.7020011],[-101.1886312,19.7020029],[-101.1886877,19.7020047],[-101.1887441,19.7020065],[-101.1887984,19.7020082],[-101.1888606,19.7020102],[-101.1890204,19.7020152],[-101.1893361,19.7020252],[-101.1893454,19.7020254],[-101.1894131,19.7020276],[-101.1897371,19.7020378],[-101.189754,19.7018537],[-101.1897591,19.7017986],[-101.1903681,19.7018126],[-101.190775,19.701822],[-101.190854,19.701824],[-101.1909024,19.7018252],[-101.1909508,19.7018264],[-101.1909747,19.701827],[-101.1910103,19.7018279],[-101.191079,19.7018296],[-101.1912071,19.7018328],[-101.1913253,19.7018357],[-101.1914423,19.7018386],[-101.1914401,19.7028955],[-101.1913897,19.7028961],[-101.1913905,19.7029559],[-101.1913894,19.7030829],[-101.1913884,19.7031882],[-101.1913858,19.7034828],[-101.1913855,19.7035175],[-101.1913849,19.7035905],[-101.1913826,19.7038503],[-101.1913811,19.7040177],[-101.1913797,19.7041748],[-101.1913781,19.7043599],[-101.1913741,19.7047331],[-101.1913729,19.7048452],[-101.1913685,19.7052549],[-101.1913646,19.7053398],[-101.1913592,19.7054558],[-101.1913539,19.7055717],[-101.1913351,19.7056405],[-101.1913234,19.7056831],[-101.1913135,19.7057192],[-101.1912986,19.705771],[-101.1912149,19.7058813],[-101.1912055,19.7059455],[-101.1911845,19.7059758],[-101.1910884,19.7062021],[-101.1910632,19.7062616],[-101.1910278,19.706345],[-101.1909924,19.7064285],[-101.190963,19.7065163],[-101.1909332,19.7066052],[-101.1909284,19.7066195],[-101.1909273,19.7066227],[-101.1909077,19.7066814],[-101.190878,19.7067699],[-101.1908517,19.7068485],[-101.1908305,19.7069118],[-101.1908115,19.7069687],[-101.1907926,19.707025],[-101.1907896,19.7070341],[-101.1907708,19.7070902],[-101.1907528,19.707144],[-101.1907316,19.7072073],[-101.1907245,19.7072283],[-101.1907198,19.7072423],[-101.1907111,19.7072685],[-101.1906953,19.7073155],[-101.1906927,19.7073232],[-101.1906792,19.7073636],[-101.1906693,19.7073932],[-101.1906597,19.7074219],[-101.1906253,19.7075248],[-101.1906199,19.7075384],[-101.1905978,19.7075946],[-101.1905648,19.7076618],[-101.1905263,19.7077262],[-101.1904743,19.7078132],[-101.1904223,19.7079003],[-101.1903725,19.7079871],[-101.1903164,19.7080852],[-101.1902837,19.7081404],[-101.1902371,19.7082192],[-101.1902151,19.7082563],[-101.1901904,19.708298],[-101.1901729,19.7083276],[-101.1901676,19.7083367],[-101.1901587,19.7083516],[-101.1901269,19.7084053],[-101.190102,19.7084475],[-101.1900814,19.7084823],[-101.1899962,19.7086262],[-101.1899715,19.708668],[-101.1899392,19.7087224],[-101.1899009,19.7087871],[-101.1898597,19.7088568],[-101.1898433,19.7088845],[-101.1898057,19.708948],[-101.1897256,19.7090765],[-101.1896187,19.709242],[-101.1895633,19.7093278],[-101.1893624,19.7096388],[-101.1893059,19.7097263],[-101.1892957,19.709742],[-101.1892904,19.7097502],[-101.1892671,19.7097863],[-101.1892595,19.709798],[-101.1892391,19.7098297],[-101.1892133,19.7098695],[-101.1891881,19.7099086],[-101.1891502,19.7099673],[-101.1891231,19.7100093],[-101.1891122,19.710026],[-101.1890971,19.7100494],[-101.189073,19.7100868],[-101.1890489,19.7101241],[-101.1889897,19.7102157],[-101.1888788,19.7103874],[-101.1888517,19.7104293],[-101.1888283,19.7104655],[-101.1888,19.7105304],[-101.1887717,19.7105952],[-101.1887591,19.7106135],[-101.188665,19.7107498],[-101.1886633,19.710754],[-101.1886607,19.7107607],[-101.1886313,19.7108355],[-101.1885951,19.7109083],[-101.1885338,19.7110316],[-101.1884746,19.7111505],[-101.1884724,19.7111549],[-101.1884454,19.7112091],[-101.1884275,19.7112452],[-101.1884162,19.7112679],[-101.1884003,19.7113],[-101.1883826,19.7113354],[-101.1883644,19.7113722],[-101.1883498,19.7114015],[-101.1883338,19.7114301],[-101.1882292,19.7116175],[-101.1882123,19.7117331],[-101.188209,19.7117555],[-101.188206,19.7117758],[-101.1881892,19.7119062],[-101.1881912,19.7119708],[-101.1881929,19.711922],[-101.1881918,19.7119932],[-101.1881943,19.712053],[-101.188201,19.7120967],[-101.1882092,19.7121499],[-101.1882174,19.7122032],[-101.1882247,19.7122505],[-101.188228,19.7122723],[-101.1882316,19.7122956],[-101.1882935,19.7125329],[-101.1882966,19.7125448],[-101.1883816,19.7128671],[-101.1883877,19.7128904],[-101.188433,19.7130404],[-101.1884412,19.7130678],[-101.1884494,19.7130949],[-101.1884564,19.7131181],[-101.188459,19.7131266],[-101.1884764,19.7131845],[-101.1884872,19.7132203],[-101.1885109,19.713299],[-101.1885219,19.7133355],[-101.1889513,19.713209],[-101.1892217,19.7131459],[-101.1893372,19.713119],[-101.1894921,19.7130829],[-101.18992,19.713006],[-101.1902044,19.7130383],[-101.1908247,19.7131332],[-101.1909088,19.713145],[-101.1909784,19.7131543],[-101.1920879,19.7133021],[-101.1923379,19.7133408],[-101.1924549,19.7133589],[-101.1930172,19.713446],[-101.1937384,19.7135985],[-101.1941376,19.7137251],[-101.1942339,19.7138493],[-101.1944996,19.7139058],[-101.1950311,19.7140188],[-101.1951831,19.71405],[-101.1955997,19.7141353],[-101.1956637,19.7141485],[-101.196093,19.7142358],[-101.1972891,19.7144977],[-101.1974113,19.7145245],[-101.1974103,19.7145349],[-101.1973714,19.7149337],[-101.1973637,19.7150152],[-101.1973295,19.7153773],[-101.1972914,19.715798],[-101.1972533,19.7162168],[-101.1972487,19.7162601],[-101.1972337,19.7163986],[-101.1972119,19.7166006],[-101.1972044,19.7166701],[-101.197307,19.7166793],[-101.1976993,19.7167701],[-101.199743,19.717211],[-101.20042,19.7173485],[-101.200501,19.717365],[-101.2008057,19.7174269],[-101.2017674,19.7176223],[-101.2029105,19.7178805],[-101.2030439,19.7179107],[-101.2043204,19.718199],[-101.2044759,19.7182342],[-101.2057794,19.7185228],[-101.2058621,19.7185405],[-101.2063143,19.7186375],[-101.2063843,19.7186525],[-101.2072283,19.7188336],[-101.2081458,19.7190313],[-101.2089128,19.7191928],[-101.2089736,19.7192056],[-101.2090641,19.7192247],[-101.2092938,19.719264],[-101.210954,19.7196163],[-101.2131964,19.7201216],[-101.2132869,19.7201445],[-101.2135589,19.7202127],[-101.2139614,19.7203033],[-101.214038,19.7203206],[-101.2143639,19.7203939],[-101.214496,19.7205705],[-101.2145642,19.7206618],[-101.2149449,19.7211705],[-101.2153512,19.7217199],[-101.2154346,19.7218301],[-101.2155072,19.7219261],[-101.2160143,19.7225959],[-101.2165658,19.7226942],[-101.2165186,19.7231755],[-101.2170175,19.7232509],[-101.2171461,19.7232759],[-101.2176694,19.7233779],[-101.2182103,19.7234832],[-101.2183625,19.7235128],[-101.2183761,19.7235155],[-101.2185406,19.7235475],[-101.2186353,19.723566],[-101.2186627,19.7235713],[-101.2187109,19.7235807],[-101.2196734,19.7237682],[-101.2197554,19.7239713],[-101.2199242,19.7245045],[-101.220389,19.7259995],[-101.2198431,19.7259393],[-101.2182411,19.7255975],[-101.218501,19.7260573],[-101.2185981,19.7262112],[-101.2186558,19.7263027],[-101.2188106,19.7265481],[-101.2188979,19.7266999],[-101.21894,19.7267732],[-101.2191521,19.7271421],[-101.2199938,19.7272467],[-101.2201125,19.7272609],[-101.2202955,19.7272806],[-101.2205573,19.7273162],[-101.2208263,19.7273345],[-101.2209279,19.7273293],[-101.2210249,19.7273243],[-101.2211461,19.7273181],[-101.2213585,19.7272858],[-101.2214702,19.7272635],[-101.2215461,19.7272452],[-101.2216857,19.7272121],[-101.221835,19.7271603],[-101.2219893,19.7271067],[-101.2221126,19.7270536],[-101.2221844,19.7270227],[-101.2222359,19.7270006],[-101.2223717,19.7269237],[-101.22245,19.7268766],[-101.2225738,19.7267959],[-101.2226952,19.7266984],[-101.2227999,19.7266103],[-101.2228974,19.7265151],[-101.2230545,19.7263456],[-101.2231421,19.7262348],[-101.2232034,19.7261501],[-101.2234091,19.7258598],[-101.223511,19.725718],[-101.2235619,19.7256471],[-101.2236128,19.7255762],[-101.2238964,19.7251555],[-101.2239954,19.7250032],[-101.2240943,19.7248508],[-101.2241329,19.7249954],[-101.2242016,19.7252524],[-101.2242441,19.7253475],[-101.2242318,19.7253657],[-101.2242063,19.7254062],[-101.2239743,19.7257747],[-101.2239267,19.7258508],[-101.2235661,19.7263797],[-101.2234887,19.7264932],[-101.2233842,19.7266465],[-101.2230968,19.7269549],[-101.222935,19.7270824],[-101.2226428,19.7272718],[-101.2225912,19.7273053],[-101.2225396,19.7273387],[-101.2223506,19.7274612],[-101.2220517,19.7275697],[-101.221749,19.727663],[-101.2216778,19.7276752],[-101.2215564,19.7276961],[-101.2214612,19.7277125],[-101.2213579,19.7277244],[-101.2213377,19.7277267],[-101.221188,19.727744],[-101.2209122,19.7277657],[-101.2208554,19.7277677],[-101.2207876,19.7277689],[-101.2204812,19.7277456],[-101.2202242,19.7277123],[-101.2193187,19.7275959],[-101.218969,19.7275517],[-101.2189099,19.7275442],[-101.2178952,19.7274157],[-101.2177947,19.727403],[-101.2177418,19.7273963],[-101.2176688,19.7273871],[-101.2175306,19.7273697],[-101.2172407,19.7273332],[-101.217176,19.727325],[-101.2169579,19.7272976],[-101.2167967,19.7272773],[-101.2157123,19.7271408],[-101.2156218,19.7271294],[-101.2155562,19.7271212],[-101.215447,19.7271074],[-101.2148304,19.7270298],[-101.2146631,19.7270088],[-101.2145498,19.7269945],[-101.2144958,19.7269877],[-101.2144094,19.7269769],[-101.213493,19.7268619],[-101.2132521,19.7268317],[-101.21279,19.7267738],[-101.2121803,19.7267002],[-101.2117685,19.7266505],[-101.2116387,19.7266348],[-101.2113567,19.7266008],[-101.210548,19.7265037],[-101.2101531,19.7264563],[-101.2100392,19.7264426],[-101.2089811,19.7263156],[-101.2089349,19.7263101],[-101.2078092,19.7261749],[-101.2076921,19.7261609],[-101.2076822,19.7262198],[-101.2076606,19.7263488],[-101.207646,19.7264362],[-101.2076267,19.7265208],[-101.2075814,19.7267193],[-101.2075413,19.7268949],[-101.2074987,19.7270813],[-101.2074647,19.7272299],[-101.207412,19.7274609],[-101.2073804,19.7275992],[-101.2073488,19.727738],[-101.2073202,19.7278657],[-101.2072679,19.7281037],[-101.2072181,19.7283305],[-101.2071799,19.7285043],[-101.2071669,19.7285635],[-101.2071501,19.7286396],[-101.2071092,19.7288257],[-101.20707,19.7290041],[-101.2070268,19.7292007],[-101.2069698,19.72946],[-101.2069511,19.7295556],[-101.2069297,19.7296743],[-101.2069093,19.729788],[-101.2068457,19.7298524],[-101.2067896,19.7299039],[-101.2067742,19.7299767],[-101.2067734,19.7299806],[-101.206665,19.7305274],[-101.2062174,19.7304541],[-101.2061567,19.7306858],[-101.2061374,19.7307598],[-101.2061273,19.7308069],[-101.2061135,19.7308712],[-101.2060762,19.7310454],[-101.2060357,19.7312339],[-101.2059853,19.7314687],[-101.2059579,19.7315962],[-101.2059211,19.7317677],[-101.2058899,19.7319083],[-101.2058669,19.7320125],[-101.2058579,19.7320531],[-101.2058288,19.7321845],[-101.2058059,19.7322878],[-101.205795,19.7323393],[-101.2057593,19.7325582],[-101.2057235,19.7327778],[-101.2056881,19.7329951],[-101.2056694,19.7331095],[-101.2056455,19.7332564],[-101.2056287,19.7333593],[-101.2056079,19.7334869],[-101.2056145,19.7335874],[-101.2056204,19.733679],[-101.2056271,19.7337806],[-101.2056562,19.7338684],[-101.2056948,19.7339846],[-101.2057477,19.734183],[-101.2058277,19.7344871],[-101.2058698,19.7346472],[-101.2058923,19.7347329],[-101.2059206,19.7348405],[-101.2059657,19.7350119],[-101.2059983,19.7351356],[-101.2060339,19.7352713],[-101.2060496,19.735331],[-101.2060781,19.735323],[-101.2061024,19.735316],[-101.2061362,19.735299],[-101.206284,19.7352244],[-101.2064011,19.7351653],[-101.2066211,19.7350543],[-101.2068462,19.7349408],[-101.2071298,19.7347976],[-101.2072948,19.7347144],[-101.2075517,19.7345848],[-101.207719,19.7345004],[-101.2078024,19.7345801],[-101.2078312,19.734616],[-101.2078838,19.7346864],[-101.207927,19.7347443],[-101.2079971,19.7348381],[-101.2080435,19.7349],[-101.2081194,19.7350016],[-101.2081779,19.7350798],[-101.2082385,19.735161],[-101.2083099,19.7352564],[-101.2084553,19.7354508],[-101.2085515,19.735585],[-101.2086862,19.7357738],[-101.2088303,19.7359758],[-101.2062699,19.7363547],[-101.2062173,19.73597],[-101.2062093,19.7359131],[-101.2062078,19.7359019],[-101.2061871,19.7357544],[-101.2061538,19.7356092],[-101.2061276,19.7354665],[-101.20611,19.7354259]]]}},{"type":"Feature","properties":{"id":"85_1","routeId":"85","routeName":"Prados Verdes B","direction":"vuelta","directionIndex":2,"color":"#70A800","casingColor":"#222222","transportType":"combi","name":"Vuelta","geometrySource":"official-kml-explicit-coordinates","matchingEngine":"none"},"geometry":{"type":"MultiLineString","coordinates":[[[-101.1881943,19.712053],[-101.1881918,19.7119933],[-101.1881918,19.7119903],[-101.1881912,19.7119708],[-101.1881929,19.711922],[-101.1881938,19.7118965],[-101.188209,19.7117555],[-101.1882123,19.7117331],[-101.1882292,19.7116175],[-101.1882858,19.7112852],[-101.188292,19.7112489],[-101.1883163,19.7111062],[-101.1883252,19.7110536],[-101.1883323,19.7110119],[-101.1883342,19.7110011],[-101.1883831,19.7107134],[-101.1883939,19.7106629],[-101.1884164,19.7105577],[-101.188433,19.7104798],[-101.1884496,19.7104019],[-101.1888788,19.7103874],[-101.1889897,19.7102157],[-101.1890489,19.7101241],[-101.189073,19.7100868],[-101.1890971,19.7100494],[-101.1891122,19.710026],[-101.1891231,19.7100093],[-101.1891502,19.7099673],[-101.1891881,19.7099086],[-101.1892133,19.7098695],[-101.1892391,19.7098297],[-101.1892593,19.7097983],[-101.1892671,19.7097863],[-101.1892904,19.7097502],[-101.1892957,19.709742],[-101.1893056,19.7097268],[-101.1893624,19.7096388],[-101.1894076,19.7095689],[-101.1895633,19.7093278],[-101.1896187,19.709242],[-101.1897256,19.7090765],[-101.1897763,19.7089939],[-101.1898597,19.7088568],[-101.1899009,19.7087871],[-101.1899392,19.7087224],[-101.1899715,19.708668],[-101.1899962,19.7086262],[-101.1900814,19.7084823],[-101.190102,19.7084475],[-101.1901269,19.7084053],[-101.1901587,19.7083516],[-101.1901676,19.7083367],[-101.1901729,19.7083276],[-101.1901904,19.708298],[-101.1902151,19.7082563],[-101.1902371,19.7082192],[-101.1902837,19.7081404],[-101.1903164,19.7080852],[-101.1903725,19.7079871],[-101.1904223,19.7079003],[-101.1904743,19.7078132],[-101.1905263,19.7077262],[-101.1905648,19.7076618],[-101.1905978,19.7075946],[-101.1906199,19.7075384],[-101.1906253,19.7075248],[-101.1906597,19.7074219],[-101.190669,19.7073942],[-101.1906792,19.7073636],[-101.1906927,19.7073232],[-101.1906953,19.7073155],[-101.1907111,19.7072685],[-101.1907198,19.7072423],[-101.1907245,19.7072283],[-101.1907316,19.7072073],[-101.1907528,19.707144],[-101.1907708,19.7070902],[-101.1907896,19.7070341],[-101.1907926,19.707025],[-101.1908115,19.7069687],[-101.1908305,19.7069118],[-101.1908517,19.7068485],[-101.190878,19.7067699],[-101.1909077,19.7066814],[-101.1909273,19.7066227],[-101.1909284,19.7066195],[-101.1909332,19.7066052],[-101.190963,19.7065163],[-101.1909924,19.7064285],[-101.1907507,19.7063667],[-101.1906784,19.7063482],[-101.1905091,19.7063049],[-101.1904657,19.706325],[-101.1904229,19.7063448],[-101.1903367,19.7063847],[-101.1902009,19.7064367],[-101.189952,19.7065321],[-101.1898535,19.7065698],[-101.1897536,19.706615],[-101.1896538,19.7066602],[-101.189562,19.7067018],[-101.1894162,19.7067678],[-101.1893028,19.7068192],[-101.1892704,19.7068338],[-101.1890873,19.7068181],[-101.1891595,19.7065604],[-101.189168,19.7065256],[-101.1892068,19.7063672],[-101.1892701,19.7061083],[-101.1892848,19.7060484],[-101.1892995,19.7059885],[-101.1893208,19.7059012],[-101.1893546,19.7056266],[-101.1893606,19.7055781],[-101.1893829,19.7054607],[-101.1894052,19.7053432],[-101.1895404,19.7052037],[-101.1895612,19.7049047],[-101.189567,19.7048202],[-101.189577,19.7046776],[-101.1896327,19.7042406],[-101.1896481,19.7041198],[-101.1896524,19.7040861],[-101.189653,19.704081],[-101.1896663,19.7039766],[-101.1896729,19.7039252],[-101.1896884,19.7038036],[-101.1897138,19.7032203],[-101.1897175,19.7031361],[-101.1897197,19.703084],[-101.1897211,19.703052],[-101.1897228,19.7030138],[-101.1897292,19.7028662],[-101.1897371,19.7020378],[-101.189754,19.7018537],[-101.1897591,19.7017986],[-101.1897602,19.7015772],[-101.1897609,19.701446],[-101.1897614,19.7013572],[-101.1897615,19.7013364]],[[-101.1881943,19.712053],[-101.1881935,19.7120482]],[[-101.2061169,19.7354416],[-101.2061276,19.7354665],[-101.2061409,19.735539],[-101.2061417,19.7355432],[-101.2061538,19.7356092],[-101.2061871,19.7357544],[-101.2062078,19.7359019],[-101.2062093,19.7359131],[-101.2062173,19.73597],[-101.2062699,19.7363547],[-101.2071418,19.7362257],[-101.2071612,19.7362228],[-101.2088303,19.7359758],[-101.2086975,19.7357897],[-101.2086189,19.7356794],[-101.2084977,19.7355096],[-101.2084412,19.735432],[-101.2083267,19.7352788],[-101.2082946,19.735236],[-101.2081267,19.7350114],[-101.2079792,19.7348141],[-101.207879,19.73468],[-101.2078312,19.734616],[-101.2078024,19.7345801],[-101.207719,19.7345004],[-101.2075755,19.7345728],[-101.2074233,19.7346496],[-101.207231,19.7347466],[-101.2070237,19.7348512],[-101.2068019,19.7349631],[-101.2066612,19.7350341],[-101.2065532,19.7350886],[-101.2065281,19.7351012],[-101.2063425,19.7351949],[-101.2061839,19.7352749],[-101.2061433,19.7352954],[-101.2061024,19.735316],[-101.2060496,19.735331],[-101.2060367,19.7352818],[-101.206024,19.7352337],[-101.2060121,19.7351882],[-101.2059679,19.7350201],[-101.2059108,19.7348033],[-101.2058639,19.7346247],[-101.2057915,19.7343495],[-101.2057356,19.7341372],[-101.2056982,19.7339948],[-101.2056271,19.7337806],[-101.2056211,19.7336886],[-101.2056179,19.7336394],[-101.2056136,19.7335738],[-101.2056079,19.7334869],[-101.2056118,19.7334632],[-101.2056329,19.7333338],[-101.2056694,19.7331095],[-101.2056907,19.7329791],[-101.2057154,19.7328274],[-101.2057316,19.7327281],[-101.2057648,19.7325242],[-101.2057795,19.7324342],[-101.2057974,19.7323261],[-101.2058091,19.7322733],[-101.2058253,19.7322004],[-101.2058443,19.7321145],[-101.2058579,19.7320531],[-101.2058707,19.7319957],[-101.2059342,19.7317067],[-101.205971,19.7315356],[-101.2059997,19.7314018],[-101.206003,19.7313863],[-101.2060614,19.7311142],[-101.2060909,19.7309765],[-101.2061193,19.7308444],[-101.2061374,19.7307598],[-101.2061641,19.7306573],[-101.2061809,19.7305932],[-101.2061985,19.7305262],[-101.2062048,19.7305018],[-101.2062174,19.7304541],[-101.2062386,19.7303552],[-101.2062773,19.7301755],[-101.2063174,19.7299888],[-101.2063295,19.7299328],[-101.2063343,19.7299102],[-101.2063518,19.7298291],[-101.2065259,19.7298486],[-101.2066901,19.7298671],[-101.2067837,19.7298776],[-101.2068145,19.729881],[-101.2068457,19.7298524],[-101.2068764,19.7298213],[-101.2068781,19.7298195],[-101.2069093,19.729788],[-101.2069195,19.7297273],[-101.2069314,19.7296648],[-101.2069524,19.7295481],[-101.2069936,19.7293517],[-101.2070218,19.7292233],[-101.2070756,19.7289786],[-101.2070894,19.7289158],[-101.2071483,19.728648],[-101.2071734,19.7285339],[-101.2071974,19.7284246],[-101.2072557,19.7281591],[-101.207287,19.7280169],[-101.2073148,19.7278904],[-101.2073591,19.7276923],[-101.2074517,19.7272869],[-101.2074647,19.7272299],[-101.2074925,19.7271084],[-101.2075266,19.7269592],[-101.2075659,19.726787],[-101.2076267,19.7265208],[-101.2076473,19.7264287],[-101.2076621,19.7263402],[-101.2076921,19.7261609],[-101.2076441,19.7261539],[-101.2075832,19.726145],[-101.207495,19.7261322],[-101.2074744,19.7261292],[-101.2073756,19.7261169],[-101.2065906,19.7260191],[-101.2064618,19.726003],[-101.2059214,19.7259357],[-101.2058233,19.7259235],[-101.2052056,19.7258465],[-101.2052259,19.7257534],[-101.2052989,19.7254182],[-101.2057167,19.7254742],[-101.2059195,19.7255003],[-101.2064027,19.7255624],[-101.2065584,19.7255824],[-101.2074326,19.7256948],[-101.2074861,19.7257016],[-101.2079712,19.725764],[-101.2081785,19.7257903],[-101.2082662,19.7258014],[-101.2109507,19.7261421],[-101.2110376,19.7261532],[-101.2113303,19.7261903],[-101.2117235,19.7262538],[-101.2118086,19.7262676],[-101.2119803,19.7262953],[-101.212707,19.7264128],[-101.2127261,19.7263815],[-101.2127498,19.7263736],[-101.2127734,19.7263657],[-101.2137809,19.726485],[-101.2139876,19.7265094],[-101.2141512,19.7265288],[-101.2142102,19.7265358],[-101.2143326,19.7265503],[-101.2144099,19.7265595],[-101.2144802,19.7265678],[-101.2144873,19.7265686],[-101.2146294,19.7265832],[-101.2147322,19.7265959],[-101.2162369,19.7267817],[-101.2163623,19.7267972],[-101.2169378,19.7268682],[-101.2175203,19.7269401],[-101.2176061,19.7269507],[-101.2177901,19.7269735],[-101.2180683,19.7270076],[-101.2182205,19.7270264],[-101.2190004,19.7271232],[-101.2191521,19.7271421],[-101.2199938,19.7272467],[-101.2201125,19.7272609],[-101.2202955,19.7272806],[-101.2205573,19.7273162],[-101.2208263,19.7273345],[-101.2206252,19.7266672],[-101.220389,19.7259995],[-101.2199242,19.7245045],[-101.2197554,19.7239713],[-101.2196734,19.7237682],[-101.2187109,19.7235807],[-101.2186627,19.7235713],[-101.2186353,19.723566],[-101.2185406,19.7235475],[-101.2183761,19.7235155],[-101.2183625,19.7235128],[-101.2183053,19.7235017],[-101.2182103,19.7234832],[-101.2176694,19.7233779],[-101.2171461,19.7232759],[-101.2170175,19.7232509],[-101.2168152,19.7232203],[-101.2167271,19.723207],[-101.2165186,19.7231755],[-101.2165658,19.7226942],[-101.2160143,19.7225959],[-101.2155072,19.7219261],[-101.2154346,19.7218301],[-101.2153512,19.7217199],[-101.2149449,19.7211705],[-101.2145642,19.7206618],[-101.214496,19.7205705],[-101.2143639,19.7203939],[-101.214038,19.7203206],[-101.2139614,19.7203033],[-101.2135589,19.7202127],[-101.2132869,19.7201445],[-101.2131964,19.7201216],[-101.210954,19.7196163],[-101.2092938,19.719264],[-101.2090641,19.7192247],[-101.2089736,19.7192056],[-101.2089128,19.7191928],[-101.2088101,19.7191712],[-101.2087347,19.7191553],[-101.2081458,19.7190313],[-101.2072283,19.7188336],[-101.2063843,19.7186525],[-101.2063143,19.7186375],[-101.2058621,19.7185405],[-101.2057794,19.7185228],[-101.2044759,19.7182342],[-101.2043204,19.718199],[-101.2037983,19.7180811],[-101.2037209,19.7180636],[-101.2030439,19.7179107],[-101.2029105,19.7178805],[-101.2017674,19.7176223],[-101.2008057,19.7174269],[-101.200501,19.717365],[-101.20042,19.7173485],[-101.199743,19.717211],[-101.1996305,19.7171867],[-101.1976993,19.7167701],[-101.197307,19.7166793],[-101.1972044,19.7166701],[-101.1970855,19.7166595],[-101.1970858,19.7166565],[-101.1971195,19.7163038],[-101.1971291,19.7162026],[-101.1971296,19.7161977],[-101.19717,19.7158455],[-101.1971766,19.7157877],[-101.1971772,19.7157827],[-101.1972115,19.7153316],[-101.1972186,19.7152557],[-101.1972339,19.7150932],[-101.1972376,19.7150533],[-101.1972413,19.715014],[-101.197245,19.7149747],[-101.1972495,19.7149261],[-101.1972876,19.7145112],[-101.1972891,19.7144977],[-101.196093,19.7142358],[-101.1959746,19.7142117],[-101.1959117,19.7141989],[-101.1956637,19.7141485],[-101.1955997,19.7141353],[-101.1951831,19.71405],[-101.1950311,19.7140188],[-101.1944996,19.7139058],[-101.1942339,19.7138493],[-101.1941376,19.7137251],[-101.1937384,19.7135985],[-101.1930172,19.713446],[-101.1924549,19.7133589],[-101.1923379,19.7133408],[-101.1920879,19.7133021],[-101.1910685,19.7131663],[-101.1909784,19.7131543],[-101.1909089,19.713145],[-101.1908247,19.7131332],[-101.1902044,19.7130383],[-101.18992,19.713006],[-101.1894921,19.7130829],[-101.1893372,19.713119],[-101.1892217,19.7131459],[-101.1889513,19.713209],[-101.1885219,19.7133355],[-101.1885109,19.713299],[-101.1884872,19.7132203],[-101.1884764,19.7131845],[-101.188459,19.7131266],[-101.1884564,19.7131181],[-101.1884494,19.7130949],[-101.1884412,19.7130678],[-101.188433,19.7130404],[-101.1883879,19.7128908],[-101.1883816,19.7128671],[-101.1882966,19.7125448],[-101.1882935,19.7125329],[-101.1882316,19.7122956],[-101.188228,19.7122723],[-101.1882247,19.7122505],[-101.1882174,19.7122032],[-101.1882092,19.7121499],[-101.188201,19.7120967],[-101.1881987,19.7120815],[-101.1881943,19.712053]]]}}]}
