{"type":"FeatureCollection","features":[{"type":"Feature","properties":{"id":"86_0","routeId":"86","routeName":"ISSSTE/Soledad","direction":"ida","directionIndex":1,"color":"#FF0000","casingColor":"#222222","transportType":"combi","name":"Ida","geometrySource":"official-kml-explicit-coordinates","matchingEngine":"none"},"geometry":{"type":"MultiLineString","coordinates":[[[-101.18089,19.73465],[-101.18055,19.73465],[-101.17995,19.73464],[-101.17917,19.73467],[-101.17849,19.73468],[-101.17754,19.73473],[-101.17741,19.73473],[-101.17739,19.73472],[-101.177,19.73462],[-101.17659,19.7344],[-101.17624,19.73422],[-101.17617,19.73419],[-101.17597,19.73378],[-101.17567,19.73324],[-101.17537,19.73278],[-101.17505,19.73238],[-101.17476,19.73214],[-101.17449,19.73187],[-101.17435,19.73174],[-101.17407,19.73137],[-101.17387,19.73094],[-101.17396,19.73053],[-101.17398,19.73025],[-101.17398,19.73015],[-101.17388,19.72975],[-101.17374,19.72937],[-101.17342,19.72855],[-101.17336,19.72839],[-101.17382,19.72837],[-101.17468,19.72835],[-101.1749,19.72835],[-101.17612,19.72833],[-101.17678,19.72828],[-101.17725,19.72828],[-101.17744,19.72904],[-101.17751,19.72917],[-101.17757,19.72926],[-101.17759,19.72938],[-101.17768,19.72966],[-101.17768,19.73004],[-101.17779,19.73047],[-101.17828,19.73045],[-101.1788,19.73041],[-101.17967,19.73026],[-101.18045,19.73011],[-101.18074,19.73005],[-101.18087,19.73],[-101.18095,19.73001],[-101.18104,19.72943],[-101.18101,19.72928],[-101.1811,19.7288],[-101.18125,19.72775],[-101.1802,19.72761],[-101.17994,19.72758],[-101.17944,19.7275],[-101.17958,19.72661],[-101.1796,19.72652],[-101.1794,19.72646],[-101.17879,19.72624],[-101.17853,19.72615],[-101.178,19.72597],[-101.17815,19.72513],[-101.17823,19.72457],[-101.17871,19.72462],[-101.17915,19.7247],[-101.17937,19.72471],[-101.17983,19.72476],[-101.18059,19.72489],[-101.18074,19.72372],[-101.18092,19.72231],[-101.18095,19.72209],[-101.18099,19.72203],[-101.18123,19.72222],[-101.18289,19.72349],[-101.183,19.7236],[-101.18308,19.72355],[-101.183,19.72308],[-101.18291,19.72263],[-101.1829,19.72242],[-101.18295,19.72205],[-101.18306,19.72166],[-101.18315,19.72141],[-101.18341,19.7209],[-101.18384,19.72012],[-101.18399,19.71972],[-101.18404,19.71968],[-101.18409,19.71959],[-101.18442,19.71972],[-101.18473,19.71986],[-101.18484,19.71997],[-101.1852,19.72014],[-101.18629,19.72063],[-101.18788,19.72134],[-101.18817,19.72149],[-101.18837,19.72117],[-101.18838,19.72093],[-101.18842,19.72035],[-101.18843,19.72035],[-101.18851,19.71938],[-101.18858,19.71857],[-101.18865,19.71768],[-101.18865,19.71761],[-101.18877,19.71647],[-101.18896,19.71584],[-101.18904,19.71553],[-101.18907,19.71528],[-101.18905,19.71511],[-101.1889,19.71462],[-101.18845,19.71313],[-101.18829,19.71255],[-101.18823,19.71224],[-101.18821,19.712],[-101.18823,19.71172],[-101.18831,19.71151],[-101.18862,19.71089],[-101.18879,19.7106],[-101.18888,19.7104],[-101.18911,19.71003],[-101.19012,19.70841],[-101.19041,19.70796],[-101.19069,19.7074],[-101.1908,19.70701],[-101.19101,19.7064],[-101.19115,19.70595],[-101.19129,19.70567],[-101.19134,19.70546],[-101.19136,19.70468],[-101.19142,19.70293],[-101.19143,19.70183],[-101.19094,19.70181],[-101.19094,19.70179],[-101.19094,19.70181],[-101.19086,19.70181],[-101.19039,19.70179],[-101.18971,19.70181],[-101.18971,19.70207],[-101.18926,19.70205],[-101.18795,19.70198],[-101.18784,19.70199],[-101.18782,19.70132],[-101.18795,19.70133],[-101.18893,19.70134],[-101.18972,19.70136],[-101.18972,19.7016],[-101.18971,19.70207],[-101.18972,19.70289],[-101.18968,19.70381],[-101.18959,19.70381],[-101.18962,19.70419],[-101.18962,19.7047],[-101.1896,19.70507],[-101.18955,19.70522],[-101.18947,19.70528],[-101.18943,19.70533],[-101.18937,19.7054],[-101.18936,19.70549],[-101.18934,19.70592],[-101.18926,19.70629],[-101.18909,19.70702],[-101.18884,19.70788],[-101.18876,19.70815],[-101.1886,19.70929],[-101.18845,19.71048],[-101.18834,19.71106],[-101.18824,19.71149],[-101.18824,19.71167],[-101.18821,19.7121],[-101.18825,19.71233],[-101.18839,19.71291],[-101.18852,19.71334],[-101.18898,19.71488],[-101.18907,19.71528],[-101.18904,19.71553],[-101.18896,19.71584],[-101.18877,19.71647],[-101.18868,19.71724],[-101.18866,19.71745],[-101.18862,19.71807],[-101.18852,19.7191],[-101.18842,19.72052],[-101.18839,19.72082],[-101.18838,19.721],[-101.18826,19.72105],[-101.1882,19.72112],[-101.18787,19.72169],[-101.18753,19.72201],[-101.18633,19.72313],[-101.18617,19.72326],[-101.18585,19.72355],[-101.18537,19.72401],[-101.18519,19.72396],[-101.18478,19.7239],[-101.18356,19.72373],[-101.1834,19.72369],[-101.18313,19.72363],[-101.18308,19.72355],[-101.18172,19.72248],[-101.18132,19.72218],[-101.18103,19.72198],[-101.18099,19.72203],[-101.18095,19.72209],[-101.18092,19.72231],[-101.18074,19.7238],[-101.18059,19.72489],[-101.18005,19.72479],[-101.17959,19.72472],[-101.17929,19.72471],[-101.17902,19.72468],[-101.17823,19.72457],[-101.17817,19.72502],[-101.178,19.72597],[-101.17857,19.72616],[-101.1796,19.72652],[-101.17956,19.72669],[-101.17944,19.7275],[-101.18,19.72759],[-101.18125,19.72775],[-101.18112,19.72871],[-101.18107,19.72901],[-101.18101,19.72934],[-101.18104,19.72943],[-101.18095,19.73001],[-101.18087,19.73],[-101.18081,19.73003],[-101.1806,19.73009],[-101.18037,19.73013],[-101.1788,19.73041],[-101.17816,19.73045],[-101.17779,19.73047],[-101.17768,19.73004],[-101.17768,19.72966],[-101.17759,19.72938],[-101.17757,19.72926],[-101.17748,19.72911],[-101.17744,19.72904],[-101.17733,19.72867],[-101.17725,19.72828],[-101.17678,19.72828],[-101.17643,19.72831],[-101.17622,19.72832],[-101.17481,19.72835],[-101.17336,19.72839],[-101.17346,19.72867],[-101.17346,19.72866],[-101.17374,19.72937],[-101.17388,19.72975],[-101.17398,19.73015],[-101.17397,19.73018],[-101.17396,19.73053],[-101.17387,19.73094],[-101.17407,19.73137],[-101.17435,19.73174],[-101.17452,19.73191],[-101.17505,19.73238],[-101.17556,19.73307],[-101.17569,19.73328],[-101.17597,19.73378],[-101.17617,19.73419],[-101.17624,19.73423],[-101.177,19.73462],[-101.17741,19.73473],[-101.17744,19.73472],[-101.17797,19.73472],[-101.17904,19.73467],[-101.17918,19.73466],[-101.17995,19.73464],[-101.181,19.73464]]]}}]}
