{"type": "FeatureCollection", "features": [{"type": "Feature", "properties": {"id": "F15_0", "routeId": "F15", "routeName": "Chiquimitio (Por Torreon Nuevo)", "direction": "ida", "directionIndex": 1, "color": "#FFC800", "casingColor": "#222222", "transportType": "bus", "name": "Ida"}, "geometry": {"type": "MultiLineString", "coordinates": [[[-101.188195, 19.711612], [-101.188207, 19.711542], [-101.188396, 19.710737], [-101.188645, 19.710833], [-101.188547, 19.711047], [-101.188452, 19.711257], [-101.188346, 19.711457], [-101.188299, 19.711634]], [[-101.188195, 19.711612], [-101.188135, 19.711974], [-101.188136, 19.711995]], [[-101.188138, 19.712055], [-101.188139, 19.71209], [-101.188151, 19.712166], [-101.188164, 19.712269], [-101.188242, 19.712558]], [[-101.182279, 19.7163], [-101.18222, 19.716223], [-101.182133, 19.716109], [-101.183054, 19.715451], [-101.184301, 19.714509], [-101.184756, 19.714193], [-101.185092, 19.713961], [-101.185562, 19.713634], [-101.186111, 19.713253], [-101.186257, 19.713182], [-101.188245, 19.71257], [-101.1883, 19.712556]], [[-101.188242, 19.712558], [-101.188245, 19.71257], [-101.18827, 19.712659], [-101.188308, 19.7128], [-101.188322, 19.712855], [-101.188365, 19.713001], [-101.188421, 19.713188], [-101.188471, 19.713353], [-101.188639, 19.713763], [-101.188787, 19.714252], [-101.189003, 19.715118], [-101.189017, 19.715263], [-101.189014, 19.715442], [-101.188977, 19.715626], [-101.188719, 19.716447], [-101.1887, 19.716625], [-101.188672, 19.716832], [-101.188626, 19.717246], [-101.188728, 19.717294], [-101.188701, 19.717918], [-101.188698, 19.718033], [-101.188687, 19.71853], [-101.188674, 19.718622], [-101.188635, 19.719093], [-101.188622, 19.719319], [-101.188611, 19.719943], [-101.189877, 19.720172], [-101.190533, 19.720286], [-101.190371, 19.721057], [-101.190281, 19.721676], [-101.190263, 19.721773], [-101.190223, 19.721862], [-101.190178, 19.721929], [-101.190522, 19.722089], [-101.191568, 19.722557], [-101.192224, 19.72283], [-101.192809, 19.723076], [-101.193084, 19.723203], [-101.193243, 19.723277], [-101.193357, 19.723259], [-101.19441, 19.723134], [-101.194404, 19.723032], [-101.196194, 19.722815], [-101.196561, 19.722769], [-101.196582, 19.72272], [-101.19662, 19.72268], [-101.196668, 19.722655], [-101.196721, 19.722645], [-101.196775, 19.722652], [-101.196824, 19.722674], [-101.196863, 19.72271], [-101.196888, 19.722755], [-101.196897, 19.722805], [-101.196888, 19.722855], [-101.196863, 19.722901], [-101.196825, 19.722936], [-101.196721, 19.723193], [-101.196685, 19.723444], [-101.196701, 19.723668], [-101.196745, 19.723853], [-101.19707, 19.72497], [-101.197887, 19.727458], [-101.197957, 19.727594], [-101.198177, 19.728135], [-101.198294, 19.728462], [-101.198514, 19.728999], [-101.198555, 19.729014], [-101.198594, 19.729041], [-101.198623, 19.729078], [-101.19864, 19.72912], [-101.198643, 19.729164], [-101.198634, 19.729207], [-101.198613, 19.729246], [-101.198625, 19.729265], [-101.198668, 19.729333], [-101.198783, 19.729644], [-101.198926, 19.730012], [-101.199054, 19.730306], [-101.19908, 19.730368], [-101.199224, 19.730768], [-101.199354, 19.73112], [-101.199466, 19.731431], [-101.199498, 19.731664], [-101.199465, 19.731923], [-101.199364, 19.732234], [-101.199288, 19.73246], [-101.199226, 19.732536], [-101.19918, 19.73268], [-101.199037, 19.733147], [-101.199011, 19.733214], [-101.198889, 19.733573], [-101.19885, 19.733684], [-101.198761, 19.733908], [-101.198679, 19.734116], [-101.198636, 19.734261], [-101.198617, 19.734367], [-101.198644, 19.734493], [-101.198689, 19.734658], [-101.198742, 19.734881], [-101.198815, 19.735203], [-101.198869, 19.735441], [-101.198921, 19.735668], [-101.198933, 19.735721], [-101.198989, 19.735892], [-101.199009, 19.735954], [-101.19907, 19.736198], [-101.199113, 19.736377], [-101.199171, 19.736817], [-101.199202, 19.737067], [-101.199223, 19.737249], [-101.199265, 19.737693], [-101.199289, 19.737808], [-101.19933, 19.738122], [-101.199348, 19.73825], [-101.199397, 19.738565], [-101.199418, 19.738699], [-101.199461, 19.73901], [-101.199486, 19.739156], [-101.199561, 19.739563], [-101.199574, 19.739686], [-101.199576, 19.739708], [-101.199582, 19.739787], [-101.19959, 19.739876], [-101.199627, 19.740209], [-101.199739, 19.740355], [-101.200462, 19.741271], [-101.20096, 19.74198], [-101.201086, 19.742198], [-101.201276, 19.742515], [-101.201385, 19.742693], [-101.201512, 19.742916], [-101.201729, 19.743296], [-101.202516, 19.744587], [-101.202641, 19.744782], [-101.202892, 19.745159], [-101.203099, 19.745504], [-101.203138, 19.745556], [-101.203347, 19.745946], [-101.203769, 19.746605], [-101.203845, 19.746725], [-101.204363, 19.746496], [-101.204685, 19.746345], [-101.205168, 19.746124], [-101.205309, 19.746062], [-101.205665, 19.745901], [-101.206584, 19.74548], [-101.206825, 19.745346], [-101.207362, 19.745682], [-101.208005, 19.746153], [-101.208475, 19.746496], [-101.208989, 19.746886], [-101.209173, 19.747042], [-101.209459, 19.747277], [-101.210038, 19.747729], [-101.210602, 19.748167], [-101.210648, 19.748203], [-101.211435, 19.748816], [-101.215039, 19.750554], [-101.215622, 19.750829], [-101.216596, 19.751275], [-101.217003, 19.751466], [-101.217345, 19.751632], [-101.217779, 19.75186], [-101.217899, 19.751921], [-101.217992, 19.751968], [-101.218162, 19.752037], [-101.218683, 19.752259], [-101.219111, 19.752486], [-101.219929, 19.752921], [-101.220768, 19.753367], [-101.221237, 19.753616], [-101.22132, 19.75366], [-101.221554, 19.753784], [-101.221919, 19.75397], [-101.222313, 19.754171], [-101.222429, 19.754229], [-101.223381, 19.754714], [-101.223741, 19.754898], [-101.225223, 19.755652], [-101.225915, 19.755977], [-101.226851, 19.756392], [-101.227129, 19.756518], [-101.227329, 19.756552], [-101.227508, 19.756525], [-101.227762, 19.756458], [-101.228925, 19.756024], [-101.229149, 19.75597], [-101.229331, 19.755914], [-101.229432, 19.755916], [-101.229629, 19.755949], [-101.229776, 19.756017], [-101.229967, 19.756157], [-101.230087, 19.756361], [-101.230144, 19.756465], [-101.230186, 19.756587], [-101.230237, 19.75687], [-101.230498, 19.759268], [-101.230638, 19.76027], [-101.230971, 19.763156], [-101.231033, 19.763611], [-101.231108, 19.764166], [-101.23162, 19.768378], [-101.231817, 19.76994], [-101.231841, 19.770073], [-101.231868, 19.770194], [-101.231921, 19.770314], [-101.232017, 19.770475], [-101.233313, 19.772352], [-101.234142, 19.773471], [-101.234244, 19.77359], [-101.234392, 19.77376], [-101.234604, 19.7739], [-101.234782, 19.77399], [-101.235236, 19.774196], [-101.235452, 19.774312], [-101.23562, 19.774469], [-101.235751, 19.774694], [-101.235869, 19.774979], [-101.237022, 19.777364], [-101.237164, 19.777671], [-101.237251, 19.777804], [-101.237333, 19.777921], [-101.237454, 19.777995], [-101.237868, 19.778125], [-101.237976, 19.778182], [-101.238067, 19.778258], [-101.238147, 19.778353], [-101.238232, 19.77862], [-101.238667, 19.779731], [-101.239094, 19.780783], [-101.239405, 19.78153], [-101.239521, 19.781806], [-101.239578, 19.781925], [-101.239655, 19.782065], [-101.239789, 19.782273], [-101.240718, 19.783736], [-101.241449, 19.784927], [-101.242193, 19.786102], [-101.24236, 19.786369], [-101.242423, 19.786489], [-101.242472, 19.786598], [-101.242511, 19.786713], [-101.242557, 19.786884], [-101.242639, 19.787365], [-101.242678, 19.787616], [-101.242708, 19.787782], [-101.242732, 19.787879], [-101.242774, 19.788002], [-101.242836, 19.788139], [-101.24302, 19.788399], [-101.243681, 19.789276], [-101.244453, 19.790349], [-101.24456, 19.790489], [-101.244648, 19.790598], [-101.244762, 19.790707], [-101.245238, 19.791136], [-101.245572, 19.79144], [-101.245706, 19.791552], [-101.24582, 19.791629], [-101.245934, 19.791693], [-101.246061, 19.791743], [-101.24621, 19.791785], [-101.247547, 19.792127], [-101.24842, 19.792402], [-101.249363, 19.792761], [-101.24966, 19.79287], [-101.249991, 19.792993], [-101.250083, 19.793023], [-101.250167, 19.793041], [-101.250219, 19.793037], [-101.250257, 19.793027], [-101.250307, 19.793012], [-101.250349, 19.792995], [-101.250394, 19.792969], [-101.250439, 19.792932], [-101.250499, 19.792869], [-101.250568, 19.792803], [-101.25065, 19.792628], [-101.250837, 19.792192], [-101.251015, 19.791833], [-101.251096, 19.791683], [-101.251206, 19.791512], [-101.251326, 19.791359], [-101.251529, 19.79106], [-101.251666, 19.790875], [-101.251768, 19.790744], [-101.251869, 19.790649], [-101.25213, 19.790401], [-101.252696, 19.789991], [-101.252909, 19.789843], [-101.253214, 19.790132], [-101.253406, 19.790319], [-101.253964, 19.789832], [-101.254282, 19.789583], [-101.254371, 19.789512], [-101.254431, 19.789456], [-101.25453, 19.789349], [-101.25479, 19.789058], [-101.254902, 19.78894], [-101.255066, 19.788783], [-101.255156, 19.788701], [-101.255246, 19.788643], [-101.255355, 19.788593], [-101.255492, 19.788546], [-101.255629, 19.788522], [-101.257018, 19.7883], [-101.258043, 19.788154], [-101.258187, 19.788136], [-101.258286, 19.788131], [-101.258363, 19.788133], [-101.258427, 19.788142], [-101.258499, 19.78816], [-101.258566, 19.788181], [-101.258658, 19.788213], [-101.258727, 19.788238], [-101.25881, 19.78826], [-101.258885, 19.788273], [-101.258985, 19.788285], [-101.25943, 19.788339], [-101.260512, 19.788469], [-101.261183, 19.788553], [-101.262325, 19.788695], [-101.263075, 19.788794], [-101.263301, 19.788817], [-101.263437, 19.788831], [-101.26357, 19.788852], [-101.263707, 19.788888], [-101.263857, 19.788949], [-101.263989, 19.789018], [-101.26502, 19.789696], [-101.265201, 19.789816], [-101.265332, 19.789889], [-101.265518, 19.789981], [-101.265716, 19.790054], [-101.26647, 19.79032], [-101.267422, 19.790642], [-101.268314, 19.791245], [-101.269088, 19.791763], [-101.269652, 19.792183], [-101.269864, 19.792365], [-101.270109, 19.792614], [-101.270278, 19.792818], [-101.270406, 19.792967], [-101.270568, 19.793238], [-101.270702, 19.793474], [-101.270751, 19.793596], [-101.270774, 19.793717], [-101.270783, 19.79383], [-101.270789, 19.793999], [-101.270789, 19.794068], [-101.270785, 19.794121], [-101.270774, 19.794174], [-101.270752, 19.794232], [-101.270667, 19.794424], [-101.270573, 19.79457], [-101.270442, 19.794755], [-101.270394, 19.794823], [-101.270358, 19.794888], [-101.270339, 19.794954], [-101.270335, 19.795031], [-101.270339, 19.795162], [-101.270345, 19.795373], [-101.270351, 19.79577], [-101.270355, 19.795858], [-101.270369, 19.795931], [-101.270396, 19.795992], [-101.270431, 19.796053], [-101.270517, 19.796177], [-101.270693, 19.796401], [-101.270886, 19.796657], [-101.271317, 19.797187], [-101.271396, 19.797302], [-101.271442, 19.79736], [-101.2715, 19.797425], [-101.271602, 19.797512], [-101.271692, 19.797575], [-101.271831, 19.797655], [-101.27204, 19.797752], [-101.272622, 19.798], [-101.274671, 19.798838], [-101.275784, 19.799324], [-101.280453, 19.801336], [-101.28147, 19.801743], [-101.28234, 19.802087], [-101.2846, 19.803002], [-101.28757, 19.804184], [-101.291235, 19.805623], [-101.292234, 19.805996], [-101.293874, 19.806583], [-101.298546, 19.808399], [-101.299174, 19.808661], [-101.299773, 19.808911], [-101.301796, 19.809735], [-101.304089, 19.810657], [-101.305047, 19.811061], [-101.306009, 19.811518], [-101.306198, 19.811658], [-101.306716, 19.812242], [-101.307322, 19.812986], [-101.307748, 19.813531], [-101.310012, 19.815918], [-101.31044, 19.816433], [-101.310666, 19.816616], [-101.311596, 19.816851], [-101.312532, 19.816927], [-101.312947, 19.816917], [-101.313249, 19.816778], [-101.313504, 19.816658], [-101.313892, 19.816583], [-101.314156, 19.816606], [-101.314394, 19.816583], [-101.314536, 19.816491], [-101.314778, 19.8163], [-101.315349, 19.815999], [-101.315908, 19.815793], [-101.316413, 19.815644], [-101.316908, 19.815439], [-101.317199, 19.815373], [-101.317644, 19.815372], [-101.317875, 19.815338], [-101.318487, 19.815146], [-101.319333, 19.81496], [-101.319709, 19.814861], [-101.320102, 19.814691], [-101.320413, 19.814625], [-101.320674, 19.814625], [-101.320888, 19.814663], [-101.321156, 19.814744], [-101.321634, 19.814919], [-101.321762, 19.814946], [-101.322154, 19.814957], [-101.322906, 19.81489], [-101.323034, 19.814897], [-101.32311, 19.814926], [-101.323155, 19.814957], [-101.323193, 19.815027], [-101.323186, 19.815131], [-101.323111, 19.815279], [-101.322848, 19.815503], [-101.322761, 19.8156], [-101.322683, 19.815776], [-101.322664, 19.816008], [-101.322666, 19.816248], [-101.322723, 19.816518], [-101.323056, 19.817401], [-101.323165, 19.817648], [-101.323239, 19.817771], [-101.323424, 19.818005], [-101.323536, 19.818117], [-101.324444, 19.818898], [-101.324669, 19.81911], [-101.32484, 19.81932], [-101.324902, 19.819433], [-101.324938, 19.819552], [-101.324953, 19.819676], [-101.324942, 19.819798], [-101.324911, 19.819919], [-101.32447, 19.821033], [-101.323725, 19.822757], [-101.323606, 19.823201], [-101.323623, 19.823637], [-101.324007, 19.825199], [-101.324382, 19.826729], [-101.324453, 19.826929], [-101.32458, 19.827067], [-101.325622, 19.827617], [-101.328134, 19.82881], [-101.329642, 19.829509], [-101.330072, 19.829752], [-101.330973, 19.830428], [-101.331142, 19.830592], [-101.331295, 19.830827], [-101.331365, 19.831004], [-101.331394, 19.831196], [-101.331351, 19.831529], [-101.331238, 19.832171], [-101.331074, 19.833156], [-101.331081, 19.833278], [-101.331122, 19.833421], [-101.331185, 19.833637], [-101.331186, 19.833687], [-101.331174, 19.833762], [-101.331039, 19.834037], [-101.331024, 19.834163], [-101.331036, 19.834225], [-101.331067, 19.83428], [-101.331353, 19.834657], [-101.33171, 19.834857], [-101.331743, 19.83486], [-101.331857, 19.834863], [-101.332269, 19.834836], [-101.332624, 19.834899], [-101.333435, 19.835082], [-101.333506, 19.835103], [-101.334621, 19.835466], [-101.335113, 19.835625], [-101.335515, 19.835756], [-101.335852, 19.835161], [-101.335965, 19.834951], [-101.336129, 19.8348], [-101.336211, 19.83473], [-101.336291, 19.834683], [-101.336329, 19.834671], [-101.336384, 19.834654], [-101.336501, 19.834643], [-101.336685, 19.834651], [-101.336795, 19.834651], [-101.33685, 19.834645], [-101.336894, 19.834631], [-101.336981, 19.834594], [-101.337201, 19.834444], [-101.337621, 19.834135], [-101.337746, 19.834033], [-101.337872, 19.833897], [-101.33794, 19.833776], [-101.338003, 19.833639], [-101.33808, 19.83333], [-101.338508, 19.832588], [-101.338655, 19.832292], [-101.338749, 19.831995], [-101.338821, 19.831647], [-101.338891, 19.831173], [-101.338931, 19.830642], [-101.339539, 19.829651], [-101.339739, 19.829301], [-101.339861, 19.829057], [-101.340138, 19.828345], [-101.340189, 19.828197], [-101.340235, 19.828026], [-101.340247, 19.827894], [-101.340247, 19.82775], [-101.340214, 19.827434], [-101.340196, 19.827268], [-101.340189, 19.827088], [-101.340205, 19.826945], [-101.340247, 19.826782], [-101.340317, 19.826655], [-101.340393, 19.826555], [-101.340477, 19.826495], [-101.340563, 19.826446], [-101.340667, 19.826409], [-101.342401, 19.82598], [-101.342571, 19.825936], [-101.342719, 19.825912], [-101.342906, 19.825894], [-101.344999, 19.825686], [-101.345774, 19.82561], [-101.347147, 19.825463], [-101.347521, 19.825441], [-101.350729, 19.825362], [-101.351034, 19.825347], [-101.351224, 19.825324], [-101.351394, 19.825294], [-101.352238, 19.825123], [-101.35238, 19.825105], [-101.352541, 19.825106], [-101.352738, 19.825122], [-101.35299, 19.825165], [-101.353583, 19.825286], [-101.353705, 19.825293], [-101.353831, 19.825275], [-101.353954, 19.825217], [-101.354042, 19.825141], [-101.354127, 19.825038], [-101.354791, 19.824033], [-101.354856, 19.823968], [-101.354941, 19.823914], [-101.355031, 19.823879], [-101.355149, 19.823843], [-101.355478, 19.823764], [-101.355663, 19.823709], [-101.355789, 19.823651], [-101.355918, 19.823559], [-101.356044, 19.823456], [-101.356831, 19.822675], [-101.357007, 19.822524], [-101.357168, 19.822403], [-101.358915, 19.821225], [-101.359114, 19.821106], [-101.359248, 19.821036], [-101.35941, 19.820972], [-101.359563, 19.820925], [-101.362914, 19.819929], [-101.363196, 19.819842], [-101.363413, 19.819762], [-101.363616, 19.819671], [-101.36721, 19.817966], [-101.367459, 19.817851], [-101.367597, 19.817801], [-101.367721, 19.817779], [-101.367875, 19.817768], [-101.369322, 19.818159], [-101.369608, 19.818226], [-101.369826, 19.818265], [-101.370032, 19.818284], [-101.370553, 19.818336], [-101.370811, 19.818365], [-101.371021, 19.818408], [-101.371194, 19.818461], [-101.371417, 19.818558], [-101.371631, 19.818664], [-101.371853, 19.81883], [-101.371992, 19.818957], [-101.372104, 19.819081], [-101.372204, 19.819216], [-101.372291, 19.819341], [-101.372376, 19.819518], [-101.372456, 19.81972], [-101.372645, 19.820227], [-101.372729, 19.820414], [-101.372797, 19.820541], [-101.373096, 19.821053], [-101.373521, 19.821773], [-101.373701, 19.822154], [-101.373835, 19.822421], [-101.374379, 19.823298], [-101.374499, 19.823461], [-101.374687, 19.823674], [-101.374886, 19.823877], [-101.375033, 19.824049], [-101.375157, 19.824217], [-101.375427, 19.824654], [-101.375542, 19.824871], [-101.37564, 19.825096], [-101.375774, 19.825429], [-101.375845, 19.825583], [-101.375903, 19.82569], [-101.375985, 19.82581], [-101.376134, 19.826023], [-101.37623, 19.826192], [-101.376257, 19.82627], [-101.376278, 19.826386], [-101.376369, 19.826981], [-101.376442, 19.827363], [-101.376525, 19.827648], [-101.377302, 19.830357], [-101.377366, 19.830649], [-101.377467, 19.831357], [-101.377687, 19.83341], [-101.377744, 19.83385], [-101.377814, 19.834232], [-101.37788, 19.834411], [-101.377982, 19.834566], [-101.378119, 19.834737], [-101.378203, 19.834826], [-101.378333, 19.834928], [-101.378489, 19.834993], [-101.378408, 19.835698], [-101.378419, 19.836133], [-101.378444, 19.836646], [-101.378254, 19.837418], [-101.378238, 19.837486], [-101.378241, 19.837673], [-101.378248, 19.837689], [-101.378261, 19.837704], [-101.37829, 19.837717], [-101.378878, 19.837882], [-101.379079, 19.837939], [-101.379508, 19.838082]]]}}, {"type": "Feature", "properties": {"id": "F15_1", "routeId": "F15", "routeName": "Chiquimitio (Por Torreon Nuevo)", "direction": "vuelta", "directionIndex": 2, "color": "#FFC800", "casingColor": "#222222", "transportType": "bus", "name": "Vuelta"}, "geometry": {"type": "MultiLineString", "coordinates": [[[-101.379508, 19.838082], [-101.379079, 19.837939], [-101.378878, 19.837882], [-101.37829, 19.837717], [-101.378261, 19.837704], [-101.378248, 19.837689], [-101.378241, 19.837673], [-101.378238, 19.837486], [-101.378254, 19.837418], [-101.378444, 19.836646], [-101.378419, 19.836133], [-101.378408, 19.835698], [-101.378489, 19.834993], [-101.368377, 19.817879], [-101.368126, 19.817811], [-101.367875, 19.817768], [-101.367721, 19.817779], [-101.367597, 19.817801], [-101.367459, 19.817851], [-101.36721, 19.817966], [-101.363616, 19.819671], [-101.363413, 19.819762], [-101.363196, 19.819842], [-101.362914, 19.819929], [-101.359563, 19.820925], [-101.35941, 19.820972], [-101.359248, 19.821036], [-101.359114, 19.821106], [-101.358915, 19.821225], [-101.357168, 19.822403], [-101.357007, 19.822524], [-101.356831, 19.822675], [-101.356044, 19.823456], [-101.355918, 19.823559], [-101.355789, 19.823651], [-101.355663, 19.823709], [-101.355478, 19.823764], [-101.355149, 19.823843], [-101.355031, 19.823879], [-101.354941, 19.823914], [-101.354856, 19.823968], [-101.354791, 19.824033], [-101.354127, 19.825038], [-101.354042, 19.825141], [-101.353954, 19.825217], [-101.353831, 19.825275], [-101.353705, 19.825293], [-101.353583, 19.825286], [-101.35299, 19.825165], [-101.352738, 19.825122], [-101.352541, 19.825106], [-101.35238, 19.825105], [-101.352238, 19.825123], [-101.351394, 19.825294], [-101.351224, 19.825324], [-101.351034, 19.825347], [-101.350729, 19.825362], [-101.347521, 19.825441], [-101.347147, 19.825463], [-101.345774, 19.82561], [-101.344999, 19.825686], [-101.342906, 19.825894], [-101.342719, 19.825912], [-101.342571, 19.825936], [-101.342401, 19.82598], [-101.340667, 19.826409], [-101.340563, 19.826446], [-101.340477, 19.826495], [-101.340393, 19.826555], [-101.340317, 19.826655], [-101.340247, 19.826782], [-101.340205, 19.826945], [-101.340189, 19.827088], [-101.340196, 19.827268], [-101.340214, 19.827434], [-101.340247, 19.82775], [-101.340247, 19.827894], [-101.340235, 19.828026], [-101.340189, 19.828197], [-101.340138, 19.828345], [-101.339861, 19.829057], [-101.339739, 19.829301], [-101.339539, 19.829651], [-101.338931, 19.830642], [-101.338891, 19.831173], [-101.338821, 19.831647], [-101.338749, 19.831995], [-101.338655, 19.832292], [-101.338508, 19.832588], [-101.33808, 19.83333], [-101.338003, 19.833639], [-101.33794, 19.833776], [-101.337872, 19.833897], [-101.337746, 19.834033], [-101.337621, 19.834135], [-101.337201, 19.834444], [-101.336981, 19.834594], [-101.336894, 19.834631], [-101.33685, 19.834645], [-101.336795, 19.834651], [-101.336685, 19.834651], [-101.336501, 19.834643], [-101.336384, 19.834654], [-101.336329, 19.834671], [-101.336291, 19.834683], [-101.336211, 19.83473], [-101.336129, 19.8348], [-101.335965, 19.834951], [-101.335852, 19.835161], [-101.335515, 19.835756], [-101.335113, 19.835625], [-101.334621, 19.835466], [-101.333506, 19.835103], [-101.333435, 19.835082], [-101.332624, 19.834899], [-101.332269, 19.834836], [-101.331857, 19.834863], [-101.331794, 19.834861], [-101.331302, 19.83459], [-101.331067, 19.83428], [-101.331036, 19.834225], [-101.331024, 19.834163], [-101.331039, 19.834037], [-101.331174, 19.833762], [-101.331186, 19.833687], [-101.331185, 19.833637], [-101.331122, 19.833421], [-101.331081, 19.833278], [-101.331074, 19.833156], [-101.331238, 19.832171], [-101.331351, 19.831529], [-101.331394, 19.831196], [-101.331365, 19.831004], [-101.331295, 19.830827], [-101.331142, 19.830592], [-101.330973, 19.830428], [-101.330072, 19.829752], [-101.329642, 19.829509], [-101.328134, 19.82881], [-101.325622, 19.827617], [-101.32458, 19.827067], [-101.324453, 19.826929], [-101.324382, 19.826729], [-101.324007, 19.825199], [-101.323623, 19.823637], [-101.323606, 19.823201], [-101.323725, 19.822757], [-101.32447, 19.821033], [-101.324911, 19.819919], [-101.324942, 19.819798], [-101.324953, 19.819676], [-101.324938, 19.819552], [-101.324902, 19.819433], [-101.32484, 19.81932], [-101.324669, 19.81911], [-101.324444, 19.818898], [-101.323536, 19.818117], [-101.323424, 19.818005], [-101.323239, 19.817771], [-101.323165, 19.817648], [-101.323056, 19.817401], [-101.322723, 19.816518], [-101.322666, 19.816248], [-101.322664, 19.816008], [-101.322683, 19.815776], [-101.322761, 19.8156], [-101.322848, 19.815503], [-101.323111, 19.815279], [-101.323186, 19.815131], [-101.323193, 19.815027], [-101.323155, 19.814957], [-101.32311, 19.814926], [-101.323034, 19.814897], [-101.322906, 19.81489], [-101.322154, 19.814957], [-101.321762, 19.814946], [-101.321634, 19.814919], [-101.321156, 19.814744], [-101.320888, 19.814663], [-101.320674, 19.814625], [-101.320413, 19.814625], [-101.320102, 19.814691], [-101.319709, 19.814861], [-101.319333, 19.81496], [-101.318487, 19.815146], [-101.317875, 19.815338], [-101.317644, 19.815372], [-101.317199, 19.815373], [-101.316908, 19.815439], [-101.316413, 19.815644], [-101.315908, 19.815793], [-101.315349, 19.815999], [-101.314778, 19.8163], [-101.314536, 19.816491], [-101.314394, 19.816583], [-101.314156, 19.816606], [-101.313892, 19.816583], [-101.313504, 19.816658], [-101.313249, 19.816778], [-101.312947, 19.816917], [-101.312532, 19.816927], [-101.311596, 19.816851], [-101.310666, 19.816616], [-101.31044, 19.816433], [-101.310012, 19.815918], [-101.307748, 19.813531], [-101.307322, 19.812986], [-101.306716, 19.812242], [-101.306198, 19.811658], [-101.306009, 19.811518], [-101.305047, 19.811061], [-101.304089, 19.810657], [-101.301796, 19.809735], [-101.299773, 19.808911], [-101.299174, 19.808661], [-101.298546, 19.808399], [-101.293874, 19.806583], [-101.292234, 19.805996], [-101.291235, 19.805623], [-101.28757, 19.804184], [-101.2846, 19.803002], [-101.28234, 19.802087], [-101.28147, 19.801743], [-101.280453, 19.801336], [-101.275784, 19.799324], [-101.274671, 19.798838], [-101.272622, 19.798], [-101.27204, 19.797752], [-101.271831, 19.797655], [-101.271692, 19.797575], [-101.271602, 19.797512], [-101.2715, 19.797425], [-101.271442, 19.79736], [-101.271396, 19.797302], [-101.271317, 19.797187], [-101.270886, 19.796657], [-101.270693, 19.796401], [-101.270517, 19.796177], [-101.270431, 19.796053], [-101.270396, 19.795992], [-101.270369, 19.795931], [-101.270355, 19.795858], [-101.270351, 19.79577], [-101.270345, 19.795373], [-101.270339, 19.795162], [-101.270335, 19.795031], [-101.270339, 19.794954], [-101.270358, 19.794888], [-101.270394, 19.794823], [-101.270442, 19.794755], [-101.270573, 19.79457], [-101.270667, 19.794424], [-101.270752, 19.794232], [-101.270774, 19.794174], [-101.270785, 19.794121], [-101.270789, 19.794068], [-101.270789, 19.793999], [-101.270783, 19.79383], [-101.270774, 19.793717], [-101.270751, 19.793596], [-101.270702, 19.793474], [-101.270568, 19.793238], [-101.270406, 19.792967], [-101.270278, 19.792818], [-101.270109, 19.792614], [-101.269864, 19.792365], [-101.269652, 19.792183], [-101.269088, 19.791763], [-101.268314, 19.791245], [-101.267422, 19.790642], [-101.26647, 19.79032], [-101.265716, 19.790054], [-101.265518, 19.789981], [-101.265332, 19.789889], [-101.265201, 19.789816], [-101.26502, 19.789696], [-101.263989, 19.789018], [-101.263857, 19.788949], [-101.263707, 19.788888], [-101.26357, 19.788852], [-101.263437, 19.788831], [-101.263301, 19.788817], [-101.263075, 19.788794], [-101.262325, 19.788695], [-101.261183, 19.788553], [-101.260512, 19.788469], [-101.25943, 19.788339], [-101.258985, 19.788285], [-101.258885, 19.788273], [-101.25881, 19.78826], [-101.258727, 19.788238], [-101.258658, 19.788213], [-101.258566, 19.788181], [-101.258499, 19.78816], [-101.258427, 19.788142], [-101.258363, 19.788133], [-101.258286, 19.788131], [-101.258187, 19.788136], [-101.258043, 19.788154], [-101.257018, 19.7883], [-101.255629, 19.788522], [-101.255492, 19.788546], [-101.255355, 19.788593], [-101.255246, 19.788643], [-101.255156, 19.788701], [-101.255066, 19.788783], [-101.254902, 19.78894], [-101.25479, 19.789058], [-101.25453, 19.789349], [-101.254431, 19.789456], [-101.254371, 19.789512], [-101.254282, 19.789583], [-101.253964, 19.789832], [-101.253406, 19.790319], [-101.253214, 19.790132], [-101.252909, 19.789843], [-101.252696, 19.789991], [-101.25213, 19.790401], [-101.251869, 19.790649], [-101.251768, 19.790744], [-101.251666, 19.790875], [-101.251529, 19.79106], [-101.251326, 19.791359], [-101.251206, 19.791512], [-101.251096, 19.791683], [-101.251015, 19.791833], [-101.250837, 19.792192], [-101.25065, 19.792628], [-101.250568, 19.792803], [-101.250499, 19.792869], [-101.250439, 19.792932], [-101.250394, 19.792969], [-101.250349, 19.792995], [-101.250307, 19.793012], [-101.250257, 19.793027], [-101.250219, 19.793037], [-101.250167, 19.793041], [-101.250083, 19.793023], [-101.249991, 19.792993], [-101.24966, 19.79287], [-101.249363, 19.792761], [-101.24842, 19.792402], [-101.247547, 19.792127], [-101.24621, 19.791785], [-101.246061, 19.791743], [-101.245934, 19.791693], [-101.24582, 19.791629], [-101.245706, 19.791552], [-101.245572, 19.79144], [-101.245238, 19.791136], [-101.244762, 19.790707], [-101.244648, 19.790598], [-101.24456, 19.790489], [-101.244453, 19.790349], [-101.243681, 19.789276], [-101.24302, 19.788399], [-101.242836, 19.788139], [-101.242774, 19.788002], [-101.242732, 19.787879], [-101.242708, 19.787782], [-101.242678, 19.787616], [-101.242639, 19.787365], [-101.242557, 19.786884], [-101.242511, 19.786713], [-101.242472, 19.786598], [-101.242423, 19.786489], [-101.24236, 19.786369], [-101.242193, 19.786102], [-101.241449, 19.784927], [-101.240718, 19.783736], [-101.239789, 19.782273], [-101.239655, 19.782065], [-101.239578, 19.781925], [-101.239521, 19.781806], [-101.239405, 19.78153], [-101.239094, 19.780783], [-101.238667, 19.779731], [-101.238232, 19.77862], [-101.238147, 19.778353], [-101.238067, 19.778258], [-101.237976, 19.778182], [-101.237868, 19.778125], [-101.237454, 19.777995], [-101.237333, 19.777921], [-101.237251, 19.777804], [-101.237164, 19.777671], [-101.237022, 19.777364], [-101.235869, 19.774979], [-101.235751, 19.774694], [-101.23562, 19.774469], [-101.235452, 19.774312], [-101.235236, 19.774196], [-101.234782, 19.77399], [-101.234604, 19.7739], [-101.234392, 19.77376], [-101.234244, 19.77359], [-101.234142, 19.773471], [-101.233313, 19.772352], [-101.232017, 19.770475], [-101.231921, 19.770314], [-101.231868, 19.770194], [-101.231841, 19.770073], [-101.231817, 19.76994], [-101.23162, 19.768378], [-101.231108, 19.764166], [-101.231033, 19.763611], [-101.230971, 19.763156], [-101.230638, 19.76027], [-101.230498, 19.759268], [-101.230237, 19.75687], [-101.230186, 19.756587], [-101.230144, 19.756465], [-101.230087, 19.756361], [-101.229967, 19.756157], [-101.229776, 19.756017], [-101.229629, 19.755949], [-101.229432, 19.755916], [-101.229331, 19.755914], [-101.229149, 19.75597], [-101.228925, 19.756024], [-101.227762, 19.756458], [-101.227508, 19.756525], [-101.227329, 19.756552], [-101.227129, 19.756518], [-101.226851, 19.756392], [-101.225915, 19.755977], [-101.225223, 19.755652], [-101.223741, 19.754898], [-101.223381, 19.754714], [-101.222429, 19.754229], [-101.222313, 19.754171], [-101.221919, 19.75397], [-101.221554, 19.753784], [-101.22132, 19.75366], [-101.221237, 19.753616], [-101.220768, 19.753367], [-101.219929, 19.752921], [-101.219111, 19.752486], [-101.218683, 19.752259], [-101.218162, 19.752037], [-101.217992, 19.751968], [-101.217899, 19.751921], [-101.217779, 19.75186], [-101.217345, 19.751632], [-101.217003, 19.751466], [-101.216596, 19.751275], [-101.215622, 19.750829], [-101.215039, 19.750554], [-101.211435, 19.748816], [-101.210648, 19.748203], [-101.210602, 19.748167], [-101.210038, 19.747729], [-101.209459, 19.747277], [-101.209173, 19.747042], [-101.208989, 19.746886], [-101.208475, 19.746496], [-101.208005, 19.746153], [-101.207362, 19.745682], [-101.206825, 19.745346], [-101.206584, 19.74548], [-101.205665, 19.745901], [-101.205309, 19.746062], [-101.205168, 19.746124], [-101.204685, 19.746345], [-101.204363, 19.746496], [-101.203845, 19.746725], [-101.203769, 19.746605], [-101.203347, 19.745946], [-101.203138, 19.745556], [-101.203099, 19.745504], [-101.202892, 19.745159], [-101.202641, 19.744782], [-101.202516, 19.744587], [-101.201729, 19.743296], [-101.201512, 19.742916], [-101.201385, 19.742693], [-101.201276, 19.742515], [-101.201086, 19.742198], [-101.20096, 19.74198], [-101.200462, 19.741271], [-101.199739, 19.740355], [-101.199627, 19.740209], [-101.19959, 19.739876], [-101.199582, 19.739787], [-101.199576, 19.739708], [-101.199574, 19.739686], [-101.199561, 19.739563], [-101.199486, 19.739156], [-101.199461, 19.73901], [-101.199418, 19.738699], [-101.199397, 19.738565], [-101.199348, 19.73825], [-101.19933, 19.738122], [-101.199289, 19.737808], [-101.199265, 19.737693], [-101.199223, 19.737249], [-101.199202, 19.737067], [-101.199171, 19.736817], [-101.199113, 19.736377], [-101.19907, 19.736198], [-101.199009, 19.735954], [-101.198989, 19.735892], [-101.198933, 19.735721], [-101.198921, 19.735668], [-101.198869, 19.735441], [-101.198815, 19.735203], [-101.198742, 19.734881], [-101.198689, 19.734658], [-101.198644, 19.734493], [-101.198617, 19.734367], [-101.198636, 19.734261], [-101.198679, 19.734116], [-101.198761, 19.733908], [-101.19885, 19.733684], [-101.198889, 19.733573], [-101.199011, 19.733214], [-101.199037, 19.733147], [-101.19918, 19.73268], [-101.199226, 19.732536], [-101.199213, 19.732449], [-101.199247, 19.73233], [-101.199284, 19.732203], [-101.199371, 19.731928], [-101.199387, 19.731677], [-101.199346, 19.731418], [-101.198961, 19.730387], [-101.198941, 19.730342], [-101.198604, 19.729479], [-101.198541, 19.729366], [-101.198497, 19.729312], [-101.198453, 19.729312], [-101.198412, 19.729302], [-101.198374, 19.729282], [-101.198345, 19.729256], [-101.198323, 19.729225], [-101.19831, 19.729189], [-101.198306, 19.729152], [-101.198311, 19.729112], [-101.198328, 19.729075], [-101.198215, 19.728601], [-101.198088, 19.728148], [-101.19793, 19.727717], [-101.197898, 19.727629], [-101.197826, 19.727558], [-101.197584, 19.726776], [-101.197535, 19.726631], [-101.197483, 19.726495], [-101.197087, 19.725383], [-101.196922, 19.724918], [-101.196867, 19.724823], [-101.195864, 19.724673], [-101.195447, 19.724577], [-101.19489, 19.724414], [-101.194459, 19.72426], [-101.193366, 19.723778], [-101.192944, 19.723592], [-101.192881, 19.723564], [-101.192554, 19.72342], [-101.191827, 19.723083], [-101.191585, 19.722964], [-101.190213, 19.722358], [-101.189134, 19.721861], [-101.188822, 19.721714], [-101.188381, 19.72151], [-101.188266, 19.721424], [-101.188215, 19.721275], [-101.18839, 19.720789], [-101.188469, 19.720369], [-101.18853, 19.719547], [-101.188568, 19.718483], [-101.188586, 19.718225], [-101.188601, 19.718004], [-101.188613, 19.717785], [-101.188588, 19.717617], [-101.188626, 19.717246], [-101.188672, 19.716832], [-101.1887, 19.716625], [-101.188719, 19.716447], [-101.188977, 19.715626], [-101.189014, 19.715442], [-101.189017, 19.715263], [-101.189003, 19.715118], [-101.188787, 19.714252], [-101.188639, 19.713763], [-101.188471, 19.713353], [-101.188421, 19.713188], [-101.188365, 19.713001], [-101.188322, 19.712855], [-101.186474, 19.713441], [-101.186155, 19.713635], [-101.18539, 19.714181], [-101.18457, 19.714817], [-101.184155, 19.715129], [-101.182467, 19.71643], [-101.182412, 19.716472], [-101.182335, 19.716372], [-101.182279, 19.7163]]]}}]}