{
  "type": "FeatureCollection",
  "features": [
    {
      "type": "Feature",
      "properties": {
        "kind": "black-calibrated"
      },
      "geometry": {
        "type": "LineString",
        "coordinates": [
          [
            -101.1739075978242,
            19.732384000011468
          ],
          [
            -101.17443758385069,
            19.730783975971633
          ],
          [
            -101.17605277937135,
            19.729387591354286
          ],
          [
            -101.17577516763987,
            19.729213043277436
          ],
          [
            -101.17751655031009,
            19.727554836544453
          ],
          [
            -101.17779416204003,
            19.727263923082543
          ],
          [
            -101.17943459499153,
            19.726100269234557
          ],
          [
            -101.17956078213986,
            19.725460259618682
          ],
          [
            -101.18087312850048,
            19.72435478846326
          ],
          [
            -101.18912576813374,
            19.72330749999557
          ],
          [
            -101.18210976256802,
            19.722376576922713
          ],
          [
            -101.18594585193604,
            19.721038374996237
          ],
          [
            -101.18402780724661,
            19.720049269227648
          ],
          [
            -101.18397733238389,
            19.719263802881027
          ],
          [
            -101.18460826813164,
            19.71795469230285
          ],
          [
            -101.18433065640046,
            19.717867418264518
          ],
          [
            -101.18475969270654,
            19.716238302878576
          ],
          [
            -101.18488587985438,
            19.71545283653184
          ]
        ]
      }
    }
  ]
}