{"type": "FeatureCollection", "features": [{"type": "Feature", "properties": {"kind": "black"}, "geometry": {"type": "LineString", "coordinates": [[-101.15567039106145, 19.735], [-101.15941340782123, 19.730671474358974], [-101.15974860335196, 19.731027243589743], [-101.1599720670391, 19.730908653846154], [-101.16008379888268, 19.730552884615385], [-101.16030726256983, 19.730197115384616], [-101.15980446927374, 19.73025641025641], [-101.15935754189944, 19.73049358974359], [-101.15930167597766, 19.730434294871795], [-101.16030726256983, 19.730078525641026], [-101.16025139664805, 19.729189102564103], [-101.16053072625698, 19.728951923076924], [-101.1609217877095, 19.728655448717948], [-101.16125698324022, 19.72829967948718], [-101.16148044692737, 19.72794391025641], [-101.1618156424581, 19.72758814102564], [-101.16220670391061, 19.727291666666666], [-101.16259776536313, 19.72699519230769], [-101.16298882681563, 19.726698717948718], [-101.16332402234637, 19.72634294871795], [-101.16371508379888, 19.726046474358974], [-101.16405027932962, 19.725690705128205], [-101.16444134078212, 19.72539423076923], [-101.16483240223464, 19.725097756410257], [-101.16516759776536, 19.72474198717949], [-101.16555865921788, 19.724445512820513], [-101.16533519553073, 19.724564102564102], [-101.16494413407821, 19.724860576923078], [-101.1645530726257, 19.72515705128205], [-101.16416201117319, 19.725453525641026], [-101.16382681564245, 19.725809294871794], [-101.16349162011173, 19.726165064102563], [-101.16310055865922, 19.72646153846154], [-101.1627094972067, 19.72675801282051], [-101.16237430167598, 19.727113782051283], [-101.16198324022346, 19.727410256410256], [-101.16159217877095, 19.72770673076923], [-101.16125698324022, 19.7280625], [-101.16153631284917, 19.72770673076923], [-101.16187150837989, 19.727350961538463], [-101.16226256983241, 19.727054487179487], [-101.16265363128491, 19.72675801282051], [-101.16304469273743, 19.726402243589742], [-101.16343575418995, 19.72610576923077], [-101.16377094972067, 19.725749999999998], [-101.1641061452514, 19.72539423076923], [-101.16449720670391, 19.725097756410257], [-101.16488826815642, 19.72480128205128], [-101.16527932960894, 19.72450480769231], [-101.16567039106145, 19.724208333333333], [-101.16561452513966, 19.724089743589744], [-101.16561452513966, 19.723971153846154], [-101.16606145251397, 19.723733974358975], [-101.16645251396648, 19.7234375], [-101.166843575419, 19.723141025641027], [-101.16717877094972, 19.722785256410255], [-101.16756983240224, 19.722488782051283], [-101.16796089385474, 19.722192307692307], [-101.16835195530726, 19.721895833333335], [-101.16857541899441, 19.72171794871795], [-101.1681843575419, 19.722014423076924], [-101.16773743016759, 19.722251602564103], [-101.16734636871509, 19.722548076923076], [-101.16695530726257, 19.72284455128205], [-101.16662011173185, 19.72320032051282], [-101.16622905027933, 19.723496794871796], [-101.16583798882681, 19.723793269230768], [-101.16600558659218, 19.723615384615385], [-101.1663407821229, 19.723259615384617], [-101.16673184357542, 19.72296314102564], [-101.16712290502794, 19.722666666666665], [-101.16751396648044, 19.722370192307693], [-101.16790502793296, 19.722073717948717], [-101.16829608938548, 19.72177724358974], [-101.16879888268156, 19.72159935897436], [-101.16857541899441, 19.72159935897436], [-101.1663966480447, 19.72320032051282], [-101.1663407821229, 19.724564102564102], [-101.16667597765363, 19.72491987179487], [-101.16689944134077, 19.7246233974359], [-101.16706703910614, 19.724267628205126], [-101.16706703910614, 19.724030448717947], [-101.16650837988827, 19.724149038461537], [-101.1663966480447, 19.72450480769231], [-101.16701117318436, 19.723971153846154], [-101.16114525139665, 19.72829967948718], [-101.16075418994413, 19.728655448717948], [-101.1604189944134, 19.729011217948717], [-101.16053072625698, 19.728774038461538], [-101.1609217877095, 19.72841826923077], [-101.16885474860335, 19.721421474358973], [-101.16924581005587, 19.721125], [-101.16963687150837, 19.720828525641025], [-101.17002793296089, 19.720532051282053], [-101.17041899441341, 19.720235576923077], [-101.17075418994413, 19.71987980769231], [-101.17114525139665, 19.719583333333333], [-101.17148044692738, 19.719227564102564], [-101.17192737430167, 19.718990384615385], [-101.1722625698324, 19.718634615384616], [-101.17220670391062, 19.71857532051282], [-101.17187150837988, 19.718931089743588], [-101.17142458100558, 19.71916826923077], [-101.17108938547486, 19.71952403846154], [-101.17069832402234, 19.71982051282051], [-101.17036312849162, 19.72017628205128], [-101.1699720670391, 19.720472756410256], [-101.1695810055866, 19.720769230769232], [-101.16918994413408, 19.721065705128204], [-101.16879888268156, 19.72136217948718], [-101.1691340782123, 19.721065705128204], [-101.16946927374302, 19.720709935897435], [-101.16986033519552, 19.72041346153846], [-101.17025139664804, 19.720116987179487], [-101.17058659217876, 19.71976121794872], [-101.17097765363128, 19.719464743589743], [-101.1713687150838, 19.71916826923077], [-101.1717597765363, 19.718871794871795], [-101.17215083798882, 19.71857532051282], [-101.17265363128492, 19.71792307692308], [-101.17567039106144, 19.71792307692308], [-101.17717877094972, 19.718160256410258], [-101.17717877094972, 19.717626602564103], [-101.17756983240223, 19.717567307692306], [-101.17801675977654, 19.717804487179485], [-101.17812849162011, 19.717745192307692], [-101.17717877094972, 19.717448717948717], [-101.17790502793295, 19.71798237179487], [-101.17930167597765, 19.717626602564103], [-101.18220670391061, 19.717389423076924], [-101.18734636871508, 19.71697435897436], [-101.19019553072626, 19.716796474358976], [-101.19019553072626, 19.716677884615386], [-101.1904189944134, 19.716440705128203], [-101.1908659217877, 19.716677884615386], [-101.19108938547485, 19.716796474358976], [-101.19047486033519, 19.716440705128203], [-101.19092178770948, 19.71685576923077], [-101.18829608938547, 19.713179487179488], [-101.18265363128491, 19.71163782051282], [-101.17896648044692, 19.710866987179486], [-101.17913407821229, 19.710570512820514], [-101.17913407821229, 19.710214743589745], [-101.17902234636871, 19.709977564102566], [-101.1786312849162, 19.710274038461538], [-101.17851955307262, 19.710748397435896], [-101.17868715083799, 19.710748397435896], [-101.17801675977654, 19.710807692307693], [-101.17902234636871, 19.708435897435898], [-101.1804748603352, 19.705589743589744], [-101.18069832402234, 19.703277243589742], [-101.1804189944134, 19.701972756410257], [-101.18103351955307, 19.701616987179488], [-101.1809217877095, 19.699778846153848], [-101.18064245810055, 19.69835576923077], [-101.18125698324022, 19.698296474358976], [-101.18108938547486, 19.69823717948718], [-101.1804748603352, 19.69835576923077], [-101.18136871508379, 19.698059294871797], [-101.18108938547486, 19.70019391025641], [-101.17695530726256, 19.71347596153846], [-101.16879888268156, 19.722073717948717]]}}]}