{"type": "FeatureCollection", "features": [{"type": "Feature", "properties": {"kind": "green"}, "geometry": {"type": "LineString", "coordinates": [[-101.16069832402235, 19.728477564102565], [-101.16075418994413, 19.72841826923077], [-101.16120111731844, 19.72818108974359], [-101.16075418994413, 19.72829967948718], [-101.16036312849162, 19.72829967948718], [-101.1609217877095, 19.72818108974359], [-101.1608659217877, 19.728121794871793], [-101.16030726256983, 19.728240384615383], [-101.16081005586592, 19.728003205128203], [-101.16120111731844, 19.72770673076923], [-101.16097765363128, 19.72782532051282], [-101.16053072625698, 19.7280625], [-101.16069832402235, 19.72794391025641], [-101.16103351955307, 19.72758814102564], [-101.16148044692737, 19.727350961538463], [-101.16103351955307, 19.727528846153845], [-101.16120111731844, 19.727350961538463], [-101.16164804469274, 19.727113782051283], [-101.16198324022346, 19.72675801282051], [-101.16243016759776, 19.726520833333332], [-101.16287709497206, 19.726283653846153], [-101.1632122905028, 19.725927884615384], [-101.1636033519553, 19.72563141025641], [-101.16399441340782, 19.725334935897436], [-101.16393854748603, 19.72527564102564], [-101.16354748603352, 19.725572115384615], [-101.163156424581, 19.72586858974359], [-101.16282122905028, 19.72622435897436], [-101.16237430167598, 19.72646153846154], [-101.16192737430167, 19.726698717948718], [-101.16159217877095, 19.727054487179487], [-101.1613687150838, 19.727113782051283], [-101.16175977653631, 19.726817307692308], [-101.16215083798883, 19.726520833333332], [-101.16254189944134, 19.72622435897436], [-101.16293296089385, 19.725927884615384], [-101.16332402234637, 19.72563141025641], [-101.16371508379888, 19.725334935897436], [-101.16416201117319, 19.725097756410257], [-101.1645530726257, 19.72480128205128], [-101.16488826815642, 19.724445512820513], [-101.16522346368716, 19.724089743589744], [-101.16488826815642, 19.724326923076923], [-101.1645530726257, 19.72468269230769], [-101.16421787709497, 19.72503846153846], [-101.16427374301676, 19.72480128205128], [-101.16460893854749, 19.724445512820513], [-101.16494413407821, 19.724089743589744], [-101.16539106145251, 19.723852564102565], [-101.16522346368716, 19.723911858974358], [-101.1645530726257, 19.724445512820513], [-101.16337988826815, 19.72551282051282], [-101.1627094972067, 19.72610576923077], [-101.16175977653631, 19.726698717948718], [-101.1654469273743, 19.72367467948718], [-101.1658938547486, 19.7234375], [-101.16622905027933, 19.72308173076923], [-101.16662011173185, 19.722785256410255], [-101.1667877094972, 19.722488782051283], [-101.16645251396648, 19.72284455128205], [-101.16606145251397, 19.723141025641027], [-101.16567039106145, 19.7234375], [-101.16550279329608, 19.72355608974359], [-101.16583798882681, 19.72320032051282], [-101.16622905027933, 19.722903846153844], [-101.16656424581005, 19.722548076923076], [-101.16706703910614, 19.722370192307693], [-101.166843575419, 19.722370192307693], [-101.16617318435755, 19.722903846153844], [-101.16550279329608, 19.7234375], [-101.16706703910614, 19.722192307692307], [-101.16751396648044, 19.722014423076924], [-101.16784916201117, 19.72171794871795], [-101.16807262569833, 19.72148076923077], [-101.16768156424581, 19.72177724358974], [-101.16723463687151, 19.722014423076924], [-101.16712290502794, 19.722073717948717], [-101.16751396648044, 19.72177724358974], [-101.16790502793296, 19.72148076923077], [-101.16835195530726, 19.72124358974359], [-101.16868715083798, 19.72088782051282], [-101.16902234636872, 19.720532051282053], [-101.16935754189944, 19.72017628205128], [-101.16974860335195, 19.71987980769231], [-101.17008379888269, 19.71952403846154], [-101.17047486033519, 19.719227564102564], [-101.17047486033519, 19.719108974358974], [-101.17013966480447, 19.719464743589743], [-101.16974860335195, 19.71976121794872], [-101.16935754189944, 19.72005769230769], [-101.16902234636872, 19.72041346153846], [-101.16868715083798, 19.720769230769232], [-101.16835195530726, 19.721125], [-101.16812849162011, 19.721302884615383], [-101.16846368715083, 19.720947115384615], [-101.16879888268156, 19.720591346153846], [-101.1691340782123, 19.720235576923077], [-101.16946927374302, 19.71987980769231], [-101.16986033519552, 19.719583333333333], [-101.17019553072626, 19.719227564102564], [-101.17058659217876, 19.718931089743588], [-101.17075418994413, 19.718753205128206], [-101.17019553072626, 19.71916826923077], [-101.16941340782122, 19.71987980769231], [-101.16851955307263, 19.720769230769232], [-101.16734636871509, 19.721836538461538], [-101.17069832402234, 19.71869391025641], [-101.17075418994413, 19.718516025641026], [-101.17092178770949, 19.718397435897437], [-101.17097765363128, 19.71833814102564], [-101.17120111731843, 19.718160256410258], [-101.17153631284916, 19.717804487179485], [-101.17187150837988, 19.717448717948717], [-101.1722625698324, 19.717152243589744], [-101.17265363128492, 19.71685576923077], [-101.17304469273743, 19.716559294871796], [-101.17337988826816, 19.716203525641024], [-101.17365921787709, 19.715907051282052], [-101.17326815642458, 19.716203525641024], [-101.17287709497207, 19.7165], [-101.17254189944134, 19.71685576923077], [-101.17215083798882, 19.717152243589744], [-101.1717597765363, 19.717448717948717], [-101.17142458100558, 19.717804487179485], [-101.17103351955308, 19.71810096153846], [-101.171312849162, 19.717804487179485], [-101.17164804469273, 19.717448717948717], [-101.17203910614525, 19.717152243589744], [-101.17243016759777, 19.71685576923077], [-101.17276536312849, 19.7165], [-101.17315642458101, 19.716203525641024], [-101.17354748603351, 19.715907051282052], [-101.17393854748603, 19.715610576923076], [-101.17377094972066, 19.715669871794873], [-101.17371508379888, 19.715610576923076], [-101.17416201117318, 19.715373397435897], [-101.1744972067039, 19.71501762820513], [-101.17483240223463, 19.71466185897436], [-101.17483240223463, 19.71454326923077], [-101.1744972067039, 19.71489903846154], [-101.17416201117318, 19.715254807692308], [-101.17360335195531, 19.715669871794873], [-101.17254189944134, 19.716677884615386], [-101.1713687150838, 19.717626602564103], [-101.17265363128492, 19.71833814102564], [-101.17326815642458, 19.718397435897437], [-101.17382681564246, 19.718516025641026], [-101.17444134078212, 19.71857532051282], [-101.17511173184357, 19.71857532051282], [-101.17578212290502, 19.71857532051282], [-101.17639664804469, 19.718516025641026], [-101.17701117318435, 19.71845673076923], [-101.17762569832402, 19.718397435897437], [-101.17824022346369, 19.71833814102564], [-101.17879888268156, 19.71821955128205], [-101.17935754189944, 19.71810096153846], [-101.1799720670391, 19.718041666666668], [-101.18053072625698, 19.71792307692308], [-101.18120111731844, 19.71792307692308], [-101.18175977653631, 19.717804487179485], [-101.18237430167598, 19.717745192307692], [-101.18298882681563, 19.717685897435896], [-101.18354748603352, 19.717567307692306], [-101.18410614525139, 19.717448717948717], [-101.18477653631284, 19.717448717948717], [-101.1853910614525, 19.717389423076924], [-101.18606145251397, 19.717389423076924], [-101.18673184357542, 19.717389423076924], [-101.18734636871508, 19.717330128205127], [-101.18801675977653, 19.717330128205127], [-101.18868715083798, 19.717330128205127], [-101.18935754189944, 19.717330128205127], [-101.19002793296089, 19.717330128205127], [-101.19064245810056, 19.717270833333334], [-101.19125698324022, 19.717211538461537], [-101.1918156424581, 19.717092948717948], [-101.19237430167597, 19.71697435897436], [-101.19287709497206, 19.716796474358976], [-101.19343575418993, 19.716677884615386], [-101.19399441340781, 19.716559294871796], [-101.19466480446927, 19.716559294871796], [-101.19472067039105, 19.7165], [-101.1940502793296, 19.7165], [-101.19349162011173, 19.71661858974359], [-101.19293296089384, 19.71673717948718], [-101.19237430167597, 19.71685576923077], [-101.1918156424581, 19.71697435897436], [-101.191312849162, 19.717152243589744], [-101.19069832402234, 19.717211538461537], [-101.19008379888268, 19.717270833333334], [-101.18941340782122, 19.717270833333334], [-101.18874301675977, 19.717270833333334], [-101.18807262569833, 19.717270833333334], [-101.18740223463686, 19.717270833333334], [-101.1867877094972, 19.717330128205127], [-101.18611731843575, 19.717330128205127], [-101.1854469273743, 19.717330128205127], [-101.18483240223463, 19.717389423076924], [-101.18416201117319, 19.717389423076924], [-101.18354748603352, 19.717448717948717], [-101.18298882681563, 19.717567307692306], [-101.18243016759776, 19.717685897435896], [-101.18181564245809, 19.717745192307692], [-101.18120111731844, 19.717804487179485], [-101.18058659217877, 19.717863782051282], [-101.1800279329609, 19.71798237179487], [-101.17941340782123, 19.718041666666668], [-101.17885474860334, 19.718160256410258], [-101.17824022346369, 19.71821955128205], [-101.1776815642458, 19.71833814102564], [-101.17706703910615, 19.718397435897437], [-101.17645251396648, 19.71845673076923], [-101.17583798882681, 19.718516025641026], [-101.17516759776537, 19.718516025641026], [-101.1744972067039, 19.718516025641026], [-101.17432960893855, 19.71845673076923], [-101.175, 19.71845673076923], [-101.17567039106144, 19.71845673076923], [-101.17628491620111, 19.718397435897437], [-101.17689944134078, 19.71833814102564], [-101.17751396648045, 19.718278846153847], [-101.17812849162011, 19.71821955128205], [-101.17868715083799, 19.71810096153846], [-101.17924581005586, 19.71798237179487], [-101.17986033519553, 19.71792307692308], [-101.1804189944134, 19.717804487179485], [-101.18108938547486, 19.717804487179485], [-101.18164804469274, 19.717685897435896], [-101.1822625698324, 19.717626602564103], [-101.18287709497206, 19.717567307692306], [-101.18343575418994, 19.717448717948717], [-101.18399441340782, 19.717330128205127], [-101.18466480446926, 19.717330128205127], [-101.18527932960893, 19.717270833333334], [-101.18594972067038, 19.717270833333334], [-101.18662011173184, 19.717270833333334], [-101.18723463687151, 19.717211538461537], [-101.18790502793296, 19.717211538461537], [-101.1885754189944, 19.717211538461537], [-101.18924581005587, 19.717211538461537], [-101.18991620111731, 19.717211538461537], [-101.19053072625698, 19.717152243589744], [-101.19114525139665, 19.717092948717948], [-101.19170391061452, 19.71697435897436], [-101.1922625698324, 19.71685576923077], [-101.19276536312849, 19.716677884615386], [-101.19332402234636, 19.716559294871796], [-101.19388268156423, 19.716440705128203], [-101.1945530726257, 19.716440705128203], [-101.19472067039105, 19.716322115384614], [-101.1941061452514, 19.71638141025641], [-101.19349162011173, 19.716440705128203], [-101.19293296089384, 19.716559294871796], [-101.19231843575419, 19.71673717948718], [-101.1917597765363, 19.71685576923077], [-101.19120111731843, 19.717033653846155], [-101.19058659217876, 19.717092948717948], [-101.1899720670391, 19.717152243589744], [-101.18930167597765, 19.717152243589744], [-101.1886312849162, 19.717152243589744], [-101.18796089385474, 19.717152243589744], [-101.18729050279329, 19.717152243589744], [-101.18667597765362, 19.717211538461537], [-101.18600558659217, 19.717211538461537], [-101.18533519553073, 19.717211538461537], [-101.18472067039106, 19.717270833333334], [-101.18405027932961, 19.717270833333334], [-101.18343575418994, 19.717330128205127], [-101.18287709497206, 19.717448717948717], [-101.18231843575418, 19.717567307692306], [-101.18170391061452, 19.717626602564103], [-101.18108938547486, 19.717685897435896], [-101.1804748603352, 19.717745192307692], [-101.17991620111731, 19.717863782051282], [-101.17930167597765, 19.71792307692308], [-101.17874301675977, 19.718041666666668], [-101.17812849162011, 19.71810096153846], [-101.17756983240223, 19.71821955128205], [-101.17695530726256, 19.718278846153847], [-101.1763407821229, 19.71833814102564], [-101.17572625698324, 19.718397435897437], [-101.17505586592179, 19.718397435897437], [-101.17438547486033, 19.718397435897437], [-101.17382681564246, 19.718397435897437], [-101.17393854748603, 19.71833814102564], [-101.17332402234636, 19.718397435897437], [-101.17388268156424, 19.718278846153847], [-101.17321229050279, 19.71833814102564], [-101.17343575418994, 19.71821955128205], [-101.17293296089385, 19.718278846153847], [-101.17304469273743, 19.718160256410258], [-101.17259776536312, 19.718160256410258], [-101.17416201117318, 19.715136217948718], [-101.1744972067039, 19.71478044871795], [-101.17483240223463, 19.71442467948718], [-101.17522346368715, 19.714128205128205], [-101.17527932960894, 19.713950320512822], [-101.1749441340782, 19.71430608974359], [-101.17427374301676, 19.71489903846154], [-101.17516759776537, 19.713950320512822], [-101.17572625698324, 19.71383173076923], [-101.17617318435754, 19.71359455128205], [-101.17667597765363, 19.713416666666667], [-101.17717877094972, 19.71323878205128], [-101.1776815642458, 19.7130608974359], [-101.17812849162011, 19.71282371794872], [-101.1786312849162, 19.712645833333333], [-101.17913407821229, 19.712467948717947], [-101.17963687150838, 19.712290064102564], [-101.18019553072625, 19.712171474358975], [-101.1808659217877, 19.712171474358975], [-101.18142458100559, 19.712171474358975], [-101.18209497206703, 19.712171474358975], [-101.1827094972067, 19.712230769230768], [-101.18326815642457, 19.712290064102564], [-101.18388268156424, 19.712349358974357], [-101.18449720670391, 19.712408653846154], [-101.18511173184358, 19.712467948717947], [-101.18572625698323, 19.712527243589744], [-101.18628491620112, 19.712645833333333], [-101.18684357541899, 19.712764423076923], [-101.18734636871508, 19.71294230769231], [-101.18773743016759, 19.71323878205128], [-101.1881284916201, 19.713535256410257], [-101.18851955307262, 19.71383173076923], [-101.1890782122905, 19.713950320512822], [-101.18963687150837, 19.71406891025641], [-101.19030726256983, 19.71406891025641], [-101.19092178770948, 19.714128205128205], [-101.1913687150838, 19.714365384615384], [-101.1918156424581, 19.714602564102563], [-101.19220670391061, 19.71489903846154], [-101.19265363128491, 19.715136217948718], [-101.193156424581, 19.715314102564104], [-101.19354748603351, 19.715610576923076], [-101.19393854748603, 19.715907051282052], [-101.19427374301675, 19.71626282051282], [-101.1944972067039, 19.71626282051282], [-101.19444134078212, 19.71614423076923], [-101.19421787709497, 19.71602564102564], [-101.19399441340781, 19.715907051282052], [-101.19393854748603, 19.715729166666666], [-101.19382681564245, 19.715551282051283], [-101.1936033519553, 19.715432692307694], [-101.19337988826815, 19.715314102564104], [-101.19326815642458, 19.715195512820515], [-101.19321229050279, 19.715136217948718], [-101.19270949720669, 19.71507692307692], [-101.19265363128491, 19.71501762820513], [-101.19259776536312, 19.714839743589742], [-101.19243016759776, 19.71478044871795], [-101.19203910614524, 19.714721153846153], [-101.19198324022345, 19.71466185897436], [-101.1918156424581, 19.71454326923077], [-101.19159217877095, 19.71442467948718], [-101.19142458100558, 19.714246794871794], [-101.19142458100558, 19.714128205128205], [-101.19103351955307, 19.71406891025641], [-101.1908659217877, 19.71406891025641], [-101.19069832402234, 19.713950320512822], [-101.19008379888268, 19.714009615384615], [-101.18958100558659, 19.713950320512822], [-101.19025139664804, 19.713950320512822], [-101.19058659217876, 19.713891025641026], [-101.18991620111731, 19.713891025641026], [-101.18930167597765, 19.713950320512822], [-101.18974860335194, 19.71383173076923], [-101.1904189944134, 19.71383173076923], [-101.18902234636872, 19.713891025641026], [-101.1890782122905, 19.713772435897436], [-101.18879888268155, 19.71371314102564], [-101.1885754189944, 19.713772435897436], [-101.18840782122905, 19.71371314102564], [-101.18824022346368, 19.71359455128205], [-101.18807262569833, 19.71335737179487], [-101.18807262569833, 19.71323878205128], [-101.18779329608938, 19.7130608974359], [-101.18762569832401, 19.71294230769231], [-101.18745810055866, 19.71282371794872], [-101.18729050279329, 19.71270512820513], [-101.18712290502793, 19.71270512820513], [-101.18689944134077, 19.712645833333333], [-101.1867877094972, 19.71258653846154], [-101.18673184357542, 19.712527243589744], [-101.18617318435754, 19.712527243589744], [-101.18622905027932, 19.712467948717947], [-101.18600558659217, 19.712467948717947], [-101.1858379888268, 19.712408653846154], [-101.18578212290502, 19.712349358974357], [-101.18527932960893, 19.712408653846154], [-101.18533519553073, 19.712349358974357], [-101.18516759776536, 19.712290064102564], [-101.18455307262569, 19.712349358974357], [-101.18483240223463, 19.712290064102564], [-101.18483240223463, 19.712230769230768], [-101.18421787709497, 19.712290064102564], [-101.1836033519553, 19.712230769230768], [-101.18427374301676, 19.712230769230768], [-101.18405027932961, 19.712171474358975], [-101.18343575418994, 19.712230769230768], [-101.18326815642457, 19.712171474358975], [-101.18388268156424, 19.71211217948718], [-101.18304469273743, 19.71211217948718], [-101.18248603351955, 19.71211217948718], [-101.18310055865922, 19.712052884615385], [-101.18254189944133, 19.712052884615385], [-101.18192737430167, 19.71211217948718], [-101.18153631284916, 19.712052884615385], [-101.18220670391061, 19.712052884615385], [-101.18231843575418, 19.71199358974359], [-101.18164804469274, 19.71199358974359], [-101.18103351955307, 19.712052884615385], [-101.1804189944134, 19.71211217948718], [-101.17980446927373, 19.712171474358975], [-101.17924581005586, 19.712290064102564], [-101.17874301675977, 19.712467948717947], [-101.17829608938547, 19.71270512820513], [-101.17779329608938, 19.712883012820512], [-101.17734636871508, 19.71312019230769], [-101.17684357541899, 19.713298076923078], [-101.17628491620111, 19.713416666666667], [-101.17583798882681, 19.713653846153846], [-101.17533519553072, 19.71383173076923], [-101.17578212290502, 19.71359455128205], [-101.17622905027933, 19.71335737179487], [-101.1767877094972, 19.71323878205128], [-101.1772905027933, 19.7130608974359], [-101.1777374301676, 19.71282371794872], [-101.17824022346369, 19.712645833333333], [-101.17868715083799, 19.712408653846154], [-101.17918994413408, 19.712230769230768], [-101.17974860335195, 19.71211217948718], [-101.18036312849162, 19.712052884615385], [-101.18097765363127, 19.71199358974359], [-101.18159217877094, 19.711934294871796], [-101.18131284916201, 19.711875], [-101.18075418994412, 19.71199358974359], [-101.18008379888268, 19.71199358974359], [-101.1795251396648, 19.71211217948718], [-101.17896648044692, 19.712290064102564], [-101.17835195530726, 19.712467948717947], [-101.1777374301676, 19.712764423076923], [-101.17717877094972, 19.713001602564102], [-101.17656424581006, 19.71323878205128], [-101.17594972067039, 19.713416666666667], [-101.17539106145252, 19.71371314102564], [-101.18019553072625, 19.711934294871796], [-101.18125698324022, 19.717626602564103], [-101.1827094972067, 19.717448717948717], [-101.18432960893854, 19.717211538461537], [-101.185, 19.717211538461537], [-101.18594972067038, 19.717152243589744], [-101.18662011173184, 19.717152243589744], [-101.18796089385474, 19.717092948717948], [-101.1886312849162, 19.717092948717948], [-101.19215083798882, 19.71673717948718], [-101.18756983240223, 19.70600480769231], [-101.18745810055866, 19.705945512820513], [-101.18745810055866, 19.705767628205127], [-101.18254189944133, 19.703810897435897], [-101.18243016759776, 19.703692307692307], [-101.18243016759776, 19.703277243589742], [-101.1799720670391, 19.717804487179485], [-101.17840782122904, 19.718041666666668], [-101.17695530726256, 19.71821955128205], [-101.15796089385475, 19.704285256410255]]}}]}