{"type": "FeatureCollection", "features": [{"type": "Feature", "properties": {"kind": "orange"}, "geometry": {"type": "LineString", "coordinates": [[-101.15673184357541, 19.73488141025641], [-101.15801675977654, 19.73280608974359], [-101.15874301675977, 19.731679487179488], [-101.15941340782123, 19.730967948717947], [-101.1604189944134, 19.729959935897437], [-101.1613687150838, 19.728951923076924], [-101.16209497206704, 19.728240384615383], [-101.16259776536313, 19.72782532051282], [-101.163156424581, 19.727173076923076], [-101.16421787709497, 19.726283653846153], [-101.16522346368716, 19.72551282051282], [-101.16617318435755, 19.72474198717949], [-101.16807262569833, 19.72320032051282], [-101.16896648044693, 19.722370192307693], [-101.16974860335195, 19.721658653846152], [-101.17064245810056, 19.720828525641025], [-101.17159217877095, 19.7199391025641], [-101.17248603351955, 19.719108974358974], [-101.17371508379888, 19.71792307692308], [-101.17472067039105, 19.71685576923077], [-101.175, 19.716322115384614], [-101.17567039106144, 19.715610576923076], [-101.17639664804469, 19.714721153846153], [-101.17734636871508, 19.713298076923078], [-101.17751396648045, 19.71199358974359], [-101.17840782122904, 19.711459935897437], [-101.1786312849162, 19.70968108974359], [-101.17974860335195, 19.70808012820513], [-101.17958100558658, 19.70689423076923], [-101.18064245810055, 19.704403846153845], [-101.1809217877095, 19.702625], [-101.17796089385475, 19.711104166666665], [-101.1758938547486, 19.713950320512822], [-101.175, 19.71466185897436], [-101.17488826815642, 19.715788461538462], [-101.1758938547486, 19.71454326923077], [-101.1740502793296, 19.71661858974359], [-101.17282122905027, 19.717863782051282], [-101.17120111731843, 19.718278846153847], [-101.18237430167598, 19.717448717948717], [-101.18958100558659, 19.713772435897436], [-101.19170391061452, 19.714839743589742], [-101.1941061452514, 19.71626282051282], [-101.18745810055866, 19.71270512820513], [-101.163156424581, 19.708435897435898], [-101.1627094972067, 19.708613782051284], [-101.16276536312849, 19.70825801282051], [-101.1627094972067, 19.707902243589743], [-101.16304469273743, 19.708139423076922], [-101.16310055865922, 19.707902243589743], [-101.1618156424581, 19.727054487179487], [-101.1581843575419, 19.731383012820512], [-101.15751396648045, 19.73209455128205], [-101.15678770949721, 19.73316185897436], [-101.15622905027934, 19.734169871794872]]}}]}